name,address,city,state,zip,phone,LAT,LON,hasSpecialties,ADDICTION MEDICINE,ADVANCED HEART FAILURE AND TRANSPLANT CARDIOLOGY,ALLERGY/IMMUNOLOGY,ANESTHESIOLOGY,ANESTHESIOLOGY ASSISTANT,AUDIOLOGIST,CARDIAC ELECTROPHYSIOLOGY,CARDIAC SURGERY,CARDIOVASCULAR DISEASE (CARDIOLOGY),CERTIFIED NURSE MIDWIFE,CERTIFIED REGISTERED NURSE ANESTHETIST,CHIROPRACTIC,CLINICAL NURSE SPECIALIST,CLINICAL PSYCHOLOGIST,CLINICAL SOCIAL WORKER,COLORECTAL SURGERY (PROCTOLOGY),CRITICAL CARE (INTENSIVISTS),DENTIST,DERMATOLOGY,DIAGNOSTIC RADIOLOGY,EMERGENCY MEDICINE,ENDOCRINOLOGY,FAMILY PRACTICE,GASTROENTEROLOGY,GENERAL PRACTICE,GENERAL SURGERY,GERIATRIC MEDICINE,GERIATRIC PSYCHIATRY,GYNECOLOGICAL ONCOLOGY,HAND SURGERY,HEMATOLOGY,HEMATOLOGY/ONCOLOGY,HEMATOPOIETIC CELL TRANSPLANTATION AND CELLULAR TH,HOSPICE/PALLIATIVE CARE,HOSPITALIST,INFECTIOUS DISEASE,INTERNAL MEDICINE,INTERVENTIONAL CARDIOLOGY,INTERVENTIONAL PAIN MANAGEMENT,INTERVENTIONAL RADIOLOGY,MAXILLOFACIAL SURGERY,MEDICAL ONCOLOGY,NEPHROLOGY,NEUROLOGY,NEUROPSYCHIATRY,NEUROSURGERY,NUCLEAR MEDICINE,NURSE PRACTITIONER,OBSTETRICS/GYNECOLOGY,OCCUPATIONAL THERAPY,OPHTHALMOLOGY,OPTOMETRY,ORAL SURGERY,ORTHOPEDIC SURGERY,OSTEOPATHIC MANIPULATIVE MEDICINE,OTOLARYNGOLOGY,PAIN MANAGEMENT,PATHOLOGY,PEDIATRIC MEDICINE,PERIPHERAL VASCULAR DISEASE,PHYSICAL MEDICINE AND REHABILITATION,PHYSICAL THERAPY,PHYSICIAN ASSISTANT,PLASTIC AND RECONSTRUCTIVE SURGERY,PODIATRY,PREVENTATIVE MEDICINE,PSYCHIATRY,PULMONARY DISEASE,RADIATION ONCOLOGY,REGISTERED DIETITIAN OR NUTRITION PROFESSIONAL,RHEUMATOLOGY,SLEEP MEDICINE,SPEECH LANGUAGE PATHOLOGIST,SPORTS MEDICINE,SURGICAL ONCOLOGY,THORACIC SURGERY,UNDEFINED PHYSICIAN TYPE (SPECIFY),UROLOGY,VASCULAR SURGERY,id
,61 Cambridge Street,West Leederville,Western Australia,6007,08 9200 6282,-31.940992,115.837344,FALSE,,,,,,,,,,,,,,,,,,,,,,,,,,,,,,,,,,,,,,,,,,,,,,,,,,,,,,,,,,,,,,,,,,,,,,,,,,,,,,,,PCP1
,33 Park Terrace,Gilberton,South Australia,5081,08 8269 8100,-34.90658,138.613167,FALSE,,,,,,,,,,,,,,,,,,,,,,,,,,,,,,,,,,,,,,,,,,,,,,,,,,,,,,,,,,,,,,,,,,,,,,,,,,,,,,,,PCP2
,18 North Terrace,Adelaide,South Australia,5000,08 8239 4900,-34.922409,138.588817,FALSE,,,,,,,,,,,,,,,,,,,,,,,,,,,,,,,,,,,,,,,,,,,,,,,,,,,,,,,,,,,,,,,,,,,,,,,,,,,,,,,,PCP3
,215 Greenhill Road,Eastwood,South Australia,5063,08 8274 7000,-34.94042,138.6215,FALSE,,,,,,,,,,,,,,,,,,,,,,,,,,,,,,,,,,,,,,,,,,,,,,,,,,,,,,,,,,,,,,,,,,,,,,,,,,,,,,,,PCP4
,89 King William Street,Kent Town,South Australia,5067,08 8211 0000,-34.917691,138.621022,FALSE,,,,,,,,,,,,,,,,,,,,,,,,,,,,,,,,,,,,,,,,,,,,,,,,,,,,,,,,,,,,,,,,,,,,,,,,,,,,,,,,PCP5
,14 Kensington Street,Kogarah,New South Wales,2217,02 9553 9905,-33.964843,151.135032,FALSE,,,,,,,,,,,,,,,,,,,,,,,,,,,,,,,,,,,,,,,,,,,,,,,,,,,,,,,,,,,,,,,,,,,,,,,,,,,,,,,,PCP6
Country WA,Warden Avenue,Albany,Western Australia,6330,08 9892 2222,-35.003407,117.904468,FALSE,,,,,,,,,,,,,,,,,,,,,,,,,,,,,,,,,,,,,,,,,,,,,,,,,,,,,,,,,,,,,,,,,,,,,,,,,,,,,,,,PCP7
,31 Albert Road,Melbourne,Victoria,3004,03 9256 8311,-37.834246,144.972151,FALSE,,,,,,,,,,,,,,,,,,,,,,,,,,,,,,,,,,,,,,,,,,,,,,,,,,,,,,,,,,,,,,,,,,,,,,,,,,,,,,,,PCP8
Murray,201 Borella Road,Albury,New South Wales,2640,02 6058 4444,-36.078401,146.939146,FALSE,,,,,,,,,,,,,,,,,,,,,,,,,,,,,,,,,,,,,,,,,,,,,,,,,,,,,,,,,,,,,,,,,,,,,,,,,,,,,,,,PCP9
Murray,69 Vermont Street,Wodonga,Victoria,3690,02 6051 7111,-36.131791,146.879417,FALSE,,,,,,,,,,,,,,,,,,,,,,,,,,,,,,,,,,,,,,,,,,,,,,,,,,,,,,,,,,,,,,,,,,,,,,,,,,,,,,,,PCP10
,1125 Pemberton Street,West Albury,New South Wales,2640,02 6041 1411,-36.075621,146.883177,FALSE,,,,,,,,,,,,,,,,,,,,,,,,,,,,,,,,,,,,,,,,,,,,,,,,,,,,,,,,,,,,,,,,,,,,,,,,,,,,,,,,PCP11
Murray,12 Cooper Street,Alexandra,Victoria,3714,03 5772 0900,-37.195065,145.716143,FALSE,,,,,,,,,,,,,,,,,,,,,,,,,,,,,,,,,,,,,,,,,,,,,,,,,,,,,,,,,,,,,,,,,,,,,,,,,,,,,,,,PCP12
Northern Territory,6 Gap Road,Alice Springs,Northern Territory,870,08 8951 7777,-23.705758,133.878064,FALSE,,,,,,,,,,,,,,,,,,,,,,,,,,,,,,,,,,,,,,,,,,,,,,,,,,,,,,,,,,,,,,,,,,,,,,,,,,,,,,,,PCP13
,8 Perry Street,Dundas,New South Wales,2117,02 9858 4994,-33.791787,151.06387,FALSE,,,,,,,,,,,,,,,,,,,,,,,,,,,,,,,,,,,,,,,,,,,,,,,,,,,,,,,,,,,,,,,,,,,,,,,,,,,,,,,,PCP14
Western Queensland,1 Burns Street,Alpha,Queensland,4724,07 4809 7000,-23.649039,146.632962,FALSE,,,,,,,,,,,,,,,,,,,,,,,,,,,,,,,,,,,,,,,,,,,,,,,,,,,,,,,,,,,,,,,,,,,,,,,,,,,,,,,,PCP15
Murray,36-42 Cobden Street,Bright,Victoria,3741,03 5755 0100,-36.732701,146.965924,FALSE,,,,,,,,,,,,,,,,,,,,,,,,,,,,,,,,,,,,,,,,,,,,,,,,,,,,,,,,,,,,,,,,,,,,,,,,,,,,,,,,PCP16
Murray,10 Hollonds Street,Mt Beauty,Victoria,3699,03 5754 3500,-36.743354,147.169359,FALSE,,,,,,,,,,,,,,,,,,,,,,,,,,,,,,,,,,,,,,,,,,,,,,,,,,,,,,,,,,,,,,,,,,,,,,,,,,,,,,,,PCP17
Murray,30 O'Donnell Avenue,Myrtleford,Victoria,3736,03 5751 9300,-36.554525,146.728795,FALSE,,,,,,,,,,,,,,,,,,,,,,,,,,,,,,,,,,,,,,,,,,,,,,,,,,,,,,,,,,,,,,,,,,,,,,,,,,,,,,,,PCP18
Country SA,29 North Street,Angaston,South Australia,5353,08 8563 8500,-34.503549,139.054715,FALSE,,,,,,,,,,,,,,,,,,,,,,,,,,,,,,,,,,,,,,,,,,,,,,,,,,,,,,,,,,,,,,,,,,,,,,,,,,,,,,,,PCP19
Eastern Melbourne,Albert Street,Upper Ferntree Gully,Victoria,3156,1300 342 255,-37.898663,145.314166,FALSE,,,,,,,,,,,,,,,,,,,,,,,,,,,,,,,,,,,,,,,,,,,,,,,,,,,,,,,,,,,,,,,,,,,,,,,,,,,,,,,,PCP20
Perth South,3056 Albany Highway,Armadale,Western Australia,6112,08 9391 2000,-32.133212,116.020023,FALSE,,,,,,,,,,,,,,,,,,,,,,,,,,,,,,,,,,,,,,,,,,,,,,,,,,,,,,,,,,,,,,,,,,,,,,,,,,,,,,,,PCP21
Hunter New England and Central Coast,226 Rusden Street,Armidale,New South Wales,2350,02 6776 9500,-30.512726,151.655629,FALSE,,,,,,,,,,,,,,,,,,,,,,,,,,,,,,,,,,,,,,,,,,,,,,,,,,,,,,,,,,,,,,,,,,,,,,,,,,,,,,,,PCP22
,Rusden Street,Armidale,New South Wales,2350,02 6771 4000,-30.512719,151.654565,FALSE,,,,,,,,,,,,,,,,,,,,,,,,,,,,,,,,,,,,,,,,,,,,,,,,,,,,,,,,,,,,,,,,,,,,,,,,,,,,,,,,PCP23
,55 Anzac Highway,Ashford,South Australia,5035,08 8375 5222,-34.948142,138.576725,FALSE,,,,,,,,,,,,,,,,,,,,,,,,,,,,,,,,,,,,,,,,,,,,,,,,,,,,,,,,,,,,,,,,,,,,,,,,,,,,,,,,PCP24
Northern Queensland,Corner of Louise and Jack Streets,Atherton,Queensland,4883,07 4091 0211,-17.266635,145.483177,FALSE,,,,,,,,,,,,,,,,,,,,,,,,,,,,,,,,,,,,,,,,,,,,,,,,,,,,,,,,,,,,,,,,,,,,,,,,,,,,,,,,PCP25
,21 Hislop Road,Attadale,Western Australia,6156,08 9330 1000,-32.029729,115.810669,FALSE,,,,,,,,,,,,,,,,,,,,,,,,,,,,,,,,,,,,,,,,,,,,,,,,,,,,,,,,,,,,,,,,,,,,,,,,,,,,,,,,PCP26
Western Sydney,18-20 Hargrave Road,Auburn,New South Wales,2144,02 8759 3000,-33.859867,151.033204,FALSE,,,,,,,,,,,,,,,,,,,,,,,,,,,,,,,,,,,,,,,,,,,,,,,,,,,,,,,,,,,,,,,,,,,,,,,,,,,,,,,,PCP27
Western Queensland,Cavanagh Street,Augathella,Queensland,4477,07 4656 7100,-25.796104,146.590919,FALSE,,,,,,,,,,,,,,,,,,,,,,,,,,,,,,,,,,,,,,,,,,,,,,,,,,,,,,,,,,,,,,,,,,,,,,,,,,,,,,,,PCP28
Country WA,Donovan Street,Augusta,Western Australia,6290,08 9758 3222,-34.305814,115.157983,FALSE,,,,,,,,,,,,,,,,,,,,,,,,,,,,,,,,,,,,,,,,,,,,,,,,,,,,,,,,,,,,,,,,,,,,,,,,,,,,,,,,PCP29
Eastern Melbourne,145 Studley Road,Heidelberg,Victoria,3084,03 9496 5000,-37.756355,145.060236,FALSE,,,,,,,,,,,,,,,,,,,,,,,,,,,,,,,,,,,,,,,,,,,,,,,,,,,,,,,,,,,,,,,,,,,,,,,,,,,,,,,,PCP30
Northern Queensland,2 Chippendale Street,Ayr,Queensland,4807,07 4783 0855,-19.564066,147.408821,FALSE,,,,,,,,,,,,,,,,,,,,,,,,,,,,,,,,,,,,,,,,,,,,,,,,,,,,,,,,,,,,,,,,,,,,,,,,,,,,,,,,PCP31
Northern Queensland,128 Munro Street,Babinda,Queensland,4861,07 4067 8200,-17.343079,145.918908,FALSE,,,,,,,,,,,,,,,,,,,,,,,,,,,,,,,,,,,,,,,,,,,,,,,,,,,,,,,,,,,,,,,,,,,,,,,,,,,,,,,,PCP32
Darling Downs and West Moreton,Corner of Hogg and Tor Streets,Toowoomba,Queensland,4350,07 4699 8888,-27.524371,151.936283,FALSE,,,,,,,,,,,,,,,,,,,,,,,,,,,,,,,,,,,,,,,,,,,,,,,,,,,,,,,,,,,,,,,,,,,,,,,,,,,,,,,,PCP33
Gippsland,122 Day Street,Bairnsdale,Victoria,3875,03 5150 3333,-37.830814,147.607905,FALSE,,,,,,,,,,,,,,,,,,,,,,,,,,,,,,,,,,,,,,,,,,,,,,,,,,,,,,,,,,,,,,,,,,,,,,,,,,,,,,,,PCP34
Country SA,16 War Memorial Drive,Balaklava,South Australia,5461,08 8862 1400,-34.139594,138.419596,FALSE,,,,,,,,,,,,,,,,,,,,,,,,,,,,,,,,,,,,,,,,,,,,,,,,,,,,,,,,,,,,,,,,,,,,,,,,,,,,,,,,PCP35
,1119-1123 Howitt Street,Wendouree,Victoria,3350,03 5338 2666,-37.540799,143.83214,FALSE,,,,,,,,,,,,,,,,,,,,,,,,,,,,,,,,,,,,,,,,,,,,,,,,,,,,,,,,,,,,,,,,,,,,,,,,,,,,,,,,PCP36
Western Victoria,1 Dummond Street North,Ballarat Central,Victoria,3350,03 5320 4000,-37.559658,143.847041,FALSE,,,,,,,,,,,,,,,,,,,,,,,,,,,,,,,,,,,,,,,,,,,,,,,,,,,,,,,,,,,,,,,,,,,,,,,,,,,,,,,,PCP37
Western Victoria,102 Ascot Street,Ballarat,Victoria,3350,03 5320 3700,-37.564276,143.843264,FALSE,,,,,,,,,,,,,,,,,,,,,,,,,,,,,,,,,,,,,,,,,,,,,,,,,,,,,,,,,,,,,,,,,,,,,,,,,,,,,,,,PCP38
,"Suite 6, 46 Tamar Street",Ballina,New South Wales,2478,02 6681 9999,-28.870711,153.563241,FALSE,,,,,,,,,,,,,,,,,,,,,,,,,,,,,,,,,,,,,,,,,,,,,,,,,,,,,,,,,,,,,,,,,,,,,,,,,,,,,,,,PCP39
North Coast,78-92 Cherry Street,Ballina,New South Wales,2478,02 6686 2111,-28.863525,153.564013,FALSE,,,,,,,,,,,,,,,,,,,,,,,,,,,,,,,,,,,,,,,,,,,,,,,,,,,,,,,,,,,,,,,,,,,,,,,,,,,,,,,,PCP40
Central and Eastern Sydney,29 Booth Street,Balmain,New South Wales,2041,02 9395 2111,-33.859469,151.181469,FALSE,,,,,,,,,,,,,,,,,,,,,,,,,,,,,,,,,,,,,,,,,,,,,,,,,,,,,,,,,,,,,,,,,,,,,,,,,,,,,,,,PCP41
Western NSW,41-43 Court Street,Balranald,New South Wales,2715,03 5071 9800,-34.644549,143.568413,FALSE,,,,,,,,,,,,,,,,,,,,,,,,,,,,,,,,,,,,,,,,,,,,,,,,,,,,,,,,,,,,,,,,,,,,,,,,,,,,,,,,PCP42
Northern Queensland,Sagaukaz Street,Bamaga,Queensland,4876,07 4069 3166,-10.893996,142.385131,FALSE,,,,,,,,,,,,,,,,,,,,,,,,,,,,,,,,,,,,,,,,,,,,,,,,,,,,,,,,,,,,,,,,,,,,,,,,,,,,,,,,PCP43
South Western Sydney,68 Eldridge Road,Bankstown,New South Wales,2200,02 9722 8000,-33.933088,151.020823,FALSE,,,,,,,,,,,,,,,,,,,,,,,,,,,,,,,,,,,,,,,,,,,,,,,,,,,,,,,,,,,,,,,,,,,,,,,,,,,,,,,,PCP44
Western NSW,5-9 Macquarie Street,Baradine,New South Wales,2396,02 6843 4100,-30.945316,149.066189,FALSE,,,,,,,,,,,,,,,,,,,,,,,,,,,,,,,,,,,,,,,,,,,,,,,,,,,,,,,,,,,,,,,,,,,,,,,,,,,,,,,,PCP45
"Central Queensland, Wide Bay and Sunshine Coast",Stopford Street,Baralaba,Queensland,4702,07 4998 2800,-24.184268,149.809586,FALSE,,,,,,,,,,,,,,,,,,,,,,,,,,,,,,,,,,,,,,,,,,,,,,,,,,,,,,,,,,,,,,,,,,,,,,,,,,,,,,,,PCP46
Western Queensland,Oak Street,Barcaldine,Queensland,4725,07 4650 4000,-23.553316,145.293674,FALSE,,,,,,,,,,,,,,,,,,,,,,,,,,,,,,,,,,,,,,,,,,,,,,,,,,,,,,,,,,,,,,,,,,,,,,,,,,,,,,,,PCP47
Murrumbidgee,70 Punt Road,Barham,New South Wales,2732,03 5451 1000,-35.623823,144.133479,FALSE,,,,,,,,,,,,,,,,,,,,,,,,,,,,,,,,,,,,,,,,,,,,,,,,,,,,,,,,,,,,,,,,,,,,,,,,,,,,,,,,PCP48
,31 Mackays Road,Coffs Harbour,New South Wales,2450,02 6659 4444,-30.278813,153.102893,FALSE,,,,,,,,,,,,,,,,,,,,,,,,,,,,,,,,,,,,,,,,,,,,,,,,,,,,,,,,,,,,,,,,,,,,,,,,,,,,,,,,PCP49
Country SA,Hawdon Street,Barmera,South Australia,5345,08 8588 0400,-34.249146,140.471706,FALSE,,,,,,,,,,,,,,,,,,,,,,,,,,,,,,,,,,,,,,,,,,,,,,,,,,,,,,,,,,,,,,,,,,,,,,,,,,,,,,,,PCP50
Hunter New England and Central Coast,Edward Street,Barraba,New South Wales,2347,02 6782 2500,-30.382482,150.605778,FALSE,,,,,,,,,,,,,,,,,,,,,,,,,,,,,,,,,,,,,,,,,,,,,,,,,,,,,,,,,,,,,,,,,,,,,,,,,,,,,,,,PCP51
Gippsland,235 Graham Street,Wonthaggi,Victoria,3995,03 5671 3333,-38.608747,145.580906,FALSE,,,,,,,,,,,,,,,,,,,,,,,,,,,,,,,,,,,,,,,,,,,,,,,,,,,,,,,,,,,,,,,,,,,,,,,,,,,,,,,,PCP52
South Eastern NSW,7 Pacific Street,Batemans Bay,New South Wales,2536,02 4475 1500,-35.714055,150.182375,FALSE,,,,,,,,,,,,,,,,,,,,,,,,,,,,,,,,,,,,,,,,,,,,,,,,,,,,,,,,,,,,,,,,,,,,,,,,,,,,,,,,PCP53
Western NSW,361-365 Howick Street,Bathurst,New South Wales,2795,02 6330 5311,-33.406512,149.572699,FALSE,,,,,,,,,,,,,,,,,,,,,,,,,,,,,,,,,,,,,,,,,,,,,,,,,,,,,,,,,,,,,,,,,,,,,,,,,,,,,,,,PCP54
,Gorman's Hill Road,Bathurst,New South Wales,2795,02 6331 7766,-33.435215,149.589242,FALSE,,,,,,,,,,,,,,,,,,,,,,,,,,,,,,,,,,,,,,,,,,,,,,,,,,,,,,,,,,,,,,,,,,,,,,,,,,,,,,,,PCP55
Murrumbidgee,61-81 Pioneer Street,Batlow,New South Wales,2730,02 6941 4333,-35.521951,148.147891,FALSE,,,,,,,,,,,,,,,,,,,,,,,,,,,,,,,,,,,,,,,,,,,,,,,,,,,,,,,,,,,,,,,,,,,,,,,,,,,,,,,,PCP56
Tasmania,13 Bolton Street,Beaconsfield,Tasmania,7270,03 6702 6060,-41.193478,146.806719,FALSE,,,,,,,,,,,,,,,,,,,,,,,,,,,,,,,,,,,,,,,,,,,,,,,,,,,,,,,,,,,,,,,,,,,,,,,,,,,,,,,,PCP57
Brisbane South,64 Tina Street,Beaudesert,Queensland,4285,07 5541 9111,-27.984869,153.002536,FALSE,,,,,,,,,,,,,,,,,,,,,,,,,,,,,,,,,,,,,,,,,,,,,,,,,,,,,,,,,,,,,,,,,,,,,,,,,,,,,,,,PCP58
Western Victoria,28 Havelock Street,Beaufort,Victoria,3373,03 5349 1600,-37.431028,143.382284,FALSE,,,,,,,,,,,,,,,,,,,,,,,,,,,,,,,,,,,,,,,,,,,,,,,,,,,,,,,,,,,,,,,,,,,,,,,,,,,,,,,,PCP59
Western Victoria,Blake Street,Skipton,Victoria,3361,03 5340 1100,-37.683998,143.367547,FALSE,,,,,,,,,,,,,,,,,,,,,,,,,,,,,,,,,,,,,,,,,,,,,,,,,,,,,,,,,,,,,,,,,,,,,,,,,,,,,,,,PCP60
Murray,52 Sydney Road,Beechworth,Victoria,3747,03 5728 0200,-36.349359,146.690739,FALSE,,,,,,,,,,,,,,,,,,,,,,,,,,,,,,,,,,,,,,,,,,,,,,,,,,,,,,,,,,,,,,,,,,,,,,,,,,,,,,,,PCP61
,31 Parker Street,Bega,New South Wales,2550,02 6492 4144,-36.673617,149.845812,FALSE,,,,,,,,,,,,,,,,,,,,,,,,,,,,,,,,,,,,,,,,,,,,,,,,,,,,,,,,,,,,,,,,,,,,,,,,,,,,,,,,PCP62
,925 Nepean Highway,Mornington,Victoria,3931,03 5976 0888,-38.225484,145.049136,FALSE,,,,,,,,,,,,,,,,,,,,,,,,,,,,,,,,,,,,,,,,,,,,,,,,,,,,,,,,,,,,,,,,,,,,,,,,,,,,,,,,PCP63
,198 Canterbury Road,Blackburn South,Victoria,3130,03 9845 2333,-37.833073,145.156018,FALSE,,,,,,,,,,,,,,,,,,,,,,,,,,,,,,,,,,,,,,,,,,,,,,,,,,,,,,,,,,,,,,,,,,,,,,,,,,,,,,,,PCP64
North Coast,43 Church Street,Bellingen,New South Wales,2454,02 6659 5800,-30.457256,152.893209,FALSE,,,,,,,,,,,,,,,,,,,,,,,,,,,,,,,,,,,,,,,,,,,,,,,,,,,,,,,,,,,,,,,,,,,,,,,,,,,,,,,,PCP65
Hunter New England and Central Coast,16 Croudace Bay Road,Belmont,New South Wales,2280,02 4923 2000,-33.024631,151.648181,FALSE,,,,,,,,,,,,,,,,,,,,,,,,,,,,,,,,,,,,,,,,,,,,,,,,,,,,,,,,,,,,,,,,,,,,,,,,,,,,,,,,PCP66
Murray,45-53 Coster Street,Benalla,Victoria,3672,03 5760 2222,-36.555239,145.994675,FALSE,,,,,,,,,,,,,,,,,,,,,,,,,,,,,,,,,,,,,,,,,,,,,,,,,,,,,,,,,,,,,,,,,,,,,,,,,,,,,,,,PCP67
Murray,100 Barnard Street,Bendigo,Victoria,3550,03 5454 6000,-36.750919,144.280399,FALSE,,,,,,,,,,,,,,,,,,,,,,,,,,,,,,,,,,,,,,,,,,,,,,,,,,,,,,,,,,,,,,,,,,,,,,,,,,,,,,,,PCP68
Perth South,18-56 Mills Street,Bentley,Western Australia,6102,08 9416 3666,-32.005332,115.927922,FALSE,,,,,,,,,,,,,,,,,,,,,,,,,,,,,,,,,,,,,,,,,,,,,,,,,,,,,,,,,,,,,,,,,,,,,,,,,,,,,,,,PCP69
,Lorraine Avenue,Berkeley Vale,New South Wales,2261,02 4389 9100,-33.337061,151.432784,FALSE,,,,,,,,,,,,,,,,,,,,,,,,,,,,,,,,,,,,,,,,,,,,,,,,,,,,,,,,,,,,,,,,,,,,,,,,,,,,,,,,PCP70
Murrumbidgee,137-143 Memorial Place,Berrigan,New South Wales,2712,03 5888 5300,-35.662312,145.813035,FALSE,,,,,,,,,,,,,,,,,,,,,,,,,,,,,,,,,,,,,,,,,,,,,,,,,,,,,,,,,,,,,,,,,,,,,,,,,,,,,,,,PCP71
,22 Langmore Lane,Berwick,Victoria,3806,03 9768 9210,-38.033667,145.346487,FALSE,,,,,,,,,,,,,,,,,,,,,,,,,,,,,,,,,,,,,,,,,,,,,,,,,,,,,,,,,,,,,,,,,,,,,,,,,,,,,,,,PCP72
,25 Queenslea Drive,Claremont,Western Australia,6010,08 9340 6300,-31.986967,115.778484,FALSE,,,,,,,,,,,,,,,,,,,,,,,,,,,,,,,,,,,,,,,,,,,,,,,,,,,,,,,,,,,,,,,,,,,,,,,,,,,,,,,,PCP73
Country WA,Sewell Street,Beverley,Western Australia,6304,08 9646 3200,-32.102825,116.922962,FALSE,,,,,,,,,,,,,,,,,,,,,,,,,,,,,,,,,,,,,,,,,,,,,,,,,,,,,,,,,,,,,,,,,,,,,,,,,,,,,,,,PCP74
"Central Queensland, Wide Bay and Sunshine Coast",Alice Street,Biggenden,Queensland,4621,07 4127 6400,-25.506406,152.051099,FALSE,,,,,,,,,,,,,,,,,,,,,,,,,,,,,,,,,,,,,,,,,,,,,,,,,,,,,,,,,,,,,,,,,,,,,,,,,,,,,,,,PCP75
"Central Queensland, Wide Bay and Sunshine Coast",2 Hospital Road,Biloela,Queensland,4715,07 4992 7000,-24.395813,150.517491,FALSE,,,,,,,,,,,,,,,,,,,,,,,,,,,,,,,,,,,,,,,,,,,,,,,,,,,,,,,,,,,,,,,,,,,,,,,,,,,,,,,,PCP76
Hunter New England and Central Coast,Keera Street,Bingara,New South Wales,2404,02 6728 0100,-29.864055,150.579235,FALSE,,,,,,,,,,,,,,,,,,,,,,,,,,,,,,,,,,,,,,,,,,,,,,,,,,,,,,,,,,,,,,,,,,,,,,,,,,,,,,,,PCP77
Western Queensland,Shamrock Street,Blackall,Queensland,4472,07 4650 7700,-24.422705,145.449349,FALSE,,,,,,,,,,,,,,,,,,,,,,,,,,,,,,,,,,,,,,,,,,,,,,,,,,,,,,,,,,,,,,,,,,,,,,,,,,,,,,,,PCP78
Western Sydney,Blacktown Road,Blacktown,New South Wales,2148,02 9881 8000,-33.775552,150.917537,FALSE,,,,,,,,,,,,,,,,,,,,,,,,,,,,,,,,,,,,,,,,,,,,,,,,,,,,,,,,,,,,,,,,,,,,,,,,,,,,,,,,PCP79
"Central Queensland, Wide Bay and Sunshine Coast",Mackenzie Street,Blackwater,Queensland,4717,07 4980 1800,-23.571873,148.878219,FALSE,,,,,,,,,,,,,,,,,,,,,,,,,,,,,,,,,,,,,,,,,,,,,,,,,,,,,,,,,,,,,,,,,,,,,,,,,,,,,,,,PCP80
Western NSW,3 Osman Street,Blayney,New South Wales,2799,02 6368 9000,-33.537728,149.248988,FALSE,,,,,,,,,,,,,,,,,,,,,,,,,,,,,,,,,,,,,,,,,,,,,,,,,,,,,,,,,,,,,,,,,,,,,,,,,,,,,,,,PCP81
Nepean Blue Mountains,Lot 3 Woodlands Road,Katoomba,New South Wales,2780,02 4784 6500,-33.705329,150.32111,FALSE,,,,,,,,,,,,,,,,,,,,,,,,,,,,,,,,,,,,,,,,,,,,,,,,,,,,,,,,,,,,,,,,,,,,,,,,,,,,,,,,PCP82
Country WA,46-53 Hotham Avenue,Boddington,Western Australia,6390,08 9883 4444,-32.803715,116.475774,FALSE,,,,,,,,,,,,,,,,,,,,,,,,,,,,,,,,,,,,,,,,,,,,,,,,,,,,,,,,,,,,,,,,,,,,,,,,,,,,,,,,PCP83
Hunter New England and Central Coast,3 Wee Waa Street,Boggabri,New South Wales,2382,02 6749 7000,-30.711502,150.040014,FALSE,,,,,,,,,,,,,,,,,,,,,,,,,,,,,,,,,,,,,,,,,,,,,,,,,,,,,,,,,,,,,,,,,,,,,,,,,,,,,,,,PCP84
South Eastern NSW,126-128 Wellington Street,Bombala,New South Wales,2632,02 6458 5777,-36.917513,149.235372,FALSE,,,,,,,,,,,,,,,,,,,,,,,,,,,,,,,,,,,,,,,,,,,,,,,,,,,,,,,,,,,,,,,,,,,,,,,,,,,,,,,,PCP85
North Coast,Clarence Way,Bonalbo,New South Wales,2469,02 6665 1203,-28.733777,152.622789,FALSE,,,,,,,,,,,,,,,,,,,,,,,,,,,,,,,,,,,,,,,,,,,,,,,,,,,,,,,,,,,,,,,,,,,,,,,,,,,,,,,,PCP86
Country SA,Stephens Street,Booleroo Centre,South Australia,5482,08 8667 2211,-32.877911,138.350958,FALSE,,,,,,,,,,,,,,,,,,,,,,,,,,,,,,,,,,,,,,,,,,,,,,,,,,,,,,,,,,,,,,,,,,,,,,,,,,,,,,,,PCP87
Darling Downs and West Moreton,11-17 Leonard Street,Boonah,Queensland,4310,07 5463 3300,-27.999128,152.678943,FALSE,,,,,,,,,,,,,,,,,,,,,,,,,,,,,,,,,,,,,,,,,,,,,,,,,,,,,,,,,,,,,,,,,,,,,,,,,,,,,,,,PCP88
Murrumbidgee,62-80 Dry Street,Boorowa,New South Wales,2586,02 6385 3004,-34.442822,148.727073,FALSE,,,,,,,,,,,,,,,,,,,,,,,,,,,,,,,,,,,,,,,,,,,,,,,,,,,,,,,,,,,,,,,,,,,,,,,,,,,,,,,,PCP89
Murray,31 Kiniry Street,Boort,Victoria,3537,03 5451 5200,-36.111703,143.727285,FALSE,,,,,,,,,,,,,,,,,,,,,,,,,,,,,,,,,,,,,,,,,,,,,,,,,,,,,,,,,,,,,,,,,,,,,,,,,,,,,,,,PCP90
Country SA,23 South Terrace,Bordertown,South Australia,5268,08 8752 9000,-36.312133,140.766438,FALSE,,,,,,,,,,,,,,,,,,,,,,,,,,,,,,,,,,,,,,,,,,,,,,,,,,,,,,,,,,,,,,,,,,,,,,,,,,,,,,,,PCP91
Western NSW,26 Tarcoon Street,Bourke,New South Wales,2840,02 6870 8888,-30.092823,145.947983,FALSE,,,,,,,,,,,,,,,,,,,,,,,,,,,,,,,,,,,,,,,,,,,,,,,,,,,,,,,,,,,,,,,,,,,,,,,,,,,,,,,,PCP92
South Eastern NSW,234 Bourke Street,Goulburn,New South Wales,2580,02 4823 7800,-34.748721,149.719321,FALSE,,,,,,,,,,,,,,,,,,,,,,,,,,,,,,,,,,,,,,,,,,,,,,,,,,,,,,,,,,,,,,,,,,,,,,,,,,,,,,,,PCP93
Northern Queensland,Gregory Street,Bowen,Queensland,4805,07 4786 8222,-20.007104,148.240327,FALSE,,,,,,,,,,,,,,,,,,,,,,,,,,,,,,,,,,,,,,,,,,,,,,,,,,,,,,,,,,,,,,,,,,,,,,,,,,,,,,,,PCP94
South Western Sydney,Lot 3 Mona Road,Bowral,New South Wales,2576,02 4861 0200,-34.485043,150.423796,FALSE,,,,,,,,,,,,,,,,,,,,,,,,,,,,,,,,,,,,,,,,,,,,,,,,,,,,,,,,,,,,,,,,,,,,,,,,,,,,,,,,PCP95
Eastern Melbourne,8 Arnold Street,Box Hill,Victoria,3128,1300 342 255,-37.813682,145.119094,FALSE,,,,,,,,,,,,,,,,,,,,,,,,,,,,,,,,,,,,,,,,,,,,,,,,,,,,,,,,,,,,,,,,,,,,,,,,,,,,,,,,PCP96
Country WA,Hospital Road,Boyup Brook,Western Australia,6244,08 9765 0222,-33.839231,116.390639,FALSE,,,,,,,,,,,,,,,,,,,,,,,,,,,,,,,,,,,,,,,,,,,,,,,,,,,,,,,,,,,,,,,,,,,,,,,,,,,,,,,,PCP97
South Western Sydney,340 Prairie Vale Road,Prairiewood,New South Wales,2176,02 9616 8600,-33.861917,150.902192,FALSE,,,,,,,,,,,,,,,,,,,,,,,,,,,,,,,,,,,,,,,,,,,,,,,,,,,,,,,,,,,,,,,,,,,,,,,,,,,,,,,,PCP98
South Eastern NSW,77 Monkittee Street,Braidwood,New South Wales,2622,02 4842 2566,-35.443216,149.805302,FALSE,,,,,,,,,,,,,,,,,,,,,,,,,,,,,,,,,,,,,,,,,,,,,,,,,,,,,,,,,,,,,,,,,,,,,,,,,,,,,,,,PCP99
Western NSW,56 Doyle Street,Brewarrina,New South Wales,2839,02 6830 5000,-29.961627,146.863796,FALSE,,,,,,,,,,,,,,,,,,,,,,,,,,,,,,,,,,,,,,,,,,,,,,,,,,,,,,,,,,,,,,,,,,,,,,,,,,,,,,,,PCP100
Country WA,16-18 Peninsula Road,Bridgetown,Western Australia,6255,08 9782 1222,-33.951681,116.132183,FALSE,,,,,,,,,,,,,,,,,,,,,,,,,,,,,,,,,,,,,,,,,,,,,,,,,,,,,,,,,,,,,,,,,,,,,,,,,,,,,,,,PCP101
,"Suite 7, 5 Dann Close",Garran,Australian Capital Territory,2605,02 6282 7788,-35.3495,149.1031,FALSE,,,,,,,,,,,,,,,,,,,,,,,,,,,,,,,,,,,,,,,,,,,,,,,,,,,,,,,,,,,,,,,,,,,,,,,,,,,,,,,,PCP102
,Suites 16-18/259 McCullough Street,Sunnybank,Queensland,4109,07 3344 1844,-27.572418,153.061985,FALSE,,,,,,,,,,,,,,,,,,,,,,,,,,,,,,,,,,,,,,,,,,,,,,,,,,,,,,,,,,,,,,,,,,,,,,,,,,,,,,,,PCP103
,259 Wickham Terrace,Brisbane,Queensland,4000,07 3834 6111,-27.464756,153.022642,FALSE,,,,,,,,,,,,,,,,,,,,,,,,,,,,,,,,,,,,,,,,,,,,,,,,,,,,,,,,,,,,,,,,,,,,,,,,,,,,,,,,PCP104
,21 Vidler Avenue,Woy Woy,New South Wales,2256,02 4341 9522,-33.495233,151.321708,FALSE,,,,,,,,,,,,,,,,,,,,,,,,,,,,,,,,,,,,,,,,,,,,,,,,,,,,,,,,,,,,,,,,,,,,,,,,,,,,,,,,PCP105
North Western Melbourne,35 Johnstone Street,Broadmeadows,Victoria,3047,03 8345 5000,-37.684321,144.913106,FALSE,,,,,,,,,,,,,,,,,,,,,,,,,,,,,,,,,,,,,,,,,,,,,,,,,,,,,,,,,,,,,,,,,,,,,,,,,,,,,,,,PCP106
Western NSW,176 Thomas Street,Broken Hill,New South Wales,2880,08 8080 1333,-31.947609,141.454703,FALSE,,,,,,,,,,,,,,,,,,,,,,,,,,,,,,,,,,,,,,,,,,,,,,,,,,,,,,,,,,,,,,,,,,,,,,,,,,,,,,,,PCP107
Country WA,Robinson Street,Broome,Western Australia,6725,08 9194 2222,-17.960975,122.236289,FALSE,,,,,,,,,,,,,,,,,,,,,,,,,,,,,,,,,,,,,,,,,,,,,,,,,,,,,,,,,,,,,,,,,,,,,,,,,,,,,,,,PCP108
Country WA,35 Dunstall Street,Bruce Rock,Western Australia,6418,08 9061 1311,-31.873038,118.146414,FALSE,,,,,,,,,,,,,,,,,,,,,,,,,,,,,,,,,,,,,,,,,,,,,,,,,,,,,,,,,,,,,,,,,,,,,,,,,,,,,,,,PCP109
,"Suite 5, 102 Wises Road",Maroochydore,Queensland,4558,07 5475 4464,-26.671731,153.084944,FALSE,,,,,,,,,,,,,,,,,,,,,,,,,,,,,,,,,,,,,,,,,,,,,,,,,,,,,,,,,,,,,,,,,,,,,,,,,,,,,,,,PCP110
,12 Elsa Wilson Drive,Buderim,Queensland,4556,07 5430 3303,-26.683988,153.092895,FALSE,,,,,,,,,,,,,,,,,,,,,,,,,,,,,,,,,,,,,,,,,,,,,,,,,,,,,,,,,,,,,,,,,,,,,,,,,,,,,,,,PCP111
Hunter New England and Central Coast,Richmond Street,Bulahdelah,New South Wales,2423,02 4987 9900,-32.403949,152.210029,FALSE,,,,,,,,,,,,,,,,,,,,,,,,,,,,,,,,,,,,,,,,,,,,,,,,,,,,,,,,,,,,,,,,,,,,,,,,,,,,,,,,PCP112
South Eastern NSW,Hospital Road,Bulli,New South Wales,2516,02 4284 4344,-34.336667,150.907344,FALSE,,,,,,,,,,,,,,,,,,,,,,,,,,,,,,,,,,,,,,,,,,,,,,,,,,,,,,,,,,,,,,,,,,,,,,,,,,,,,,,,PCP113
Country WA,Corner of Robertson Drive and Bussell Highway,Bunbury,Western Australia,6230,08 9722 1000,-33.366986,115.648183,FALSE,,,,,,,,,,,,,,,,,,,,,,,,,,,,,,,,,,,,,,,,,,,,,,,,,,,,,,,,,,,,,,,,,,,,,,,,,,,,,,,,PCP114
"Central Queensland, Wide Bay and Sunshine Coast",Bourbong Street,Bundaberg,Queensland,4670,07 4150 2222,-24.868877,152.336157,FALSE,,,,,,,,,,,,,,,,,,,,,,,,,,,,,,,,,,,,,,,,,,,,,,,,,,,,,,,,,,,,,,,,,,,,,,,,,,,,,,,,PCP115
North Western Melbourne,1231 Plenty Road,Bundoora,Victoria,3083,03 9495 3100,-37.701124,145.055569,FALSE,,,,,,,,,,,,,,,,,,,,,,,,,,,,,,,,,,,,,,,,,,,,,,,,,,,,,,,,,,,,,,,,,,,,,,,,,,,,,,,,PCP116
,120 Kensington Road,Toorak Gardens,South Australia,5065,08 8202 7222,-34.927126,138.638878,FALSE,,,,,,,,,,,,,,,,,,,,,,,,,,,,,,,,,,,,,,,,,,,,,,,,,,,,,,,,,,,,,,,,,,,,,,,,,,,,,,,,PCP117
Country SA,46 Commercial Street,Burra,South Australia,5417,08 8892 2300,-33.685486,138.934577,FALSE,,,,,,,,,,,,,,,,,,,,,,,,,,,,,,,,,,,,,,,,,,,,,,,,,,,,,,,,,,,,,,,,,,,,,,,,,,,,,,,,PCP118
Country WA,Mill Road,Busselton,Western Australia,6280,08 9753 6000,-33.654351,115.319581,FALSE,,,,,,,,,,,,,,,,,,,,,,,,,,,,,,,,,,,,,,,,,,,,,,,,,,,,,,,,,,,,,,,,,,,,,,,,,,,,,,,,PCP119
North Coast,54 Ewingsdale Road,Ewingsdale,New South Wales,2481,02 6639 9400,-28.637365,153.555898,FALSE,,,,,,,,,,,,,,,,,,,,,,,,,,,,,,,,,,,,,,,,,,,,,,,,,,,,,,,,,,,,,,,,,,,,,,,,,,,,,,,,PCP120
Brisbane North,McKean Street,Caboolture,Queensland,4510,07 5433 8888,-27.080776,152.963623,FALSE,,,,,,,,,,,,,,,,,,,,,,,,,,,,,,,,,,,,,,,,,,,,,,,,,,,,,,,,,,,,,,,,,,,,,,,,,,,,,,,,PCP121
,McKean Street,Caboolture,Queensland,4510,07 5495 9400,-27.080318,152.963628,FALSE,,,,,,,,,,,,,,,,,,,,,,,,,,,,,,,,,,,,,,,,,,,,,,,,,,,,,,,,,,,,,,,,,,,,,,,,,,,,,,,,PCP122
,243 New Street,Brighton,Victoria,3186,03 9508 8777,-37.91165,144.991572,FALSE,,,,,,,,,,,,,,,,,,,,,,,,,,,,,,,,,,,,,,,,,,,,,,,,,,,,,,,,,,,,,,,,,,,,,,,,,,,,,,,,PCP123
,494 Glenhuntly Road,Elsternwick,Victoria,3185,03 9508 5200,-37.88543,145.009328,FALSE,,,,,,,,,,,,,,,,,,,,,,,,,,,,,,,,,,,,,,,,,,,,,,,,,,,,,,,,,,,,,,,,,,,,,,,,,,,,,,,,PCP124
,2-6 Hopetoun Street,Elsternwick,Victoria,3185,03 9508 5100,-37.884778,145.01039,FALSE,,,,,,,,,,,,,,,,,,,,,,,,,,,,,,,,,,,,,,,,,,,,,,,,,,,,,,,,,,,,,,,,,,,,,,,,,,,,,,,,PCP125
,183 Wattletree Road,Malvern,Victoria,3144,03 9508 1222,-37.861641,145.0335,FALSE,,,,,,,,,,,,,,,,,,,,,,,,,,,,,,,,,,,,,,,,,,,,,,,,,,,,,,,,,,,,,,,,,,,,,,,,,,,,,,,,PCP126
,646 High Street,Prahran,Victoria,3181,03 95081000,-37.854034,145.009017,FALSE,,,,,,,,,,,,,,,,,,,,,,,,,,,,,,,,,,,,,,,,,,,,,,,,,,,,,,,,,,,,,,,,,,,,,,,,,,,,,,,,PCP127
,156-160 Grafton Street,Cairns,Queensland,4870,07 4051 5454,-16.918973,145.771955,FALSE,,,,,,,,,,,,,,,,,,,,,,,,,,,,,,,,,,,,,,,,,,,,,,,,,,,,,,,,,,,,,,,,,,,,,,,,,,,,,,,,PCP128
Northern Queensland,The Esplanade,Cairns,Queensland,4870,07 4226 0000,-16.912537,145.768522,FALSE,,,,,,,,,,,,,,,,,,,,,,,,,,,,,,,,,,,,,,,,,,,,,,,,,,,,,,,,,,,,,,,,,,,,,,,,,,,,,,,,PCP129
,1 Upward Street,Cairns,Queensland,4870,07 4052 5200,-16.918854,145.772282,FALSE,,,,,,,,,,,,,,,,,,,,,,,,,,,,,,,,,,,,,,,,,,,,,,,,,,,,,,,,,,,,,,,,,,,,,,,,,,,,,,,,PCP130
"Central Queensland, Wide Bay and Sunshine Coast",West Terrace,Caloundra,Queensland,4551,07 5436 8500,-26.800582,153.119759,FALSE,,,,,,,,,,,,,,,,,,,,,,,,,,,,,,,,,,,,,,,,,,,,,,,,,,,,,,,,,,,,,,,,,,,,,,,,,,,,,,,,PCP131
,96 Beerburrum Street,Caloundra,Queensland,4551,07 5491 1522,-26.782379,153.125534,FALSE,,,,,,,,,,,,,,,,,,,,,,,,,,,,,,,,,,,,,,,,,,,,,,,,,,,,,,,,,,,,,,,,,,,,,,,,,,,,,,,,PCP132
,25-37 Jarvis Road,Elizabeth Vale,South Australia,5112,08 8250 4111,-34.75542,138.656221,FALSE,,,,,,,,,,,,,,,,,,,,,,,,,,,,,,,,,,,,,,,,,,,,,,,,,,,,,,,,,,,,,,,,,,,,,,,,,,,,,,,,PCP133
South Eastern Melbourne,152 Como Parade West,Parkdale,Victoria,3195,03 9596 2853,-37.896962,145.013415,FALSE,,,,,,,,,,,,,,,,,,,,,,,,,,,,,,,,,,,,,,,,,,,,,,,,,,,,,,,,,,,,,,,,,,,,,,,,,,,,,,,,PCP134
,Hardy Avenue,Wagga Wagga,New South Wales,2650,02 6925 3055,-35.118702,147.352811,FALSE,,,,,,,,,,,,,,,,,,,,,,,,,,,,,,,,,,,,,,,,,,,,,,,,,,,,,,,,,,,,,,,,,,,,,,,,,,,,,,,,PCP135
,49 Augusta Road,Lenah Valley,Tasmania,7008,03 6278 5333,-42.866099,147.303614,FALSE,,,,,,,,,,,,,,,,,,,,,,,,,,,,,,,,,,,,,,,,,,,,,,,,,,,,,,,,,,,,,,,,,,,,,,,,,,,,,,,,PCP136
,30 Cascade Road,South Hobart,Tasmania,7004,03 6323 7444,-42.895314,147.305975,FALSE,,,,,,,,,,,,,,,,,,,,,,,,,,,,,,,,,,,,,,,,,,,,,,,,,,,,,,,,,,,,,,,,,,,,,,,,,,,,,,,,PCP137
,24 Lyttleton Street,Launceston,Tasmania,7250,03 6335 3333,-41.433895,147.149521,FALSE,,,,,,,,,,,,,,,,,,,,,,,,,,,,,,,,,,,,,,,,,,,,,,,,,,,,,,,,,,,,,,,,,,,,,,,,,,,,,,,,PCP138
,5 Frederick Street,Launceston,Tasmania,7250,03 6332 4999,-41.441013,147.141308,FALSE,,,,,,,,,,,,,,,,,,,,,,,,,,,,,,,,,,,,,,,,,,,,,,,,,,,,,,,,,,,,,,,,,,,,,,,,,,,,,,,,PCP139
Central and Eastern Sydney,91-101 Rocky Point Road,Kogarah,New South Wales,2217,02 9553 3111,-33.976132,151.136206,FALSE,,,,,,,,,,,,,,,,,,,,,,,,,,,,,,,,,,,,,,,,,,,,,,,,,,,,,,,,,,,,,,,,,,,,,,,,,,,,,,,,PCP140
,173 Strickland Crescent,Deakin,Australian Capital Territory,2600,02 6281 8100,-35.319869,149.095662,FALSE,,,,,,,,,,,,,,,,,,,,,,,,,,,,,,,,,,,,,,,,,,,,,,,,,,,,,,,,,,,,,,,,,,,,,,,,,,,,,,,,PCP141
Hunter New England and Central Coast,20 Edith Street,Waratah,New South Wales,2298,02 4921 1211,-32.899371,151.720858,FALSE,,,,,,,,,,,,,,,,,,,,,,,,,,,,,,,,,,,,,,,,,,,,,,,,,,,,,,,,,,,,,,,,,,,,,,,,,,,,,,,,PCP142
,89 Strangways Terrace,Nth Adelaide,South Australia,5006,08 8239 9100,-34.910003,138.589095,FALSE,,,,,,,,,,,,,,,,,,,,,,,,,,,,,,,,,,,,,,,,,,,,,,,,,,,,,,,,,,,,,,,,,,,,,,,,,,,,,,,,PCP143
,Corner of Belconnen Way and Haydon Drive,Bruce,Australian Capital Territory,2617,02 6201 6363,-35.252882,149.088646,FALSE,,,,,,,,,,,,,,,,,,,,,,,,,,,,,,,,,,,,,,,,,,,,,,,,,,,,,,,,,,,,,,,,,,,,,,,,,,,,,,,,PCP144
Australian Capital Territory,Haydon Drive,Bruce,Australian Capital Territory,2617,02 6201 6111,-35.253321,149.089654,FALSE,,,,,,,,,,,,,,,,,,,,,,,,,,,,,,,,,,,,,,,,,,,,,,,,,,,,,,,,,,,,,,,,,,,,,,,,,,,,,,,,PCP145
,18 North East Road,Walkerville,South Australia,5081,08 8168 5700,-34.891739,138.611481,FALSE,,,,,,,,,,,,,,,,,,,,,,,,,,,,,,,,,,,,,,,,,,,,,,,,,,,,,,,,,,,,,,,,,,,,,,,,,,,,,,,,PCP146
,300 Wakefield Street,Adelaide,South Australia,5000,08 8405 3333,-34.927689,138.611154,FALSE,,,,,,,,,,,,,,,,,,,,,,,,,,,,,,,,,,,,,,,,,,,,,,,,,,,,,,,,,,,,,,,,,,,,,,,,,,,,,,,,PCP147
South Western Sydney,65 Menangle Road,Camden,New South Wales,2570,02 4634 3000,-34.062702,150.693297,FALSE,,,,,,,,,,,,,,,,,,,,,,,,,,,,,,,,,,,,,,,,,,,,,,,,,,,,,,,,,,,,,,,,,,,,,,,,,,,,,,,,PCP148
Tasmania,70 High Street,Campbell Town,Tasmania,7210,03 6774 8000,-41.926339,147.493107,FALSE,,,,,,,,,,,,,,,,,,,,,,,,,,,,,,,,,,,,,,,,,,,,,,,,,,,,,,,,,,,,,,,,,,,,,,,,,,,,,,,,PCP149
South Western Sydney,Therry Road,Campbelltown,New South Wales,2560,02 4634 3000,-34.077651,150.806321,FALSE,,,,,,,,,,,,,,,,,,,,,,,,,,,,,,,,,,,,,,,,,,,,,,,,,,,,,,,,,,,,,,,,,,,,,,,,,,,,,,,,PCP150
,42 Parkside Crescent (Corner of Hyde Street),Campbelltown,New South Wales,2560,02 4621 9111,-34.075607,150.804948,FALSE,,,,,,,,,,,,,,,,,,,,,,,,,,,,,,,,,,,,,,,,,,,,,,,,,,,,,,,,,,,,,,,,,,,,,,,,,,,,,,,,PCP151
,173 Strickland Cresent,Deakin,Australian Capital Territory,2600,02 6203 2092,-35.318557,149.096004,FALSE,,,,,,,,,,,,,,,,,,,,,,,,,,,,,,,,,,,,,,,,,,,,,,,,,,,,,,,,,,,,,,,,,,,,,,,,,,,,,,,,PCP152
,169 Seventeen Mile Rocks Road,Oxley,Queensland,4075,07 3717 5555,-27.554703,152.963716,FALSE,,,,,,,,,,,,,,,,,,,,,,,,,,,,,,,,,,,,,,,,,,,,,,,,,,,,,,,,,,,,,,,,,,,,,,,,,,,,,,,,PCP153
Western NSW,Browns Avenue,Canowindra,New South Wales,2804,02 6340 3033,-33.557204,148.676576,FALSE,,,,,,,,,,,,,,,,,,,,,,,,,,,,,,,,,,,,,,,,,,,,,,,,,,,,,,,,,,,,,,,,,,,,,,,,,,,,,,,,PCP154
Central and Eastern Sydney,575 Canterbury Road,Campsie,New South Wales,2194,02 9787 0000,-33.919592,151.098275,FALSE,,,,,,,,,,,,,,,,,,,,,,,,,,,,,,,,,,,,,,,,,,,,,,,,,,,,,,,,,,,,,,,,,,,,,,,,,,,,,,,,PCP155
"Central Queensland, Wide Bay and Sunshine Coast",8 Hoskyn Drive,Yeppoon,Queensland,4703,07 4913 3000,-23.143888,150.734519,FALSE,,,,,,,,,,,,,,,,,,,,,,,,,,,,,,,,,,,,,,,,,,,,,,,,,,,,,,,,,,,,,,,,,,,,,,,,,,,,,,,,PCP156
Eastern Melbourne,104 Studley Park Road,Kew,Victoria,3101,03 9231 5000,-37.804706,145.015557,FALSE,,,,,,,,,,,,,,,,,,,,,,,,,,,,,,,,,,,,,,,,,,,,,,,,,,,,,,,,,,,,,,,,,,,,,,,,,,,,,,,,PCP157
Country WA,Cleaver Street,Carnarvon,Western Australia,6701,08 9941 0555,-24.886592,113.658993,FALSE,,,,,,,,,,,,,,,,,,,,,,,,,,,,,,,,,,,,,,,,,,,,,,,,,,,,,,,,,,,,,,,,,,,,,,,,,,,,,,,,PCP158
South Eastern Melbourne,52 Kangan Drive,Berwick,Victoria,3806,03 8768 1200,-38.045325,145.347181,FALSE,,,,,,,,,,,,,,,,,,,,,,,,,,,,,,,,,,,,,,,,,,,,,,,,,,,,,,,,,,,,,,,,,,,,,,,,,,,,,,,,PCP159
North Coast,Hotham Street,Casino,New South Wales,2470,02 6662 2111,-28.859839,153.035827,FALSE,,,,,,,,,,,,,,,,,,,,,,,,,,,,,,,,,,,,,,,,,,,,,,,,,,,,,,,,,,,,,,,,,,,,,,,,,,,,,,,,PCP160
Western Victoria,63-69 Russell Street,Casterton,Victoria,3311,03 5554 2555,-37.589989,141.392283,FALSE,,,,,,,,,,,,,,,,,,,,,,,,,,,,,,,,,,,,,,,,,,,,,,,,,,,,,,,,,,,,,,,,,,,,,,,,,,,,,,,,PCP161
,72-74 Cecil Avenue,Castle Hill,New South Wales,2154,02 8850 0500,-33.73507,151.004099,FALSE,,,,,,,,,,,,,,,,,,,,,,,,,,,,,,,,,,,,,,,,,,,,,,,,,,,,,,,,,,,,,,,,,,,,,,,,,,,,,,,,PCP162
,150 Edinburgh Road,Castlecrag,New South Wales,2068,02 9935 0200,-33.801822,151.217045,FALSE,,,,,,,,,,,,,,,,,,,,,,,,,,,,,,,,,,,,,,,,,,,,,,,,,,,,,,,,,,,,,,,,,,,,,,,,,,,,,,,,PCP163
Murray,142 Cornish Street,Castlemaine,Victoria,3450,03 5471 1555,-37.052539,144.212315,FALSE,,,,,,,,,,,,,,,,,,,,,,,,,,,,,,,,,,,,,,,,,,,,,,,,,,,,,,,,,,,,,,,,,,,,,,,,,,,,,,,,PCP164
South Eastern Melbourne,260-294 Kooyong Road,Caulfield,Victoria,3162,03 9076 6000,-37.882707,145.016892,FALSE,,,,,,,,,,,,,,,,,,,,,,,,,,,,,,,,,,,,,,,,,,,,,,,,,,,,,,,,,,,,,,,,,,,,,,,,,,,,,,,,PCP165
Country SA,3 Eyre Highway,Ceduna,South Australia,5690,08 8626 2110,-32.119099,133.672317,FALSE,,,,,,,,,,,,,,,,,,,,,,,,,,,,,,,,,,,,,,,,,,,,,,,,,,,,,,,,,,,,,,,,,,,,,,,,,,,,,,,,PCP166
,"Suite 1, Fountain Corporate, 2 Ilya Avenue",Erina,New South Wales,2250,02 4367 3880,-33.439692,151.384354,FALSE,,,,,,,,,,,,,,,,,,,,,,,,,,,,,,,,,,,,,,,,,,,,,,,,,,,,,,,,,,,,,,,,,,,,,,,,,,,,,,,,PCP167
Gippsland,48 Kent Street,Maffra,Victoria,3860,03 5147 0100,-37.961032,146.983487,FALSE,,,,,,,,,,,,,,,,,,,,,,,,,,,,,,,,,,,,,,,,,,,,,,,,,,,,,,,,,,,,,,,,,,,,,,,,,,,,,,,,PCP168
Gippsland,155 Guthridge Parade,Sale,Victoria,3850,03 5143 8600,-38.108408,147.080637,FALSE,,,,,,,,,,,,,,,,,,,,,,,,,,,,,,,,,,,,,,,,,,,,,,,,,,,,,,,,,,,,,,,,,,,,,,,,,,,,,,,,PCP169
Country SA,65 Robert Street,Maitland,South Australia,5573,08 8862 2626,-34.370494,137.673947,FALSE,,,,,,,,,,,,,,,,,,,,,,,,,,,,,,,,,,,,,,,,,,,,,,,,,,,,,,,,,,,,,,,,,,,,,,,,,,,,,,,,PCP170
,"Level 1, 229 Great North Road",Five Dock,New South Wales,2046,02 9713 4011,-33.865117,151.130092,FALSE,,,,,,,,,,,,,,,,,,,,,,,,,,,,,,,,,,,,,,,,,,,,,,,,,,,,,,,,,,,,,,,,,,,,,,,,,,,,,,,,PCP171
Hunter New England and Central Coast,24 View Street,Cessnock,New South Wales,2325,02 4991 0555,-32.827754,151.348396,FALSE,,,,,,,,,,,,,,,,,,,,,,,,,,,,,,,,,,,,,,,,,,,,,,,,,,,,,,,,,,,,,,,,,,,,,,,,,,,,,,,,PCP172
Western Queensland,72 King Street,Charleville,Queensland,4470,07 4650 5000,-26.410455,146.239228,FALSE,,,,,,,,,,,,,,,,,,,,,,,,,,,,,,,,,,,,,,,,,,,,,,,,,,,,,,,,,,,,,,,,,,,,,,,,,,,,,,,,PCP173
Northern Queensland,137-139 Gill Street,Charters Towers,Queensland,4820,07 4787 0333,-20.076167,146.264097,FALSE,,,,,,,,,,,,,,,,,,,,,,,,,,,,,,,,,,,,,,,,,,,,,,,,,,,,,,,,,,,,,,,,,,,,,,,,,,,,,,,,PCP174
Northern Queensland,35 Gladstone Road,Charters Towers,Queensland,4820,07 4787 5200,-20.076801,146.280459,FALSE,,,,,,,,,,,,,,,,,,,,,,,,,,,,,,,,,,,,,,,,,,,,,,,,,,,,,,,,,,,,,,,,,,,,,,,,,,,,,,,,PCP175
,"Suite 1, 38B Albert Avenue",Chatswood,New South Wales,2067,02 9413 4822,-33.797612,151.185691,FALSE,,,,,,,,,,,,,,,,,,,,,,,,,,,,,,,,,,,,,,,,,,,,,,,,,,,,,,,,,,,,,,,,,,,,,,,,,,,,,,,,PCP176
Darling Downs and West Moreton,Fisher Street,Cherbourg,Queensland,4605,07 4169 8800,-26.291519,151.956324,FALSE,,,,,,,,,,,,,,,,,,,,,,,,,,,,,,,,,,,,,,,,,,,,,,,,,,,,,,,,,,,,,,,,,,,,,,,,,,,,,,,,PCP177
,1/956 Gympie Road,Chermside,Queensland,4032,07 3120 3444,-27.381971,153.029423,FALSE,,,,,,,,,,,,,,,,,,,,,,,,,,,,,,,,,,,,,,,,,,,,,,,,,,,,,,,,,,,,,,,,,,,,,,,,,,,,,,,,PCP178
,28 Chesterville Road,Cheltenham,Victoria,3192,03 9585 3777,-37.96046,145.0568,FALSE,,,,,,,,,,,,,,,,,,,,,,,,,,,,,,,,,,,,,,,,,,,,,,,,,,,,,,,,,,,,,,,,,,,,,,,,,,,,,,,,PCP179
"Central Queensland, Wide Bay and Sunshine Coast",44 Broadhurst Street,Childers,Queensland,4660,07 4192 1133,-25.239416,152.273286,FALSE,,,,,,,,,,,,,,,,,,,,,,,,,,,,,,,,,,,,,,,,,,,,,,,,,,,,,,,,,,,,,,,,,,,,,,,,,,,,,,,,PCP180
Darling Downs and West Moreton,Slessar Street,Chinchilla,Queensland,4413,07 4662 8888,-26.741337,150.634939,FALSE,,,,,,,,,,,,,,,,,,,,,,,,,,,,,,,,,,,,,,,,,,,,,,,,,,,,,,,,,,,,,,,,,,,,,,,,,,,,,,,,PCP181
Central and Eastern Sydney,119-143 Missenden Road,Camperdown,New South Wales,2050,02 2851 4000,-33.890577,151.182234,FALSE,,,,,,,,,,,,,,,,,,,,,,,,,,,,,,,,,,,,,,,,,,,,,,,,,,,,,,,,,,,,,,,,,,,,,,,,,,,,,,,,PCP182
Country SA,47 Farrell Flat Road,Clare,South Australia,5453,08 8842 6500,-33.829588,138.614416,FALSE,,,,,,,,,,,,,,,,,,,,,,,,,,,,,,,,,,,,,,,,,,,,,,,,,,,,,,,,,,,,,,,,,,,,,,,,,,,,,,,,PCP183
Northern Queensland,Francis Street,Clermont,Queensland,4721,07 4983 4000,-22.826219,147.632174,FALSE,,,,,,,,,,,,,,,,,,,,,,,,,,,,,,,,,,,,,,,,,,,,,,,,,,,,,,,,,,,,,,,,,,,,,,,,,,,,,,,,PCP184
Country SA,North Terrace,Cleve,South Australia,5640,08 8628 2665,-33.697779,136.494162,FALSE,,,,,,,,,,,,,,,,,,,,,,,,,,,,,,,,,,,,,,,,,,,,,,,,,,,,,,,,,,,,,,,,,,,,,,,,,,,,,,,,PCP185
Western Queensland,1 Musgrave Street,Cloncurry,Queensland,4824,07 4742 4500,-20.704166,140.527571,FALSE,,,,,,,,,,,,,,,,,,,,,,,,,,,,,,,,,,,,,,,,,,,,,,,,,,,,,,,,,,,,,,,,,,,,,,,,,,,,,,,,PCP186
Western NSW,Lerida Road,Cobar,New South Wales,2835,02 6830 2111,-31.509026,145.825266,FALSE,,,,,,,,,,,,,,,,,,,,,,,,,,,,,,,,,,,,,,,,,,,,,,,,,,,,,,,,,,,,,,,,,,,,,,,,,,,,,,,,PCP187
Murray,24-32 Broadway Street,Cobram,Victoria,3644,03 5871 0777,-35.916273,145.651029,FALSE,,,,,,,,,,,,,,,,,,,,,,,,,,,,,,,,,,,,,,,,,,,,,,,,,,,,,,,,,,,,,,,,,,,,,,,,,,,,,,,,PCP188
,69 Albany Street,Coffs Harbour,New South Wales,2450,02 6600 1000,-30.300233,153.115865,FALSE,,,,,,,,,,,,,,,,,,,,,,,,,,,,,,,,,,,,,,,,,,,,,,,,,,,,,,,,,,,,,,,,,,,,,,,,,,,,,,,,PCP189
North Coast,345 Pacific Highway,Coffs Harbour,New South Wales,2450,02 6656 7000,-30.317579,153.093667,FALSE,,,,,,,,,,,,,,,,,,,,,,,,,,,,,,,,,,,,,,,,,,,,,,,,,,,,,,,,,,,,,,,,,,,,,,,,,,,,,,,,PCP190
Murray,144-158 King George Street,Cohuna,Victoria,3568,03 5456 5300,-35.800063,144.214911,FALSE,,,,,,,,,,,,,,,,,,,,,,,,,,,,,,,,,,,,,,,,,,,,,,,,,,,,,,,,,,,,,,,,,,,,,,,,,,,,,,,,PCP191
Western Victoria,2-28 Connor Street,Colac,Victoria,3250,03 5232 5100,-38.341201,143.582854,FALSE,,,,,,,,,,,,,,,,,,,,,,,,,,,,,,,,,,,,,,,,,,,,,,,,,,,,,,,,,,,,,,,,,,,,,,,,,,,,,,,,PCP192
South Eastern NSW,636 Lawrence Hargrave Drive,Coledale,New South Wales,2515,02 4267 0111,-34.283797,150.950796,FALSE,,,,,,,,,,,,,,,,,,,,,,,,,,,,,,,,,,,,,,,,,,,,,,,,,,,,,,,,,,,,,,,,,,,,,,,,,,,,,,,,PCP193
,51 Colin Street,West Perth,Western Australia,6005,08 9321 4256,-31.949358,115.841569,FALSE,,,,,,,,,,,,,,,,,,,,,,,,,,,,,,,,,,,,,,,,,,,,,,,,,,,,,,,,,,,,,,,,,,,,,,,,,,,,,,,,PCP194
Western NSW,Walgett Street,Collarenebri,New South Wales,2833,02 6756 4800,-29.544889,148.581901,FALSE,,,,,,,,,,,,,,,,,,,,,,,,,,,,,,,,,,,,,,,,,,,,,,,,,,,,,,,,,,,,,,,,,,,,,,,,,,,,,,,,PCP195
Country WA,Corner of Steere and Deakin Streets,Collie,Western Australia,6225,08 9735 1333,-33.351403,116.162223,FALSE,,,,,,,,,,,,,,,,,,,,,,,,,,,,,,,,,,,,,,,,,,,,,,,,,,,,,,,,,,,,,,,,,,,,,,,,,,,,,,,,PCP196
Northern Queensland,Garrick Street,Collinsville,Queensland,4804,07 4785 4777,-20.546108,147.838146,FALSE,,,,,,,,,,,,,,,,,,,,,,,,,,,,,,,,,,,,,,,,,,,,,,,,,,,,,,,,,,,,,,,,,,,,,,,,,,,,,,,,PCP197
Central and Eastern Sydney,Hospital Road,Concord,New South Wales,2139,02 9767 5000,-33.837288,151.092664,FALSE,,,,,,,,,,,,,,,,,,,,,,,,,,,,,,,,,,,,,,,,,,,,,,,,,,,,,,,,,,,,,,,,,,,,,,,,,,,,,,,,PCP198
Western NSW,Madline Street,Condobolin,New South Wales,2877,02 6890 1500,-33.082332,147.154161,FALSE,,,,,,,,,,,,,,,,,,,,,,,,,,,,,,,,,,,,,,,,,,,,,,,,,,,,,,,,,,,,,,,,,,,,,,,,,,,,,,,,PCP199
Country SA,Lot 89 Hospital Road,Coober Pedy,South Australia,5723,08 8672 5009,-29.004893,134.762066,FALSE,,,,,,,,,,,,,,,,,,,,,,,,,,,,,,,,,,,,,,,,,,,,,,,,,,,,,,,,,,,,,,,,,,,,,,,,,,,,,,,,PCP200
Northern Queensland,48 Hope Street,Cooktown,Queensland,4895,07 4043 0100,-15.478067,145.249616,FALSE,,,,,,,,,,,,,,,,,,,,,,,,,,,,,,,,,,,,,,,,,,,,,,,,,,,,,,,,,,,,,,,,,,,,,,,,,,,,,,,,PCP201
Western NSW,111-135 Martin Street,Coolah,New South Wales,2843,02 6377 9100,-31.821473,149.710049,FALSE,,,,,,,,,,,,,,,,,,,,,,,,,,,,,,,,,,,,,,,,,,,,,,,,,,,,,,,,,,,,,,,,,,,,,,,,,,,,,,,,PCP202
Murrumbidgee,Doctor Buchanan Drive,Coolamon,New South Wales,2701,02 6927 3303,-34.819885,147.199329,FALSE,,,,,,,,,,,,,,,,,,,,,,,,,,,,,,,,,,,,,,,,,,,,,,,,,,,,,,,,,,,,,,,,,,,,,,,,,,,,,,,,PCP203
,60 Lake Road,Port Macquarie,New South Wales,2444,02 6584 0368,-31.439829,152.909473,FALSE,,,,,,,,,,,,,,,,,,,,,,,,,,,,,,,,,,,,,,,,,,,,,,,,,,,,,,,,,,,,,,,,,,,,,,,,,,,,,,,,PCP204
South Eastern NSW,Bent Street,Cooma,New South Wales,2630,02 6455 3222,-36.241389,149.130499,FALSE,,,,,,,,,,,,,,,,,,,,,,,,,,,,,,,,,,,,,,,,,,,,,,,,,,,,,,,,,,,,,,,,,,,,,,,,,,,,,,,,PCP205
Western NSW,101-103 Edwards Street,Coonabarabran,New South Wales,2357,02 6826 6100,-31.274791,149.284779,FALSE,,,,,,,,,,,,,,,,,,,,,,,,,,,,,,,,,,,,,,,,,,,,,,,,,,,,,,,,,,,,,,,,,,,,,,,,,,,,,,,,PCP206
Western NSW,150 Castlereagh Street,Coonamble,New South Wales,2829,02 6827 1100,-30.964803,148.387527,FALSE,,,,,,,,,,,,,,,,,,,,,,,,,,,,,,,,,,,,,,,,,,,,,,,,,,,,,,,,,,,,,,,,,,,,,,,,,,,,,,,,PCP207
Murrumbidgee,120 Mackay Street,Cootamundra,New South Wales,2590,02 6942 0444,-34.634386,148.012796,FALSE,,,,,,,,,,,,,,,,,,,,,,,,,,,,,,,,,,,,,,,,,,,,,,,,,,,,,,,,,,,,,,,,,,,,,,,,,,,,,,,,PCP208
Northern Sydney,Badajoz And Twin Roads,North Ryde,New South Wales,2113,02 9887 5830,-33.804256,151.126212,FALSE,,,,,,,,,,,,,,,,,,,,,,,,,,,,,,,,,,,,,,,,,,,,,,,,,,,,,,,,,,,,,,,,,,,,,,,,,,,,,,,,PCP209
Murrumbidgee,74 Guy Street,Corowa,New South Wales,2646,02 6033 1333,-35.993528,146.383541,FALSE,,,,,,,,,,,,,,,,,,,,,,,,,,,,,,,,,,,,,,,,,,,,,,,,,,,,,,,,,,,,,,,,,,,,,,,,,,,,,,,,PCP210
Country WA,49 Kirkwood Street,Corrigin,Western Australia,6375,08 9063 0333,-32.324419,117.878816,FALSE,,,,,,,,,,,,,,,,,,,,,,,,,,,,,,,,,,,,,,,,,,,,,,,,,,,,,,,,,,,,,,,,,,,,,,,,,,,,,,,,PCP211
,92 David Street,Dandenong,Victoria,3175,03 9791 3533,-37.977201,145.21715,FALSE,,,,,,,,,,,,,,,,,,,,,,,,,,,,,,,,,,,,,,,,,,,,,,,,,,,,,,,,,,,,,,,,,,,,,,,,,,,,,,,,PCP212
Country SA,17 South Terrace,Cowell,South Australia,5602,08 8629 2437,-33.685299,136.921405,FALSE,,,,,,,,,,,,,,,,,,,,,,,,,,,,,,,,,,,,,,,,,,,,,,,,,,,,,,,,,,,,,,,,,,,,,,,,,,,,,,,,PCP213
Western NSW,64 Liverpool Street,Cowra,New South Wales,2794,02 6340 9000,-33.832137,148.692376,FALSE,,,,,,,,,,,,,,,,,,,,,,,,,,,,,,,,,,,,,,,,,,,,,,,,,,,,,,,,,,,,,,,,,,,,,,,,,,,,,,,,PCP214
North Western Melbourne,274-304 Craigieburn Road,Craigieburn,Victoria,3064,03 8338 3000,-37.596015,144.91928,FALSE,,,,,,,,,,,,,,,,,,,,,,,,,,,,,,,,,,,,,,,,,,,,,,,,,,,,,,,,,,,,,,,,,,,,,,,,,,,,,,,,PCP215
South Eastern Melbourne,140-154 Sladen Street,Cranbourne,Victoria,3977,03 5990 6789,-38.113312,145.280832,FALSE,,,,,,,,,,,,,,,,,,,,,,,,,,,,,,,,,,,,,,,,,,,,,,,,,,,,,,,,,,,,,,,,,,,,,,,,,,,,,,,,PCP216
Western Victoria,1 Napier Street,Creswick,Victoria,3363,03 5345 2403,-37.421192,143.891533,FALSE,,,,,,,,,,,,,,,,,,,,,,,,,,,,,,,,,,,,,,,,,,,,,,,,,,,,,,,,,,,,,,,,,,,,,,,,,,,,,,,,PCP217
South Eastern NSW,17 Kialla Road,Crookwell,New South Wales,2583,02 4832 1300,-34.464222,149.467427,FALSE,,,,,,,,,,,,,,,,,,,,,,,,,,,,,,,,,,,,,,,,,,,,,,,,,,,,,,,,,,,,,,,,,,,,,,,,,,,,,,,,PCP218
,"Level 1, 22 Clarke Street",Crows Nest,New South Wales,2065,02 9955 5677,-33.825083,151.199293,FALSE,,,,,,,,,,,,,,,,,,,,,,,,,,,,,,,,,,,,,,,,,,,,,,,,,,,,,,,,,,,,,,,,,,,,,,,,,,,,,,,,PCP219
Country SA,Edmund Terrace,Crystal Brook,South Australia,5523,08 8636 1100,-33.354297,138.213243,FALSE,,,,,,,,,,,,,,,,,,,,,,,,,,,,,,,,,,,,,,,,,,,,,,,,,,,,,,,,,,,,,,,,,,,,,,,,,,,,,,,,PCP220
Murrumbidgee,51-55 Balfour Street,Culcairn,New South Wales,2660,02 6029 8203,-35.667399,147.042104,FALSE,,,,,,,,,,,,,,,,,,,,,,,,,,,,,,,,,,,,,,,,,,,,,,,,,,,,,,,,,,,,,,,,,,,,,,,,,,,,,,,,PCP221
Western Sydney,1-11 Hainsworth Street,Westmead,New South Wales,2145,02 9840 3000,-33.80159,150.995246,FALSE,,,,,,,,,,,,,,,,,,,,,,,,,,,,,,,,,,,,,,,,,,,,,,,,,,,,,,,,,,,,,,,,,,,,,,,,,,,,,,,,PCP222
Country SA,19-21 Tumby Bay Road,Cummins,South Australia,5631,08 8688 2629,-34.264155,135.73316,FALSE,,,,,,,,,,,,,,,,,,,,,,,,,,,,,,,,,,,,,,,,,,,,,,,,,,,,,,,,,,,,,,,,,,,,,,,,,,,,,,,,PCP223
Country WA,Cubbine Road,Cunderdin,Western Australia,6407,08 9635 2222,-31.654404,117.244226,FALSE,,,,,,,,,,,,,,,,,,,,,,,,,,,,,,,,,,,,,,,,,,,,,,,,,,,,,,,,,,,,,,,,,,,,,,,,,,,,,,,,PCP224
Western Queensland,56 Wicks Street,Cunnamulla,Queensland,4490,07 4655 8100,-28.071658,145.690405,FALSE,,,,,,,,,,,,,,,,,,,,,,,,,,,,,,,,,,,,,,,,,,,,,,,,,,,,,,,,,,,,,,,,,,,,,,,,,,,,,,,,PCP225
Darling Downs and West Moreton,Hospital Road,Dalby,Queensland,4405,07 4669 0555,-27.167153,151.278905,FALSE,,,,,,,,,,,,,,,,,,,,,,,,,,,,,,,,,,,,,,,,,,,,,,,,,,,,,,,,,,,,,,,,,,,,,,,,,,,,,,,,PCP226
Country WA,Myers Street,Dalwallinu,Western Australia,6609,08 9661 0200,-30.277229,116.656544,FALSE,,,,,,,,,,,,,,,,,,,,,,,,,,,,,,,,,,,,,,,,,,,,,,,,,,,,,,,,,,,,,,,,,,,,,,,,,,,,,,,,PCP227
North Western Melbourne,Riding-Boundary Road,Deer Park,Victoria,3023,03 8684 0000,-37.781307,144.742309,FALSE,,,,,,,,,,,,,,,,,,,,,,,,,,,,,,,,,,,,,,,,,,,,,,,,,,,,,,,,,,,,,,,,,,,,,,,,,,,,,,,,PCP228
South Eastern Melbourne,105-135 David Street,Dandenong,Victoria,3175,03 9554 1000,-37.976459,145.218529,FALSE,,,,,,,,,,,,,,,,,,,,,,,,,,,,,,,,,,,,,,,,,,,,,,,,,,,,,,,,,,,,,,,,,,,,,,,,,,,,,,,,PCP229
,Rocklands Drive,Tiwi,Northern Territory,810,08 8920 6011,-12.357357,130.881789,FALSE,,,,,,,,,,,,,,,,,,,,,,,,,,,,,,,,,,,,,,,,,,,,,,,,,,,,,,,,,,,,,,,,,,,,,,,,,,,,,,,,PCP230
South Eastern NSW,85 Tannery Road,Berry,New South Wales,2535,02 4464 1001,-34.775909,150.712819,FALSE,,,,,,,,,,,,,,,,,,,,,,,,,,,,,,,,,,,,,,,,,,,,,,,,,,,,,,,,,,,,,,,,,,,,,,,,,,,,,,,,PCP231
Western Victoria,13 Hospital Street,Daylesford,Victoria,3460,03 5321 6500,-37.337365,144.145774,FALSE,,,,,,,,,,,,,,,,,,,,,,,,,,,,,,,,,,,,,,,,,,,,,,,,,,,,,,,,,,,,,,,,,,,,,,,,,,,,,,,,PCP232
,"Level 4, Suite 4402, Dee Why Grand, 834 Pittwater Road",Dee Why,New South Wales,2099,02 9982 6333,-33.75674,151.28363,FALSE,,,,,,,,,,,,,,,,,,,,,,,,,,,,,,,,,,,,,,,,,,,,,,,,,,,,,,,,,,,,,,,,,,,,,,,,,,,,,,,,PCP233
South Eastern NSW,15 Craigie Street,Delegate,New South Wales,2633,02 6459 8000,-37.04496,148.945958,FALSE,,,,,,,,,,,,,,,,,,,,,,,,,,,,,,,,,,,,,,,,,,,,,,,,,,,,,,,,,,,,,,,,,,,,,,,,,,,,,,,,PCP234
Tasmania,East Barrack Street,Deloraine,Tasmania,7304,03 6701 2111,-41.528033,146.659605,FALSE,,,,,,,,,,,,,,,,,,,,,,,,,,,,,,,,,,,,,,,,,,,,,,,,,,,,,,,,,,,,,,,,,,,,,,,,,,,,,,,,PCP235
Murrumbidgee,411 Charlotte Street,Deniliquin,New South Wales,2710,03 5882 2800,-35.524044,144.963301,FALSE,,,,,,,,,,,,,,,,,,,,,,,,,,,,,,,,,,,,,,,,,,,,,,,,,,,,,,,,,,,,,,,,,,,,,,,,,,,,,,,,PCP236
Hunter New England and Central Coast,51-53 Ogilvie Street,Denman,New South Wales,2328,02 6547 3999,-32.389483,150.684453,FALSE,,,,,,,,,,,,,,,,,,,,,,,,,,,,,,,,,,,,,,,,,,,,,,,,,,,,,,,,,,,,,,,,,,,,,,,,,,,,,,,,PCP237
Country WA,50 Scotsdale Road,Denmark,Western Australia,6333,08 9848 0600,-34.957977,117.353489,FALSE,,,,,,,,,,,,,,,,,,,,,,,,,,,,,,,,,,,,,,,,,,,,,,,,,,,,,,,,,,,,,,,,,,,,,,,,,,,,,,,,PCP238
North Western Melbourne,720 Swanston Street,Carlton,Victoria,3053,03 9341 1000,-37.799299,144.964529,FALSE,,,,,,,,,,,,,,,,,,,,,,,,,,,,,,,,,,,,,,,,,,,,,,,,,,,,,,,,,,,,,,,,,,,,,,,,,,,,,,,,PCP239
Country WA,Clarendon Street,Derby,Western Australia,6728,08 9193 3333,-17.306339,123.633399,FALSE,,,,,,,,,,,,,,,,,,,,,,,,,,,,,,,,,,,,,,,,,,,,,,,,,,,,,,,,,,,,,,,,,,,,,,,,,,,,,,,,PCP240
,601/438 Victoria Street,Darlinghurst,New South Wales,2010,02 8382 6622,-33.879519,151.220852,FALSE,,,,,,,,,,,,,,,,,,,,,,,,,,,,,,,,,,,,,,,,,,,,,,,,,,,,,,,,,,,,,,,,,,,,,,,,,,,,,,,,PCP241
Western Victoria,32-36 Anderson Street,Dimboola,Victoria,3414,03 5389 1301,-36.449887,142.024286,FALSE,,,,,,,,,,,,,,,,,,,,,,,,,,,,,,,,,,,,,,,,,,,,,,,,,,,,,,,,,,,,,,,,,,,,,,,,,,,,,,,,PCP242
Western Queensland,Corner of Jane and Cowildi Streets,Dirranbandi,Queensland,4486,07 4625 8222,-28.579349,148.229159,FALSE,,,,,,,,,,,,,,,,,,,,,,,,,,,,,,,,,,,,,,,,,,,,,,,,,,,,,,,,,,,,,,,,,,,,,,,,,,,,,,,,PCP243
North Western Melbourne,29-35 Grant Street,Bacchus Marsh,Victoria,3340,03 5367 2000,-37.678267,144.433264,FALSE,,,,,,,,,,,,,,,,,,,,,,,,,,,,,,,,,,,,,,,,,,,,,,,,,,,,,,,,,,,,,,,,,,,,,,,,,,,,,,,,PCP244
Country WA,48 Blenheim Road,Dongara,Western Australia,6525,08 9927 0200,-29.265173,114.934179,FALSE,,,,,,,,,,,,,,,,,,,,,,,,,,,,,,,,,,,,,,,,,,,,,,,,,,,,,,,,,,,,,,,,,,,,,,,,,,,,,,,,PCP245
Country WA,Bentley Street,Donnybrook,Western Australia,6239,08 9780 4333,-33.576942,115.816547,FALSE,,,,,,,,,,,,,,,,,,,,,,,,,,,,,,,,,,,,,,,,,,,,,,,,,,,,,,,,,,,,,,,,,,,,,,,,,,,,,,,,PCP246
,1119 Doncaster Road,Donvale,Victoria,3111,03 9841 1400,-37.789836,145.171655,FALSE,,,,,,,,,,,,,,,,,,,,,,,,,,,,,,,,,,,,,,,,,,,,,,,,,,,,,,,,,,,,,,,,,,,,,,,,,,,,,,,,PCP247
Western Queensland,Sharpe Street,Doomadgee,Queensland,4830,07 4745 8800,-17.942527,138.825267,FALSE,,,,,,,,,,,,,,,,,,,,,,,,,,,,,,,,,,,,,,,,,,,,,,,,,,,,,,,,,,,,,,,,,,,,,,,,,,,,,,,,PCP248
North Coast,14 Beech Street,Dorrigo,New South Wales,2453,02 6692 7700,-30.340625,152.713882,FALSE,,,,,,,,,,,,,,,,,,,,,,,,,,,,,,,,,,,,,,,,,,,,,,,,,,,,,,,,,,,,,,,,,,,,,,,,,,,,,,,,PCP249
,146 Derby Street,Pascoe Vale,Victoria,3044,03 8371 9477,-37.723402,144.947436,FALSE,,,,,,,,,,,,,,,,,,,,,,,,,,,,,,,,,,,,,,,,,,,,,,,,,,,,,,,,,,,,,,,,,,,,,,,,,,,,,,,,PCP250
Western NSW,Myall Street,Dubbo,New South Wales,2830,02 6809 6809,-32.239339,148.620772,FALSE,,,,,,,,,,,,,,,,,,,,,,,,,,,,,,,,,,,,,,,,,,,,,,,,,,,,,,,,,,,,,,,,,,,,,,,,,,,,,,,,PCP251
,261 March Street,Orange,New South Wales,2800,02 6362 8122,-33.282219,149.121236,FALSE,,,,,,,,,,,,,,,,,,,,,,,,,,,,,,,,,,,,,,,,,,,,,,,,,,,,,,,,,,,,,,,,,,,,,,,,,,,,,,,,PCP252
Country WA,Mcintyre Street,Dumbleyung,Western Australia,6350,08 9863 5222,-33.310409,117.740499,FALSE,,,,,,,,,,,,,,,,,,,,,,,,,,,,,,,,,,,,,,,,,,,,,,,,,,,,,,,,,,,,,,,,,,,,,,,,,,,,,,,,PCP253
Western NSW,70 Digilah Street,Dunedoo,New South Wales,2844,02 6370 3000,-32.017204,149.397366,FALSE,,,,,,,,,,,,,,,,,,,,,,,,,,,,,,,,,,,,,,,,,,,,,,,,,,,,,,,,,,,,,,,,,,,,,,,,,,,,,,,,PCP254
Hunter New England and Central Coast,58 Hospital Road,Dungog,New South Wales,2420,02 4995 7000,-32.401948,151.746157,FALSE,,,,,,,,,,,,,,,,,,,,,,,,,,,,,,,,,,,,,,,,,,,,,,,,,,,,,,,,,,,,,,,,,,,,,,,,,,,,,,,,PCP255
Northern Queensland,Queen Elizabeth Drive,Dysart,Queensland,4745,07 4941 1911,-22.582729,148.353044,FALSE,,,,,,,,,,,,,,,,,,,,,,,,,,,,,,,,,,,,,,,,,,,,,,,,,,,,,,,,,,,,,,,,,,,,,,,,,,,,,,,,PCP256
Western Victoria,Lot 5B Girdlestone Street,Ararat,Victoria,3377,03 5352 9300,-37.278816,142.932858,FALSE,,,,,,,,,,,,,,,,,,,,,,,,,,,,,,,,,,,,,,,,,,,,,,,,,,,,,,,,,,,,,,,,,,,,,,,,,,,,,,,,PCP257
Western Victoria,Delacombe Way,Willaura,Victoria,3379,03 5354 1600,-37.544798,142.74587,FALSE,,,,,,,,,,,,,,,,,,,,,,,,,,,,,,,,,,,,,,,,,,,,,,,,,,,,,,,,,,,,,,,,,,,,,,,,,,,,,,,,PCP258
Murray,26 Duncan Street,Birchip,Victoria,3483,03 5477 7100,-35.980167,142.915891,FALSE,,,,,,,,,,,,,,,,,,,,,,,,,,,,,,,,,,,,,,,,,,,,,,,,,,,,,,,,,,,,,,,,,,,,,,,,,,,,,,,,PCP259
Murray,4 Menzies Street,Charlton,Victoria,3525,03 5477 6800,-36.271037,143.345889,FALSE,,,,,,,,,,,,,,,,,,,,,,,,,,,,,,,,,,,,,,,,,,,,,,,,,,,,,,,,,,,,,,,,,,,,,,,,,,,,,,,,PCP260
Murray,7 Aitken Avenue,Donald,Victoria,3480,03 5478 6200,-36.366895,142.976583,FALSE,,,,,,,,,,,,,,,,,,,,,,,,,,,,,,,,,,,,,,,,,,,,,,,,,,,,,,,,,,,,,,,,,,,,,,,,,,,,,,,,PCP261
Western Victoria,52 North Western Road,St Arnaud,Victoria,3478,03 5477 2100,-36.609275,143.246676,FALSE,,,,,,,,,,,,,,,,,,,,,,,,,,,,,,,,,,,,,,,,,,,,,,,,,,,,,,,,,,,,,,,,,,,,,,,,,,,,,,,,PCP262
Murray,19 Grandview Street,Wycheproof,Victoria,3527,03 5478 0700,-36.078447,143.233779,FALSE,,,,,,,,,,,,,,,,,,,,,,,,,,,,,,,,,,,,,,,,,,,,,,,,,,,,,,,,,,,,,,,,,,,,,,,,,,,,,,,,PCP263
,"Level 3, Campus Centre Building, Prince of Wales Hospital, Barker Street",Randwick,New South Wales,2031,02 9382 0700,-33.920616,151.237986,FALSE,,,,,,,,,,,,,,,,,,,,,,,,,,,,,,,,,,,,,,,,,,,,,,,,,,,,,,,,,,,,,,,,,,,,,,,,,,,,,,,,PCP264
Murray,9-27 Francis Street,Echuca,Victoria,3564,03 5485 5000,-36.138186,144.748369,FALSE,,,,,,,,,,,,,,,,,,,,,,,,,,,,,,,,,,,,,,,,,,,,,,,,,,,,,,,,,,,,,,,,,,,,,,,,,,,,,,,,PCP265
Western Victoria,128-134 Elizabeth Street,Edenhope,Victoria,3318,03 5585 9800,-37.035323,141.288829,FALSE,,,,,,,,,,,,,,,,,,,,,,,,,,,,,,,,,,,,,,,,,,,,,,,,,,,,,,,,,,,,,,,,,,,,,,,,,,,,,,,,PCP266
"Central Queensland, Wide Bay and Sunshine Coast",Cracow Road,Eidsvold,Queensland,4627,07 4165 7100,-25.382639,151.125494,FALSE,,,,,,,,,,,,,,,,,,,,,,,,,,,,,,,,,,,,,,,,,,,,,,,,,,,,,,,,,,,,,,,,,,,,,,,,,,,,,,,,PCP267
Brisbane North,Hamilton Road,Chermside,Queensland,4032,07 3139 6500,-27.385905,153.025152,FALSE,,,,,,,,,,,,,,,,,,,,,,,,,,,,,,,,,,,,,,,,,,,,,,,,,,,,,,,,,,,,,,,,,,,,,,,,,,,,,,,,PCP268
Country SA,6 Memorial Terrace,Elliston,South Australia,5670,08 8687 9001,-33.647912,134.892443,FALSE,,,,,,,,,,,,,,,,,,,,,,,,,,,,,,,,,,,,,,,,,,,,,,,,,,,,,,,,,,,,,,,,,,,,,,,,,,,,,,,,PCP269
"Central Queensland, Wide Bay and Sunshine Coast",69 Hospital Road,Emerald,Queensland,4720,07 4987 9400,-23.514826,148.154989,FALSE,,,,,,,,,,,,,,,,,,,,,,,,,,,,,,,,,,,,,,,,,,,,,,,,,,,,,,,,,,,,,,,,,,,,,,,,,,,,,,,,PCP270
,"Suite 3, Oxford Place, 44-46 Oxford Street",Epping,New South Wales,2121,02 9868 6555,-33.771132,151.083676,FALSE,,,,,,,,,,,,,,,,,,,,,,,,,,,,,,,,,,,,,,,,,,,,,,,,,,,,,,,,,,,,,,,,,,,,,,,,,,,,,,,,PCP271
,29 Simpson Street,East Melbourne,Victoria,3002,03 9419 7122,-37.815662,144.987547,FALSE,,,,,,,,,,,,,,,,,,,,,,,,,,,,,,,,,,,,,,,,,,,,,,,,,,,,,,,,,,,,,,,,,,,,,,,,,,,,,,,,PCP272
,1 Arnold Street,Box Hill,Victoria,3128,03 8807 7100,-37.814678,145.119368,FALSE,,,,,,,,,,,,,,,,,,,,,,,,,,,,,,,,,,,,,,,,,,,,,,,,,,,,,,,,,,,,,,,,,,,,,,,,,,,,,,,,PCP273
,166 Clarendon Street,East Melbourne,Victoria,3002,03 9483 3833,-37.810694,144.984107,FALSE,,,,,,,,,,,,,,,,,,,,,,,,,,,,,,,,,,,,,,,,,,,,,,,,,,,,,,,,,,,,,,,,,,,,,,,,,,,,,,,,PCP274
,320 Victoria Parade,East Melbourne,Victoria,3002,03 9418 8188,-37.809284,144.98212,FALSE,,,,,,,,,,,,,,,,,,,,,,,,,,,,,,,,,,,,,,,,,,,,,,,,,,,,,,,,,,,,,,,,,,,,,,,,,,,,,,,,PCP275
,1 Epworth Place,Waurn Ponds,Victoria,3216,03 5271 7777,-38.193882,144.302472,FALSE,,,,,,,,,,,,,,,,,,,,,,,,,,,,,,,,,,,,,,,,,,,,,,,,,,,,,,,,,,,,,,,,,,,,,,,,,,,,,,,,PCP276
,50 Burwood Road,Hawthorn,Victoria,3122,03 9415 5777,-37.821229,145.023405,FALSE,,,,,,,,,,,,,,,,,,,,,,,,,,,,,,,,,,,,,,,,,,,,,,,,,,,,,,,,,,,,,,,,,,,,,,,,,,,,,,,,PCP277
,85 Wilson Street,Brighton,Victoria,3186,03 9591 9200,-37.913689,145.002815,FALSE,,,,,,,,,,,,,,,,,,,,,,,,,,,,,,,,,,,,,,,,,,,,,,,,,,,,,,,,,,,,,,,,,,,,,,,,,,,,,,,,PCP278
,888 Toorak Road,Camberwell,Victoria,3124,03 9809 2444,-37.846223,145.054689,FALSE,,,,,,,,,,,,,,,,,,,,,,,,,,,,,,,,,,,,,,,,,,,,,,,,,,,,,,,,,,,,,,,,,,,,,,,,,,,,,,,,PCP279
,89 Bridge Road,Richmond,Victoria,3121,03 9426 6666,-37.817419,144.993503,FALSE,,,,,,,,,,,,,,,,,,,,,,,,,,,,,,,,,,,,,,,,,,,,,,,,,,,,,,,,,,,,,,,,,,,,,,,,,,,,,,,,PCP280
,89 Bridge Road,Richmond,Victoria,3121,03 9426 6666,-37.817433,144.993029,FALSE,,,,,,,,,,,,,,,,,,,,,,,,,,,,,,,,,,,,,,,,,,,,,,,,,,,,,,,,,,,,,,,,,,,,,,,,,,,,,,,,PCP281
Darling Downs and West Moreton,30 Highland Street,Esk,Queensland,4312,07 5424 4600,-27.240398,152.418179,FALSE,,,,,,,,,,,,,,,,,,,,,,,,,,,,,,,,,,,,,,,,,,,,,,,,,,,,,,,,,,,,,,,,,,,,,,,,,,,,,,,,PCP282
Country WA,Hicks Street,Esperance,Western Australia,6450,08 9071 0888,-33.856188,121.892205,FALSE,,,,,,,,,,,,,,,,,,,,,,,,,,,,,,,,,,,,,,,,,,,,,,,,,,,,,,,,,,,,,,,,,,,,,,,,,,,,,,,,PCP283
Tasmania,Chapman Avenue,Dover,Tasmania,7117,03 6298 9200,-43.314749,147.016209,FALSE,,,,,,,,,,,,,,,,,,,,,,,,,,,,,,,,,,,,,,,,,,,,,,,,,,,,,,,,,,,,,,,,,,,,,,,,,,,,,,,,PCP284
,35 Rosehill Road,West Essendon,Victoria,3040,03 9337 9577,-37.748597,144.885403,FALSE,,,,,,,,,,,,,,,,,,,,,,,,,,,,,,,,,,,,,,,,,,,,,,,,,,,,,,,,,,,,,,,,,,,,,,,,,,,,,,,,PCP285
Country SA,40 Ward Street,Eudunda,South Australia,5374,08 8566 2007,-34.175482,139.090586,FALSE,,,,,,,,,,,,,,,,,,,,,,,,,,,,,,,,,,,,,,,,,,,,,,,,,,,,,,,,,,,,,,,,,,,,,,,,,,,,,,,,PCP286
Western NSW,Cooper Street,Eugowra,New South Wales,2806,02 6850 4000,-33.424421,148.366799,FALSE,,,,,,,,,,,,,,,,,,,,,,,,,,,,,,,,,,,,,,,,,,,,,,,,,,,,,,,,,,,,,,,,,,,,,,,,,,,,,,,,PCP287
Country WA,Lyon Street,Exmouth,Western Australia,6707,08 9949 3666,-21.928276,114.119882,FALSE,,,,,,,,,,,,,,,,,,,,,,,,,,,,,,,,,,,,,,,,,,,,,,,,,,,,,,,,,,,,,,,,,,,,,,,,,,,,,,,,PCP288
,"Level 5, St Andrews Place, 33 North Street",Spring Hill,Queensland,4000,07 3831 4244,-27.461026,153.021898,FALSE,,,,,,,,,,,,,,,,,,,,,,,,,,,,,,,,,,,,,,,,,,,,,,,,,,,,,,,,,,,,,,,,,,,,,,,,,,,,,,,,PCP289
,22-26 Sanders Street,Upper Mt Gravatt,Queensland,4122,07 3420 2666,-27.557642,153.082042,FALSE,,,,,,,,,,,,,,,,,,,,,,,,,,,,,,,,,,,,,,,,,,,,,,,,,,,,,,,,,,,,,,,,,,,,,,,,,,,,,,,,PCP290
South Western Sydney,Corner of Polding Street and Prairie Vale Road,Prairiewood,New South Wales,2176,02 9616 8111,-33.860117,150.904339,FALSE,,,,,,,,,,,,,,,,,,,,,,,,,,,,,,,,,,,,,,,,,,,,,,,,,,,,,,,,,,,,,,,,,,,,,,,,,,,,,,,,PCP291
,1 Suttor Place,Figtree,New South Wales,2525,02 4255 5000,-34.440199,150.851024,FALSE,,,,,,,,,,,,,,,,,,,,,,,,,,,,,,,,,,,,,,,,,,,,,,,,,,,,,,,,,,,,,,,,,,,,,,,,,,,,,,,,PCP292
Murrumbidgee,20-22 Dawe Avenue,Finley,New South Wales,2713,03 5883 1133,-35.641725,145.568139,FALSE,,,,,,,,,,,,,,,,,,,,,,,,,,,,,,,,,,,,,,,,,,,,,,,,,,,,,,,,,,,,,,,,,,,,,,,,,,,,,,,,PCP293
Perth South,11 Robin Warren Drive,Murdoch,Western Australia,6150,08 6152 2222,-32.07012,115.846909,FALSE,,,,,,,,,,,,,,,,,,,,,,,,,,,,,,,,,,,,,,,,,,,,,,,,,,,,,,,,,,,,,,,,,,,,,,,,,,,,,,,,PCP294
Country WA,Fallon Road,Fitzroy Crossing,Western Australia,6765,08 9166 1777,-18.191439,125.562765,FALSE,,,,,,,,,,,,,,,,,,,,,,,,,,,,,,,,,,,,,,,,,,,,,,,,,,,,,,,,,,,,,,,,,,,,,,,,,,,,,,,,PCP295
Tasmania,James Street,Whitemark,Tasmania,7255,03 6359 2122,-40.121173,148.017059,FALSE,,,,,,,,,,,,,,,,,,,,,,,,,,,,,,,,,,,,,,,,,,,,,,,,,,,,,,,,,,,,,,,,,,,,,,,,,,,,,,,,PCP296
Adelaide,Flinders Drive,Bedford Park,South Australia,5042,08 8204 5511,-35.022229,138.569439,FALSE,,,,,,,,,,,,,,,,,,,,,,,,,,,,,,,,,,,,,,,,,,,,,,,,,,,,,,,,,,,,,,,,,,,,,,,,,,,,,,,,PCP297
,1 Flinders Drive,Bedford Park,South Australia,5042,08 8275 3333,-35.020629,138.568089,FALSE,,,,,,,,,,,,,,,,,,,,,,,,,,,,,,,,,,,,,,,,,,,,,,,,,,,,,,,,,,,,,,,,,,,,,,,,,,,,,,,,PCP298
,29-41 South Street,Forster,New South Wales,2428,02 6555 1333,-32.188561,152.514079,FALSE,,,,,,,,,,,,,,,,,,,,,,,,,,,,,,,,,,,,,,,,,,,,,,,,,,,,,,,,,,,,,,,,,,,,,,,,,,,,,,,,PCP299
,"Levels 6 and 7, Corner of Grattan Street and Flemington Road",Parkville,Victoria,3052,03 9344 5000,-37.798758,144.955135,FALSE,,,,,,,,,,,,,,,,,,,,,,,,,,,,,,,,,,,,,,,,,,,,,,,,,,,,,,,,,,,,,,,,,,,,,,,,,,,,,,,,PCP300
South Eastern Melbourne,2 Hastings Road,Frankston,Victoria,3199,03 9784 7777,-38.150791,145.128428,FALSE,,,,,,,,,,,,,,,,,,,,,,,,,,,,,,,,,,,,,,,,,,,,,,,,,,,,,,,,,,,,,,,,,,,,,,,,,,,,,,,,PCP301
,24-28 Frankston Flinders Road,Frankston,Victoria,3199,03 8796 1300,-38.154662,145.132902,FALSE,,,,,,,,,,,,,,,,,,,,,,,,,,,,,,,,,,,,,,,,,,,,,,,,,,,,,,,,,,,,,,,,,,,,,,,,,,,,,,,,PCP302
Perth South,Alma Street,Fremantle,Western Australia,6160,08 9431 3333,-32.058263,115.751448,FALSE,,,,,,,,,,,,,,,,,,,,,,,,,,,,,,,,,,,,,,,,,,,,,,,,,,,,,,,,,,,,,,,,,,,,,,,,,,,,,,,,PCP303
,19-23 Bingera Street,Bundaberg,Queensland,4670,07 4331 1000,-24.870831,152.3429,FALSE,,,,,,,,,,,,,,,,,,,,,,,,,,,,,,,,,,,,,,,,,,,,,,,,,,,,,,,,,,,,,,,,,,,,,,,,,,,,,,,,PCP304
,293-295 Fullarton Road,Parkside,South Australia,5063,08 8272 0233,-34.949265,138.624852,FALSE,,,,,,,,,,,,,,,,,,,,,,,,,,,,,,,,,,,,,,,,,,,,,,,,,,,,,,,,,,,,,,,,,,,,,,,,,,,,,,,,PCP305
Darling Downs and West Moreton,97-103 William Street,Gatton,Queensland,4343,07 5468 4188,-27.566778,152.276269,FALSE,,,,,,,,,,,,,,,,,,,,,,,,,,,,,,,,,,,,,,,,,,,,,,,,,,,,,,,,,,,,,,,,,,,,,,,,,,,,,,,,PCP306
Country SA,21 Hutchinson Road,Gawler East,South Australia,5118,08 8521 2000,-34.593743,138.755044,FALSE,,,,,,,,,,,,,,,,,,,,,,,,,,,,,,,,,,,,,,,,,,,,,,,,,,,,,,,,,,,,,,,,,,,,,,,,,,,,,,,,PCP307
"Central Queensland, Wide Bay and Sunshine Coast",69 Warton Street,Gayndah,Queensland,4625,07 4161 3500,-25.631384,151.604531,FALSE,,,,,,,,,,,,,,,,,,,,,,,,,,,,,,,,,,,,,,,,,,,,,,,,,,,,,,,,,,,,,,,,,,,,,,,,,,,,,,,,PCP308
Tasmania,47 Anne Street,George Town,Tasmania,7253,03 6702 6020,-41.103782,146.821149,FALSE,,,,,,,,,,,,,,,,,,,,,,,,,,,,,,,,,,,,,,,,,,,,,,,,,,,,,,,,,,,,,,,,,,,,,,,,,,,,,,,,PCP309
Country WA,51-85 Shenton Street,Geraldton,Western Australia,6530,08 9956 2222,-28.782808,114.610844,FALSE,,,,,,,,,,,,,,,,,,,,,,,,,,,,,,,,,,,,,,,,,,,,,,,,,,,,,,,,,,,,,,,,,,,,,,,,,,,,,,,,PCP310
Western NSW,6 Chelmsford Avenue,Gilgandra,New South Wales,2827,02 6880 5900,-31.704565,148.664889,FALSE,,,,,,,,,,,,,,,,,,,,,,,,,,,,,,,,,,,,,,,,,,,,,,,,,,,,,,,,,,,,,,,,,,,,,,,,,,,,,,,,PCP311
"Central Queensland, Wide Bay and Sunshine Coast",5 King Street,Gin Gin,Queensland,4671,07 4157 2222,-24.985707,151.953449,FALSE,,,,,,,,,,,,,,,,,,,,,,,,,,,,,,,,,,,,,,,,,,,,,,,,,,,,,,,,,,,,,,,,,,,,,,,,,,,,,,,,PCP312
Gippsland,69-75 Bridge Street,Korumburra,Victoria,3950,03 5654 2777,-38.430328,145.828249,FALSE,,,,,,,,,,,,,,,,,,,,,,,,,,,,,,,,,,,,,,,,,,,,,,,,,,,,,,,,,,,,,,,,,,,,,,,,,,,,,,,,PCP313
Gippsland,66 Koonawarra Road,Leongatha,Victoria,3953,03 5667 5555,-38.487171,145.950343,FALSE,,,,,,,,,,,,,,,,,,,,,,,,,,,,,,,,,,,,,,,,,,,,,,,,,,,,,,,,,,,,,,,,,,,,,,,,,,,,,,,,PCP314
"Central Queensland, Wide Bay and Sunshine Coast",Park Street,Gladstone,Queensland,4680,07 4976 3200,-23.850654,151.248532,FALSE,,,,,,,,,,,,,,,,,,,,,,,,,,,,,,,,,,,,,,,,,,,,,,,,,,,,,,,,,,,,,,,,,,,,,,,,,,,,,,,,PCP315
,544 Hawthorn Road,Caulfield South,Victoria,3162,03 9595 6600,-37.900377,145.019265,FALSE,,,,,,,,,,,,,,,,,,,,,,,,,,,,,,,,,,,,,,,,,,,,,,,,,,,,,,,,,,,,,,,,,,,,,,,,,,,,,,,,PCP316
Hunter New England and Central Coast,94 Taylor Street,Glen Innes,New South Wales,2370,02 6739 0200,-29.733293,151.731673,FALSE,,,,,,,,,,,,,,,,,,,,,,,,,,,,,,,,,,,,,,,,,,,,,,,,,,,,,,,,,,,,,,,,,,,,,,,,,,,,,,,,PCP317
,5 Farrell Street,Glenelg South,South Australia,5045,08 8294 5555,-34.990189,138.512321,FALSE,,,,,,,,,,,,,,,,,,,,,,,,,,,,,,,,,,,,,,,,,,,,,,,,,,,,,,,,,,,,,,,,,,,,,,,,,,,,,,,,PCP318
,29 Hilda Crescent,Hawthorn,Victoria,3122,03 9009 3800,-37.819459,145.031544,FALSE,,,,,,,,,,,,,,,,,,,,,,,,,,,,,,,,,,,,,,,,,,,,,,,,,,,,,,,,,,,,,,,,,,,,,,,,,,,,,,,,PCP319
,53 Arnisdale Road,Duncraig,Western Australia,6023,08 9447 0111,-31.834253,115.784826,FALSE,,,,,,,,,,,,,,,,,,,,,,,,,,,,,,,,,,,,,,,,,,,,,,,,,,,,,,,,,,,,,,,,,,,,,,,,,,,,,,,,PCP320
Adelaide,226 Fullarton Road,Glenside,South Australia,5065,08 7087 1000,-34.943429,138.627714,FALSE,,,,,,,,,,,,,,,,,,,,,,,,,,,,,,,,,,,,,,,,,,,,,,,,,,,,,,,,,,,,,,,,,,,,,,,,,,,,,,,,PCP321
Hunter New England and Central Coast,166-182 Church Street,Gloucester,New South Wales,2422,02 6538 5000,-32.014787,151.958556,FALSE,,,,,,,,,,,,,,,,,,,,,,,,,,,,,,,,,,,,,,,,,,,,,,,,,,,,,,,,,,,,,,,,,,,,,,,,,,,,,,,,PCP322
Country WA,Yougenup Road,Gnowangerup,Western Australia,6335,08 9827 2222,-33.930469,118.002927,FALSE,,,,,,,,,,,,,,,,,,,,,,,,,,,,,,,,,,,,,,,,,,,,,,,,,,,,,,,,,,,,,,,,,,,,,,,,,,,,,,,,PCP323
,14 Hill Street,Southport,Queensland,4215,07 5530 0300,-27.962084,153.385112,FALSE,,,,,,,,,,,,,,,,,,,,,,,,,,,,,,,,,,,,,,,,,,,,,,,,,,,,,,,,,,,,,,,,,,,,,,,,,,,,,,,,PCP324
Gold Coast,1 Hospital Boulevard,Southport,Queensland,4215,07 5687 0000,-27.958896,153.381173,FALSE,,,,,,,,,,,,,,,,,,,,,,,,,,,,,,,,,,,,,,,,,,,,,,,,,,,,,,,,,,,,,,,,,,,,,,,,,,,,,,,,PCP325
South Eastern Melbourne,125 Golf Links Road,Frankston,Victoria,3199,03 9783 7277,-38.173447,145.149769,FALSE,,,,,,,,,,,,,,,,,,,,,,,,,,,,,,,,,,,,,,,,,,,,,,,,,,,,,,,,,,,,,,,,,,,,,,,,,,,,,,,,PCP326
Western NSW,49 Hammond Street,Goodooga,New South Wales,2831,02 6820 6200,-29.110249,147.456114,FALSE,,,,,,,,,,,,,,,,,,,,,,,,,,,,,,,,,,,,,,,,,,,,,,,,,,,,,,,,,,,,,,,,,,,,,,,,,,,,,,,,PCP327
Country WA,Forrest Street,Goomalling,Western Australia,6460,08 9629 0100,-31.303928,116.831102,FALSE,,,,,,,,,,,,,,,,,,,,,,,,,,,,,,,,,,,,,,,,,,,,,,,,,,,,,,,,,,,,,,,,,,,,,,,,,,,,,,,,PCP328
Darling Downs and West Moreton,Bowen Street,Goondiwindi,Queensland,4390,07 4578 2400,-28.547951,150.302302,FALSE,,,,,,,,,,,,,,,,,,,,,,,,,,,,,,,,,,,,,,,,,,,,,,,,,,,,,,,,,,,,,,,,,,,,,,,,,,,,,,,,PCP329
Northern Queensland,1-11 Highleigh Road,Gordonvale,Queensland,4865,07 4043 3100,-17.087337,145.786159,FALSE,,,,,,,,,,,,,,,,,,,,,,,,,,,,,,,,,,,,,,,,,,,,,,,,,,,,,,,,,,,,,,,,,,,,,,,,,,,,,,,,PCP330
Hunter New England and Central Coast,76 Holden Street,Gosford,New South Wales,2250,02 4320 2111,-33.419451,151.340328,FALSE,,,,,,,,,,,,,,,,,,,,,,,,,,,,,,,,,,,,,,,,,,,,,,,,,,,,,,,,,,,,,,,,,,,,,,,,,,,,,,,,PCP331
South Eastern NSW,130 Goldsmith Street,Goulburn,New South Wales,2580,02 4827 3111,-34.747527,149.712806,FALSE,,,,,,,,,,,,,,,,,,,,,,,,,,,,,,,,,,,,,,,,,,,,,,,,,,,,,,,,,,,,,,,,,,,,,,,,,,,,,,,,PCP332
Murray,2 Graham Street,Shepparton,Victoria,3630,03 5832 2322,-36.363625,145.404911,FALSE,,,,,,,,,,,,,,,,,,,,,,,,,,,,,,,,,,,,,,,,,,,,,,,,,,,,,,,,,,,,,,,,,,,,,,,,,,,,,,,,PCP333
Murray,64-68 Park Street,Tatura,Victoria,3616,03 5824 8400,-36.439082,145.225535,FALSE,,,,,,,,,,,,,,,,,,,,,,,,,,,,,,,,,,,,,,,,,,,,,,,,,,,,,,,,,,,,,,,,,,,,,,,,,,,,,,,,PCP334
Murray,14 Coyle Street,Rushworth,Victoria,3612,03 5851 8050,-36.587827,145.008593,FALSE,,,,,,,,,,,,,,,,,,,,,,,,,,,,,,,,,,,,,,,,,,,,,,,,,,,,,,,,,,,,,,,,,,,,,,,,,,,,,,,,PCP335
Northern Territory,80 Matthew Flinders Way,Nhulunbuy,Northern Territory,880,08 8987 0211,-12.18602,136.777874,FALSE,,,,,,,,,,,,,,,,,,,,,,,,,,,,,,,,,,,,,,,,,,,,,,,,,,,,,,,,,,,,,,,,,,,,,,,,,,,,,,,,PCP336
Central and Eastern Sydney,Lagoon Road,Lord Howe Island,New South Wales,2898,02 6563 2000,-31.535603,159.071307,FALSE,,,,,,,,,,,,,,,,,,,,,,,,,,,,,,,,,,,,,,,,,,,,,,,,,,,,,,,,,,,,,,,,,,,,,,,,,,,,,,,,PCP337
North Coast,174 Arthur Street,Grafton,New South Wales,2460,02 6640 2222,-29.674807,152.941274,FALSE,,,,,,,,,,,,,,,,,,,,,,,,,,,,,,,,,,,,,,,,,,,,,,,,,,,,,,,,,,,,,,,,,,,,,,,,,,,,,,,,PCP338
Perth North,Brockway Road,Mount Claremont,Western Australia,6010,08 9347 6600,-31.961447,115.790855,FALSE,,,,,,,,,,,,,,,,,,,,,,,,,,,,,,,,,,,,,,,,,,,,,,,,,,,,,,,,,,,,,,,,,,,,,,,,,,,,,,,,PCP339
,687 Logan Road,Greenslopes,Queensland,4120,1800 802 562,-27.510139,153.052889,FALSE,,,,,,,,,,,,,,,,,,,,,,,,,,,,,,,,,,,,,,,,,,,,,,,,,,,,,,,,,,,,,,,,,,,,,,,,,,,,,,,,PCP340
,Newdegate Street,Greenslopes,Queensland,4120,07 3394 7111,-27.513052,153.046942,FALSE,,,,,,,,,,,,,,,,,,,,,,,,,,,,,,,,,,,,,,,,,,,,,,,,,,,,,,,,,,,,,,,,,,,,,,,,,,,,,,,,PCP341
Northern Sydney,97-115 River Road,Greenwich,New South Wales,2065,02 9903 8333,-33.827329,151.183376,FALSE,,,,,,,,,,,,,,,,,,,,,,,,,,,,,,,,,,,,,,,,,,,,,,,,,,,,,,,,,,,,,,,,,,,,,,,,,,,,,,,,PCP342
Western NSW,80-96 Cowra Road,Grenfell,New South Wales,2810,02 6349 1700,-33.894286,148.167843,FALSE,,,,,,,,,,,,,,,,,,,,,,,,,,,,,,,,,,,,,,,,,,,,,,,,,,,,,,,,,,,,,,,,,,,,,,,,,,,,,,,,PCP343
Murrumbidgee,1 Noorebar Avenue,Griffith,New South Wales,2680,02 6969 5555,-34.282121,146.043774,FALSE,,,,,,,,,,,,,,,,,,,,,,,,,,,,,,,,,,,,,,,,,,,,,,,,,,,,,,,,,,,,,,,,,,,,,,,,,,,,,,,,PCP344
,13 Dunrobin Road,Hove,South Australia,5048,08 8298 4299,-35.010285,138.523859,FALSE,,,,,,,,,,,,,,,,,,,,,,,,,,,,,,,,,,,,,,,,,,,,,,,,,,,,,,,,,,,,,,,,,,,,,,,,,,,,,,,,PCP345
Western NSW,47 Bourbah Street,Gulargambone,New South Wales,2828,02 6827 4200,-31.329812,148.469216,FALSE,,,,,,,,,,,,,,,,,,,,,,,,,,,,,,,,,,,,,,,,,,,,,,,,,,,,,,,,,,,,,,,,,,,,,,,,,,,,,,,,PCP346
Western NSW,34 Goolma Road,Gulgong,New South Wales,2852,02 6374 3400,-32.366871,149.521893,FALSE,,,,,,,,,,,,,,,,,,,,,,,,,,,,,,,,,,,,,,,,,,,,,,,,,,,,,,,,,,,,,,,,,,,,,,,,,,,,,,,,PCP347
Country SA,2 Albert Street,Gumeracha,South Australia,5233,08 8209 9200,-34.826269,138.881575,FALSE,,,,,,,,,,,,,,,,,,,,,,,,,,,,,,,,,,,,,,,,,,,,,,,,,,,,,,,,,,,,,,,,,,,,,,,,,,,,,,,,PCP348
Murrumbidgee,50 Tor Street,Gundagai,New South Wales,2722,02 6940 6300,-35.051394,148.101764,FALSE,,,,,,,,,,,,,,,,,,,,,,,,,,,,,,,,,,,,,,,,,,,,,,,,,,,,,,,,,,,,,,,,,,,,,,,,,,,,,,,,PCP349
Hunter New England and Central Coast,2 Marquis Street,Gunnedah,New South Wales,2380,02 6741 8000,-30.983146,150.251339,FALSE,,,,,,,,,,,,,,,,,,,,,,,,,,,,,,,,,,,,,,,,,,,,,,,,,,,,,,,,,,,,,,,,,,,,,,,,,,,,,,,,PCP350
Hunter New England and Central Coast,44-48 Sole Street,Guyra,New South Wales,2365,02 6738 4000,-30.213889,151.679112,FALSE,,,,,,,,,,,,,,,,,,,,,,,,,,,,,,,,,,,,,,,,,,,,,,,,,,,,,,,,,,,,,,,,,,,,,,,,,,,,,,,,PCP351
"Central Queensland, Wide Bay and Sunshine Coast",12 Henry Street,Gympie,Queensland,4570,07 5489 8444,-26.184353,152.658258,FALSE,,,,,,,,,,,,,,,,,,,,,,,,,,,,,,,,,,,,,,,,,,,,,,,,,,,,,,,,,,,,,,,,,,,,,,,,,,,,,,,,PCP352
,78-82 Channon Street,Gympie,Queensland,4570,07 5483 0500,-26.184392,152.664191,FALSE,,,,,,,,,,,,,,,,,,,,,,,,,,,,,,,,,,,,,,,,,,,,,,,,,,,,,,,,,,,,,,,,,,,,,,,,,,,,,,,,PCP353
Country WA,70 Roberta Avenue,Halls Creek,Western Australia,6770,08 9168 9222,-18.226008,127.666046,FALSE,,,,,,,,,,,,,,,,,,,,,,,,,,,,,,,,,,,,,,,,,,,,,,,,,,,,,,,,,,,,,,,,,,,,,,,,,,,,,,,,PCP354
Adelaide,207-255 Hampstead Road,Northfield,South Australia,5085,08 8222 1600,-34.860704,138.620381,FALSE,,,,,,,,,,,,,,,,,,,,,,,,,,,,,,,,,,,,,,,,,,,,,,,,,,,,,,,,,,,,,,,,,,,,,,,,,,,,,,,,PCP355
Country WA,42 Hayward Street,Harvey,Western Australia,6220,08 9782 2222,-33.077554,115.896749,FALSE,,,,,,,,,,,,,,,,,,,,,,,,,,,,,,,,,,,,,,,,,,,,,,,,,,,,,,,,,,,,,,,,,,,,,,,,,,,,,,,,PCP356
Country SA,Cradock Road,Hawker,South Australia,5434,08 8648 4007,-31.893389,138.427841,FALSE,,,,,,,,,,,,,,,,,,,,,,,,,,,,,,,,,,,,,,,,,,,,,,,,,,,,,,,,,,,,,,,,,,,,,,,,,,,,,,,,PCP357
Nepean Blue Mountains,2 Day Street,Windsor,New South Wales,2756,02 4560 5555,-33.610712,150.820804,FALSE,,,,,,,,,,,,,,,,,,,,,,,,,,,,,,,,,,,,,,,,,,,,,,,,,,,,,,,,,,,,,,,,,,,,,,,,,,,,,,,,PCP358
Murrumbidgee,351 Murray Street,Hay,New South Wales,2711,02 6990 8700,-34.500349,144.851433,FALSE,,,,,,,,,,,,,,,,,,,,,,,,,,,,,,,,,,,,,,,,,,,,,,,,,,,,,,,,,,,,,,,,,,,,,,,,,,,,,,,,PCP359
Eastern Melbourne,377 Maroondah Highway,Healesville,Victoria,3777,03 5962 4300,-37.646879,145.529032,FALSE,,,,,,,,,,,,,,,,,,,,,,,,,,,,,,,,,,,,,,,,,,,,,,,,,,,,,,,,,,,,,,,,,,,,,,,,,,,,,,,,PCP360
,13 Corporate Drive,Moorabbin,Victoria,3189,03 8551 8888,-37.947818,145.081172,FALSE,,,,,,,,,,,,,,,,,,,,,,,,,,,,,,,,,,,,,,,,,,,,,,,,,,,,,,,,,,,,,,,,,,,,,,,,,,,,,,,,PCP361
Tasmania,Orr Street,Queenstown,Tasmania,7467,03 6471 3300,-42.081122,145.558303,FALSE,,,,,,,,,,,,,,,,,,,,,,,,,,,,,,,,,,,,,,,,,,,,,,,,,,,,,,,,,,,,,,,,,,,,,,,,,,,,,,,,PCP362
Murray,39 Hospital Street,Heathcote,Victoria,3523,03 5431 0900,-36.925786,144.709499,FALSE,,,,,,,,,,,,,,,,,,,,,,,,,,,,,,,,,,,,,,,,,,,,,,,,,,,,,,,,,,,,,,,,,,,,,,,,,,,,,,,,PCP363
Country WA,34 Colebatch Way,South Hedland,Western Australia,6722,08 9174 1410,-20.413541,118.598178,FALSE,,,,,,,,,,,,,,,,,,,,,,,,,,,,,,,,,,,,,,,,,,,,,,,,,,,,,,,,,,,,,,,,,,,,,,,,,,,,,,,,PCP364
,177-179 Northern Road,Heidelberg Heights,Victoria,3081,03 9458 2200,-37.730589,145.060271,FALSE,,,,,,,,,,,,,,,,,,,,,,,,,,,,,,,,,,,,,,,,,,,,,,,,,,,,,,,,,,,,,,,,,,,,,,,,,,,,,,,,PCP365
Eastern Melbourne,300 Waterdale Road,Heidelberg West,Victoria,3081,03 9496 5000,-37.755973,145.04749,FALSE,,,,,,,,,,,,,,,,,,,,,,,,,,,,,,,,,,,,,,,,,,,,,,,,,,,,,,,,,,,,,,,,,,,,,,,,,,,,,,,,PCP366
Murrumbidgee,7 Keighran Street,Henty,New South Wales,2658,02 6929 4999,-35.515801,147.031847,FALSE,,,,,,,,,,,,,,,,,,,,,,,,,,,,,,,,,,,,,,,,,,,,,,,,,,,,,,,,,,,,,,,,,,,,,,,,,,,,,,,,PCP367
Northern Queensland,23 Grace Street,Herberton,Queensland,4887,07 4096 1000,-17.379371,145.38175,FALSE,,,,,,,,,,,,,,,,,,,,,,,,,,,,,,,,,,,,,,,,,,,,,,,,,,,,,,,,,,,,,,,,,,,,,,,,,,,,,,,,PCP368
"Central Queensland, Wide Bay and Sunshine Coast",Corner of Nissen and Uraween Roads,Pialba,Queensland,4655,07 4120 6666,-25.298697,152.820639,FALSE,,,,,,,,,,,,,,,,,,,,,,,,,,,,,,,,,,,,,,,,,,,,,,,,,,,,,,,,,,,,,,,,,,,,,,,,,,,,,,,,PCP369
,146-150 Boat Harbour Drive,Pialba,Queensland,4655,07 4194 4000,-25.287202,152.834651,FALSE,,,,,,,,,,,,,,,,,,,,,,,,,,,,,,,,,,,,,,,,,,,,,,,,,,,,,,,,,,,,,,,,,,,,,,,,,,,,,,,,PCP370
Western Victoria,8 Gosney Street,Winchelsea,Victoria,3241,03 5267 1200,-38.243369,143.985357,FALSE,,,,,,,,,,,,,,,,,,,,,,,,,,,,,,,,,,,,,,,,,,,,,,,,,,,,,,,,,,,,,,,,,,,,,,,,,,,,,,,,PCP371
Western Victoria,21 Barclay Street,Heywood,Victoria,3304,03 5527 0555,-38.137788,141.624256,FALSE,,,,,,,,,,,,,,,,,,,,,,,,,,,,,,,,,,,,,,,,,,,,,,,,,,,,,,,,,,,,,,,,,,,,,,,,,,,,,,,,PCP372
,4 Talford Street,Rockhampton,Queensland,4700,07 4932 1321,-23.377595,150.496076,FALSE,,,,,,,,,,,,,,,,,,,,,,,,,,,,,,,,,,,,,,,,,,,,,,,,,,,,,,,,,,,,,,,,,,,,,,,,,,,,,,,,PCP373
Murrumbidgee,48C Burns Street,Hillston,New South Wales,2675,02 6961 7200,-33.478793,145.539032,FALSE,,,,,,,,,,,,,,,,,,,,,,,,,,,,,,,,,,,,,,,,,,,,,,,,,,,,,,,,,,,,,,,,,,,,,,,,,,,,,,,,PCP374
,Argyle Street,Hobart,Tasmania,7000,03 6214 3000,-42.880752,147.329886,FALSE,,,,,,,,,,,,,,,,,,,,,,,,,,,,,,,,,,,,,,,,,,,,,,,,,,,,,,,,,,,,,,,,,,,,,,,,,,,,,,,,PCP375
,Corner of Queen and Sargood Streets,Altona,Victoria,3018,03 9398 8800,-37.869448,144.828494,FALSE,,,,,,,,,,,,,,,,,,,,,,,,,,,,,,,,,,,,,,,,,,,,,,,,,,,,,,,,,,,,,,,,,,,,,,,,,,,,,,,,PCP376
,566 Melton Highway,Sydenham,Victoria,3037,03 8361 6400,-37.693365,144.758677,FALSE,,,,,,,,,,,,,,,,,,,,,,,,,,,,,,,,,,,,,,,,,,,,,,,,,,,,,,,,,,,,,,,,,,,,,,,,,,,,,,,,PCP377
,179 Princes Highway,Werribee,Victoria,3030,03 9731 8000,-37.890649,144.686494,FALSE,,,,,,,,,,,,,,,,,,,,,,,,,,,,,,,,,,,,,,,,,,,,,,,,,,,,,,,,,,,,,,,,,,,,,,,,,,,,,,,,PCP378
Murrumbidgee,Bowler Street,Holbrook,New South Wales,2644,02 6036 2522,-35.723991,147.320276,FALSE,,,,,,,,,,,,,,,,,,,,,,,,,,,,,,,,,,,,,,,,,,,,,,,,,,,,,,,,,,,,,,,,,,,,,,,,,,,,,,,,PCP379
,Monash Avenue,Nedlands,Western Australia,6009,08 9346 6000,-31.969693,115.809148,FALSE,,,,,,,,,,,,,,,,,,,,,,,,,,,,,,,,,,,,,,,,,,,,,,,,,,,,,,,,,,,,,,,,,,,,,,,,,,,,,,,,PCP380
,490 South Road,Moorabbin,Victoria,3189,03 9567 9000,-37.935738,145.050581,FALSE,,,,,,,,,,,,,,,,,,,,,,,,,,,,,,,,,,,,,,,,,,,,,,,,,,,,,,,,,,,,,,,,,,,,,,,,,,,,,,,,PCP381
,627 Rode Road,Chermside,Queensland,4032,07 3326 3000,-27.390688,153.022728,FALSE,,,,,,,,,,,,,,,,,,,,,,,,,,,,,,,,,,,,,,,,,,,,,,,,,,,,,,,,,,,,,,,,,,,,,,,,,,,,,,,,PCP382
Northern Queensland,Tenth Avenue,Home Hill,Queensland,4806,07 4790 5700,-19.661764,147.416759,FALSE,,,,,,,,,,,,,,,,,,,,,,,,,,,,,,,,,,,,,,,,,,,,,,,,,,,,,,,,,,,,,,,,,,,,,,,,,,,,,,,,PCP383
,88 Allied Drive,Arundel,Queensland,4214,07 5563 2930,-27.938981,153.380619,FALSE,,,,,,,,,,,,,,,,,,,,,,,,,,,,,,,,,,,,,,,,,,,,,,,,,,,,,,,,,,,,,,,,,,,,,,,,,,,,,,,,PCP384
Northern Sydney,36-76 Palmerston Road,Hornsby,New South Wales,2077,02 9477 9123,-33.701448,151.112941,FALSE,,,,,,,,,,,,,,,,,,,,,,,,,,,,,,,,,,,,,,,,,,,,,,,,,,,,,,,,,,,,,,,,,,,,,,,,,,,,,,,,PCP385
Northern Queensland,14 Richmond Hill Drive,Hughenden,Queensland,4821,07 4741 2800,-20.8424,144.1892,FALSE,,,,,,,,,,,,,,,,,,,,,,,,,,,,,,,,,,,,,,,,,,,,,,,,,,,,,,,,,,,,,,,,,,,,,,,,,,,,,,,,PCP386
Hunter New England and Central Coast,Edith Street,Waratah,New South Wales,2298,02 4033 5000,-32.897873,151.720669,FALSE,,,,,,,,,,,,,,,,,,,,,,,,,,,,,,,,,,,,,,,,,,,,,,,,,,,,,,,,,,,,,,,,,,,,,,,,,,,,,,,,PCP387
,20 Mawson Street,Shortland,New South Wales,2307,02 4944 3744,-32.883085,151.695054,FALSE,,,,,,,,,,,,,,,,,,,,,,,,,,,,,,,,,,,,,,,,,,,,,,,,,,,,,,,,,,,,,,,,,,,,,,,,,,,,,,,,PCP388
,9 Mount Street,Hunters Hill,New South Wales,2110,02 8876 9300,-33.835273,151.150172,FALSE,,,,,,,,,,,,,,,,,,,,,,,,,,,,,,,,,,,,,,,,,,,,,,,,,,,,,,,,,,,,,,,,,,,,,,,,,,,,,,,,PCP389
Tasmania,3278 Huon Highway,Franklin,Tasmania,7113,03 6264 7100,-43.080869,147.016382,FALSE,,,,,,,,,,,,,,,,,,,,,,,,,,,,,,,,,,,,,,,,,,,,,,,,,,,,,,,,,,,,,,,,,,,,,,,,,,,,,,,,PCP390
,37 Gloucester Road,Hurstville,New South Wales,2220,02 9579 7777,-33.962333,151.095989,FALSE,,,,,,,,,,,,,,,,,,,,,,,,,,,,,,,,,,,,,,,,,,,,,,,,,,,,,,,,,,,,,,,,,,,,,,,,,,,,,,,,PCP391
South Eastern NSW,,,New South Wales,2500,,-34.42623,150.891252,FALSE,,,,,,,,,,,,,,,,,,,,,,,,,,,,,,,,,,,,,,,,,,,,,,,,,,,,,,,,,,,,,,,,,,,,,,,,,,,,,,,,PCP392
Northern Queensland,2-16 Mcilwraith Street,Ingham,Queensland,4850,07 4720 3000,-18.652293,146.164222,FALSE,,,,,,,,,,,,,,,,,,,,,,,,,,,,,,,,,,,,,,,,,,,,,,,,,,,,,,,,,,,,,,,,,,,,,,,,,,,,,,,,PCP393
Murray,3 Hospital Street,Inglewood,Victoria,3517,03 5431 7000,-36.572147,143.873755,FALSE,,,,,,,,,,,,,,,,,,,,,,,,,,,,,,,,,,,,,,,,,,,,,,,,,,,,,,,,,,,,,,,,,,,,,,,,,,,,,,,,PCP394
Darling Downs and West Moreton,Cunningham Highway,Inglewood,Queensland,4387,07 4652 0888,-28.417647,151.061856,FALSE,,,,,,,,,,,,,,,,,,,,,,,,,,,,,,,,,,,,,,,,,,,,,,,,,,,,,,,,,,,,,,,,,,,,,,,,,,,,,,,,PCP395
Western Queensland,Fifth Avenue,Injune,Queensland,4454,07 4626 1188,-25.847096,148.562471,FALSE,,,,,,,,,,,,,,,,,,,,,,,,,,,,,,,,,,,,,,,,,,,,,,,,,,,,,,,,,,,,,,,,,,,,,,,,,,,,,,,,PCP396
Northern Queensland,87 Rankin Street,Innisfail,Queensland,4860,07 4016 1411,-17.518939,146.030049,FALSE,,,,,,,,,,,,,,,,,,,,,,,,,,,,,,,,,,,,,,,,,,,,,,,,,,,,,,,,,,,,,,,,,,,,,,,,,,,,,,,,PCP397
Hunter New England and Central Coast,41 Swanbrook Road,Inverell,New South Wales,2360,02 6721 9500,-29.770728,151.130139,FALSE,,,,,,,,,,,,,,,,,,,,,,,,,,,,,,,,,,,,,,,,,,,,,,,,,,,,,,,,,,,,,,,,,,,,,,,,,,,,,,,,PCP398
,10 Churchill Street,Ipswich,Queensland,4305,07 3282 8800,-27.6184,152.7608,FALSE,,,,,,,,,,,,,,,,,,,,,,,,,,,,,,,,,,,,,,,,,,,,,,,,,,,,,,,,,,,,,,,,,,,,,,,,,,,,,,,,PCP399
Darling Downs and West Moreton,Chelmsford Avenue,Ipswich,Queensland,4305,07 3810 1111,-27.619465,152.759313,FALSE,,,,,,,,,,,,,,,,,,,,,,,,,,,,,,,,,,,,,,,,,,,,,,,,,,,,,,,,,,,,,,,,,,,,,,,,,,,,,,,,PCP400
Western NSW,11 Columbus Street,Ivanhoe,New South Wales,2878,02 6990 2200,-32.898193,144.298904,FALSE,,,,,,,,,,,,,,,,,,,,,,,,,,,,,,,,,,,,,,,,,,,,,,,,,,,,,,,,,,,,,,,,,,,,,,,,,,,,,,,,PCP401
Country SA,South Terrace,Jamestown,South Australia,5491,08 8664 1406,-33.212265,138.616249,FALSE,,,,,,,,,,,,,,,,,,,,,,,,,,,,,,,,,,,,,,,,,,,,,,,,,,,,,,,,,,,,,,,,,,,,,,,,,,,,,,,,PCP402
Darling Downs and West Moreton,13 Dalby Street,Jandowae,Queensland,4410,07 4668 4555,-26.781016,151.105313,FALSE,,,,,,,,,,,,,,,,,,,,,,,,,,,,,,,,,,,,,,,,,,,,,,,,,,,,,,,,,,,,,,,,,,,,,,,,,,,,,,,,PCP403
Murrumbidgee,33-39 Southey Street,Jerilderie,New South Wales,2716,03 5886 1300,-35.356628,145.720596,FALSE,,,,,,,,,,,,,,,,,,,,,,,,,,,,,,,,,,,,,,,,,,,,,,,,,,,,,,,,,,,,,,,,,,,,,,,,,,,,,,,,PCP404
,246 Clayton Road,Clayton,Victoria,3168,03 9594 2776,-37.9201,145.1225,FALSE,,,,,,,,,,,,,,,,,,,,,,,,,,,,,,,,,,,,,,,,,,,,,,,,,,,,,,,,,,,,,,,,,,,,,,,,,,,,,,,,PCP405
,275 Moreland Road,Coburg,Victoria,3058,03 9385 2500,-37.754369,144.958398,FALSE,,,,,,,,,,,,,,,,,,,,,,,,,,,,,,,,,,,,,,,,,,,,,,,,,,,,,,,,,,,,,,,,,,,,,,,,,,,,,,,,PCP406
,42 Inland Drive,Tugun,Queensland,4224,07 5598 9000,-28.153911,153.488616,FALSE,,,,,,,,,,,,,,,,,,,,,,,,,,,,,,,,,,,,,,,,,,,,,,,,,,,,,,,,,,,,,,,,,,,,,,,,,,,,,,,,PCP407
Hunter New England and Central Coast,Lookout Road,New Lambton,New South Wales,2305,02 4921 3000,-32.922177,151.692438,FALSE,,,,,,,,,,,,,,,,,,,,,,,,,,,,,,,,,,,,,,,,,,,,,,,,,,,,,,,,,,,,,,,,,,,,,,,,,,,,,,,,PCP408
,19/201 Wellington Parade Sth,East Melbourne,Victoria,3002,03 9654 8033,-37.816762,144.978596,FALSE,,,,,,,,,,,,,,,,,,,,,,,,,,,,,,,,,,,,,,,,,,,,,,,,,,,,,,,,,,,,,,,,,,,,,,,,,,,,,,,,PCP409
,Corner of Grand Boulevard and Shenton Avenue,Joondalup,Western Australia,6027,08 9400 9400,-31.738788,115.77034,FALSE,,,,,,,,,,,,,,,,,,,,,,,,,,,,,,,,,,,,,,,,,,,,,,,,,,,,,,,,,,,,,,,,,,,,,,,,,,,,,,,,PCP410
Perth North,Shenton Avenue,Joondalup,Western Australia,6027,08 9400 9030,-31.738788,115.771737,FALSE,,,,,,,,,,,,,,,,,,,,,,,,,,,,,,,,,,,,,,,,,,,,,,,,,,,,,,,,,,,,,,,,,,,,,,,,,,,,,,,,PCP411
Northern Queensland,Beach Road,Palm Island,Queensland,4816,07 4752 5100,-18.732733,146.578731,FALSE,,,,,,,,,,,,,,,,,,,,,,,,,,,,,,,,,,,,,,,,,,,,,,,,,,,,,,,,,,,,,,,,,,,,,,,,,,,,,,,,PCP412
Western Queensland,1 Burke Street,Julia Creek,Queensland,4823,07 4746 4000,-20.656096,141.749875,FALSE,,,,,,,,,,,,,,,,,,,,,,,,,,,,,,,,,,,,,,,,,,,,,,,,,,,,,,,,,,,,,,,,,,,,,,,,,,,,,,,,PCP413
Murrumbidgee,67 Broadway Street,Junee,New South Wales,2663,02 6924 8200,-34.866914,147.581314,FALSE,,,,,,,,,,,,,,,,,,,,,,,,,,,,,,,,,,,,,,,,,,,,,,,,,,,,,,,,,,,,,,,,,,,,,,,,,,,,,,,,PCP414
Central and Eastern Sydney,1300 Anzac Parade,Malabar,New South Wales,2036,02 9700 3000,-33.96907,151.243206,FALSE,,,,,,,,,,,,,,,,,,,,,,,,,,,,,,,,,,,,,,,,,,,,,,,,,,,,,,,,,,,,,,,,,,,,,,,,,,,,,,,,PCP415
,40 Briant Road,Magill,South Australia,5072,08 8331 0811,-34.916913,138.669951,FALSE,,,,,,,,,,,,,,,,,,,,,,,,,,,,,,,,,,,,,,,,,,,,,,,,,,,,,,,,,,,,,,,,,,,,,,,,,,,,,,,,PCP416
Perth North,Elizabeth Street,Kalamunda,Western Australia,6076,08 9257 8100,-31.966471,116.060267,FALSE,,,,,,,,,,,,,,,,,,,,,,,,,,,,,,,,,,,,,,,,,,,,,,,,,,,,,,,,,,,,,,,,,,,,,,,,,,,,,,,,PCP417
Country WA,Kaiber Street,Kalbarri,Western Australia,6536,08 9937 0100,-27.712843,114.161574,FALSE,,,,,,,,,,,,,,,,,,,,,,,,,,,,,,,,,,,,,,,,,,,,,,,,,,,,,,,,,,,,,,,,,,,,,,,,,,,,,,,,PCP418
Country WA,Piccadilly Street,Kalgoorlie,Western Australia,6430,08 9080 5888,-30.740839,121.470122,FALSE,,,,,,,,,,,,,,,,,,,,,,,,,,,,,,,,,,,,,,,,,,,,,,,,,,,,,,,,,,,,,,,,,,,,,,,,,,,,,,,,PCP419
Country SA,3 to 7 The Esplanade,Kingscote,South Australia,5223,08 8553 4200,-35.652693,137.641289,FALSE,,,,,,,,,,,,,,,,,,,,,,,,,,,,,,,,,,,,,,,,,,,,,,,,,,,,,,,,,,,,,,,,,,,,,,,,,,,,,,,,PCP420
Country SA,26 Nash Street,Kapunda,South Australia,5373,08 8566 2007,-34.330289,138.921679,FALSE,,,,,,,,,,,,,,,,,,,,,,,,,,,,,,,,,,,,,,,,,,,,,,,,,,,,,,,,,,,,,,,,,,,,,,,,,,,,,,,,PCP421
,86 Kareena Road,Caringbah,New South Wales,2229,02 9717 0000,-34.034986,151.114186,FALSE,,,,,,,,,,,,,,,,,,,,,,,,,,,,,,,,,,,,,,,,,,,,,,,,,,,,,,,,,,,,,,,,,,,,,,,,,,,,,,,,PCP422
South Western Sydney,Corner of The Horsley Drive and Mitchell Street,Carramar,New South Wales,2163,02 9794 2300,-33.879777,150.965763,FALSE,,,,,,,,,,,,,,,,,,,,,,,,,,,,,,,,,,,,,,,,,,,,,,,,,,,,,,,,,,,,,,,,,,,,,,,,,,,,,,,,PCP423
Country SA,13 Stokes Road,Karoonda,South Australia,5307,08 8579 1111,-35.094226,139.889429,FALSE,,,,,,,,,,,,,,,,,,,,,,,,,,,,,,,,,,,,,,,,,,,,,,,,,,,,,,,,,,,,,,,,,,,,,,,,,,,,,,,,PCP424
Country WA,"62 Balmoral Road, Pegs Creek",Karratha,Western Australia,6714,08 9144 7777,-20.732208,116.839511,FALSE,,,,,,,,,,,,,,,,,,,,,,,,,,,,,,,,,,,,,,,,,,,,,,,,,,,,,,,,,,,,,,,,,,,,,,,,,,,,,,,,PCP425
Country WA,Clive Street,Katanning,Western Australia,6317,08 9821 6222,-33.683032,117.563409,FALSE,,,,,,,,,,,,,,,,,,,,,,,,,,,,,,,,,,,,,,,,,,,,,,,,,,,,,,,,,,,,,,,,,,,,,,,,,,,,,,,,PCP426
Northern Territory,Gorge Road,Katherine,Northern Territory,850,08 8973 9211,-14.439002,132.272129,FALSE,,,,,,,,,,,,,,,,,,,,,,,,,,,,,,,,,,,,,,,,,,,,,,,,,,,,,,,,,,,,,,,,,,,,,,,,,,,,,,,,PCP427
,14/5 Innovation Parkway,Birtinya,Queensland,4575,07 5413 9100,-26.733825,153.122164,FALSE,,,,,,,,,,,,,,,,,,,,,,,,,,,,,,,,,,,,,,,,,,,,,,,,,,,,,,,,,,,,,,,,,,,,,,,,,,,,,,,,PCP428
Country WA,51-63 Gregory Street,Kellerberrin,Western Australia,6410,08 9045 6222,-31.628902,117.716531,FALSE,,,,,,,,,,,,,,,,,,,,,,,,,,,,,,,,,,,,,,,,,,,,,,,,,,,,,,,,,,,,,,,,,,,,,,,,,,,,,,,,PCP429
North Coast,119 River Street,Kempsey,New South Wales,2440,02 6562 6155,-31.067841,152.820038,FALSE,,,,,,,,,,,,,,,,,,,,,,,,,,,,,,,,,,,,,,,,,,,,,,,,,,,,,,,,,,,,,,,,,,,,,,,,,,,,,,,,PCP430
South Eastern NSW,Taralga Road,Kenmore,New South Wales,2580,02 4827 3303,-34.721253,149.751344,FALSE,,,,,,,,,,,,,,,,,,,,,,,,,,,,,,,,,,,,,,,,,,,,,,,,,,,,,,,,,,,,,,,,,,,,,,,,,,,,,,,,PCP431
Murray,13 Burgoyne Street,Kerang,Victoria,3579,03 5450 9200,-35.724287,143.916563,FALSE,,,,,,,,,,,,,,,,,,,,,,,,,,,,,,,,,,,,,,,,,,,,,,,,,,,,,,,,,,,,,,,,,,,,,,,,,,,,,,,,PCP432
South Eastern NSW,Bonaira Street,Kiama,New South Wales,2533,02 4233 1033,-34.682937,150.850514,FALSE,,,,,,,,,,,,,,,,,,,,,,,,,,,,,,,,,,,,,,,,,,,,,,,,,,,,,,,,,,,,,,,,,,,,,,,,,,,,,,,,PCP433
Brisbane North,19 Brown Street,Kilcoy,Queensland,4515,07 5422 4411,-26.941009,152.561495,FALSE,,,,,,,,,,,,,,,,,,,,,,,,,,,,,,,,,,,,,,,,,,,,,,,,,,,,,,,,,,,,,,,,,,,,,,,,,,,,,,,,PCP434
Country SA,15 Martin Terrace,Kimba,South Australia,5641,08 8627 2400,-33.143552,136.416013,FALSE,,,,,,,,,,,,,,,,,,,,,,,,,,,,,,,,,,,,,,,,,,,,,,,,,,,,,,,,,,,,,,,,,,,,,,,,,,,,,,,,PCP435
Perth North,374 Bagot Road,Subiaco,Western Australia,6008,08 9340 2222,-31.950093,115.818576,FALSE,,,,,,,,,,,,,,,,,,,,,,,,,,,,,,,,,,,,,,,,,,,,,,,,,,,,,,,,,,,,,,,,,,,,,,,,,,,,,,,,PCP436
Tasmania,Edward Street,Currie,Tasmania,7256,03 6462 9900,-39.931673,143.855453,FALSE,,,,,,,,,,,,,,,,,,,,,,,,,,,,,,,,,,,,,,,,,,,,,,,,,,,,,,,,,,,,,,,,,,,,,,,,,,,,,,,,PCP437
Darling Downs and West Moreton,166 Youngman Street,Kingaroy,Queensland,4610,07 4162 9200,-26.532454,151.838307,FALSE,,,,,,,,,,,,,,,,,,,,,,,,,,,,,,,,,,,,,,,,,,,,,,,,,,,,,,,,,,,,,,,,,,,,,,,,,,,,,,,,PCP438
South Eastern Melbourne,400 Warrigal Road,Cheltenham,Victoria,3192,03 9265 1000,-37.955018,145.078969,FALSE,,,,,,,,,,,,,,,,,,,,,,,,,,,,,,,,,,,,,,,,,,,,,,,,,,,,,,,,,,,,,,,,,,,,,,,,,,,,,,,,PCP439
Country SA,Corner of Cooke and Young Streets,Kingston SE,South Australia,5275,08 8767 0222,-36.835501,139.848763,FALSE,,,,,,,,,,,,,,,,,,,,,,,,,,,,,,,,,,,,,,,,,,,,,,,,,,,,,,,,,,,,,,,,,,,,,,,,,,,,,,,,PCP440
,"Level 1, 533 Kingsway",Miranda,New South Wales,2228,02 9717 0700,-34.034096,151.103827,FALSE,,,,,,,,,,,,,,,,,,,,,,,,,,,,,,,,,,,,,,,,,,,,,,,,,,,,,,,,,,,,,,,,,,,,,,,,,,,,,,,,PCP441
Northern Queensland,138 Thuringowa Drive,Kirwan,Queensland,4817,07 4799 9800,-19.303796,146.731627,FALSE,,,,,,,,,,,,,,,,,,,,,,,,,,,,,,,,,,,,,,,,,,,,,,,,,,,,,,,,,,,,,,,,,,,,,,,,,,,,,,,,PCP442
,262 Mountain Highway,Wantirna,Victoria,3152,03 9210 7000,-37.849645,145.228035,FALSE,,,,,,,,,,,,,,,,,,,,,,,,,,,,,,,,,,,,,,,,,,,,,,,,,,,,,,,,,,,,,,,,,,,,,,,,,,,,,,,,PCP443
Country WA,Spring Street,Kojonup,Western Australia,6395,08 9831 2222,-33.829481,117.152903,FALSE,,,,,,,,,,,,,,,,,,,,,,,,,,,,,,,,,,,,,,,,,,,,,,,,,,,,,,,,,,,,,,,,,,,,,,,,,,,,,,,,PCP444
Country WA,130 Graham Street,Kondinin,Western Australia,6367,08 9889 1000,-32.488949,118.265439,FALSE,,,,,,,,,,,,,,,,,,,,,,,,,,,,,,,,,,,,,,,,,,,,,,,,,,,,,,,,,,,,,,,,,,,,,,,,,,,,,,,,PCP445
South Eastern Melbourne,215 Rossiter Road,Koo Wee Rup,Victoria,3981,03 5997 9679,-38.200653,145.484433,FALSE,,,,,,,,,,,,,,,,,,,,,,,,,,,,,,,,,,,,,,,,,,,,,,,,,,,,,,,,,,,,,,,,,,,,,,,,,,,,,,,,PCP446
Country WA,Leake Street,Kununoppin,Western Australia,6489,08 9683 2044,-31.109682,117.922889,FALSE,,,,,,,,,,,,,,,,,,,,,,,,,,,,,,,,,,,,,,,,,,,,,,,,,,,,,,,,,,,,,,,,,,,,,,,,,,,,,,,,PCP447
Country WA,96 Coolibah Drive,Kununurra,Western Australia,6743,08 9166 4222,-15.775404,128.734229,FALSE,,,,,,,,,,,,,,,,,,,,,,,,,,,,,,,,,,,,,,,,,,,,,,,,,,,,,,,,,,,,,,,,,,,,,,,,,,,,,,,,PCP448
Hunter New England and Central Coast,432 Lang Street,Kurri Kurri,New South Wales,2327,02 4936 3200,-32.825017,151.463018,FALSE,,,,,,,,,,,,,,,,,,,,,,,,,,,,,,,,,,,,,,,,,,,,,,,,,,,,,,,,,,,,,,,,,,,,,,,,,,,,,,,,PCP449
Murray,88 Fenaughty Street,Kyabram,Victoria,3620,03 5857 0200,-36.315539,145.042705,FALSE,,,,,,,,,,,,,,,,,,,,,,,,,,,,,,,,,,,,,,,,,,,,,,,,,,,,,,,,,,,,,,,,,,,,,,,,,,,,,,,,PCP450
Murray,7-25 Caroline Chisholm Drive,Kyneton,Victoria,3444,03 5422 9900,-37.254431,144.469742,FALSE,,,,,,,,,,,,,,,,,,,,,,,,,,,,,,,,,,,,,,,,,,,,,,,,,,,,,,,,,,,,,,,,,,,,,,,,,,,,,,,,PCP451
North Coast,199 Summerland Way,Kyogle,New South Wales,2474,02 6632 1522,-28.627124,153.001742,FALSE,,,,,,,,,,,,,,,,,,,,,,,,,,,,,,,,,,,,,,,,,,,,,,,,,,,,,,,,,,,,,,,,,,,,,,,,,,,,,,,,PCP452
,Corner Kingsbury Drive & Plenty Road,Bundoora,Victoria,3083,03 9473 8900,-37.716679,145.044334,FALSE,,,,,,,,,,,,,,,,,,,,,,,,,,,,,,,,,,,,,,,,,,,,,,,,,,,,,,,,,,,,,,,,,,,,,,,,,,,,,,,,PCP453
Western NSW,Lot 1 Elgin Street,Forbes,New South Wales,2871,02 6850 7100,-33.396281,148.013831,FALSE,,,,,,,,,,,,,,,,,,,,,,,,,,,,,,,,,,,,,,,,,,,,,,,,,,,,,,,,,,,,,,,,,,,,,,,,,,,,,,,,PCP454
Western NSW,2 Morrissey Way,Parkes,New South Wales,2870,02 6861 2400,-33.151507,148.169757,FALSE,,,,,,,,,,,,,,,,,,,,,,,,,,,,,,,,,,,,,,,,,,,,,,,,,,,,,,,,,,,,,,,,,,,,,,,,,,,,,,,,PCP455
,Bobbin Head Road,North Turramurra,New South Wales,2074,02 9488 0111,-33.726718,151.139119,FALSE,,,,,,,,,,,,,,,,,,,,,,,,,,,,,,,,,,,,,,,,,,,,,,,,,,,,,,,,,,,,,,,,,,,,,,,,,,,,,,,,PCP456
Darling Downs and West Moreton,75 William Street,Laidley,Queensland,4341,07 5466 8100,-27.632725,152.400015,FALSE,,,,,,,,,,,,,,,,,,,,,,,,,,,,,,,,,,,,,,,,,,,,,,,,,,,,,,,,,,,,,,,,,,,,,,,,,,,,,,,,PCP457
Murrumbidgee,Uabba Street,Lake Cargelligo,New South Wales,2672,02 6898 1200,-33.292027,146.374304,FALSE,,,,,,,,,,,,,,,,,,,,,,,,,,,,,,,,,,,,,,,,,,,,,,,,,,,,,,,,,,,,,,,,,,,,,,,,,,,,,,,,PCP458
Country WA,Stubbs Street,Lake Grace,Western Australia,6353,08 9890 2222,-33.102524,118.452658,FALSE,,,,,,,,,,,,,,,,,,,,,,,,,,,,,,,,,,,,,,,,,,,,,,,,,,,,,,,,,,,,,,,,,,,,,,,,,,,,,,,,PCP459
,3 Sydney Street,Gateshead,New South Wales,2290,02 4943 3122,-32.981232,151.691719,FALSE,,,,,,,,,,,,,,,,,,,,,,,,,,,,,,,,,,,,,,,,,,,,,,,,,,,,,,,,,,,,,,,,,,,,,,,,,,,,,,,,PCP460
Country SA,1A Vardon Terrace,Lameroo,South Australia,5302,08 8576 4600,-35.328203,140.514643,FALSE,,,,,,,,,,,,,,,,,,,,,,,,,,,,,,,,,,,,,,,,,,,,,,,,,,,,,,,,,,,,,,,,,,,,,,,,,,,,,,,,PCP461
Gippsland,10 Village Avenue,Traralgon,Victoria,3844,03 5173 8000,-38.218475,146.471335,FALSE,,,,,,,,,,,,,,,,,,,,,,,,,,,,,,,,,,,,,,,,,,,,,,,,,,,,,,,,,,,,,,,,,,,,,,,,,,,,,,,,PCP462
Tasmania,274-280 Charles Street,Launceston,Tasmania,7250,03 6777 6777,-41.446634,147.142059,FALSE,,,,,,,,,,,,,,,,,,,,,,,,,,,,,,,,,,,,,,,,,,,,,,,,,,,,,,,,,,,,,,,,,,,,,,,,,,,,,,,,PCP463
Country SA,Mill Street,Laura,South Australia,5480,08 8663 2568,-33.174925,138.298687,FALSE,,,,,,,,,,,,,,,,,,,,,,,,,,,,,,,,,,,,,,,,,,,,,,,,,,,,,,,,,,,,,,,,,,,,,,,,,,,,,,,,PCP464
Country WA,Beria Road,Laverton,Western Australia,6440,08 9088 2600,-28.626817,122.399861,FALSE,,,,,,,,,,,,,,,,,,,,,,,,,,,,,,,,,,,,,,,,,,,,,,,,,,,,,,,,,,,,,,,,,,,,,,,,,,,,,,,,PCP465
,72 Phillip Street,Thirroul,New South Wales,2515,02 4267 2811,-34.310173,150.917631,FALSE,,,,,,,,,,,,,,,,,,,,,,,,,,,,,,,,,,,,,,,,,,,,,,,,,,,,,,,,,,,,,,,,,,,,,,,,,,,,,,,,PCP466
Murrumbidgee,1 Myall Street,Leeton,New South Wales,2705,02 6953 1111,-34.545222,146.408831,FALSE,,,,,,,,,,,,,,,,,,,,,,,,,,,,,,,,,,,,,,,,,,,,,,,,,,,,,,,,,,,,,,,,,,,,,,,,,,,,,,,,PCP467
Country SA,Black Oak Drive,Leigh Creek,South Australia,5731,08 8678 6022,-30.593186,138.399925,FALSE,,,,,,,,,,,,,,,,,,,,,,,,,,,,,,,,,,,,,,,,,,,,,,,,,,,,,,,,,,,,,,,,,,,,,,,,,,,,,,,,PCP468
Country WA,Sadie Canning Drive,Leonora,Western Australia,6438,08 9080 4300,-28.894319,121.337492,FALSE,,,,,,,,,,,,,,,,,,,,,,,,,,,,,,,,,,,,,,,,,,,,,,,,,,,,,,,,,,,,,,,,,,,,,,,,,,,,,,,,PCP469
Western NSW,Lot 25 Pandora Street,Lightning Ridge,New South Wales,2834,02 6829 9999,-29.429973,147.981869,FALSE,,,,,,,,,,,,,,,,,,,,,,,,,,,,,,,,,,,,,,,,,,,,,,,,,,,,,,,,,,,,,,,,,,,,,,,,,,,,,,,,PCP470
,12 Linacre Road,Hampton,Victoria,3188,03 9598 9666,-37.942699,145.003259,FALSE,,,,,,,,,,,,,,,,,,,,,,,,,,,,,,,,,,,,,,,,,,,,,,,,,,,,,,,,,,,,,,,,,,,,,,,,,,,,,,,,PCP471
North Coast,60 Uralba Street,Lismore,New South Wales,2480,02 6621 8000,-28.809191,153.291045,FALSE,,,,,,,,,,,,,,,,,,,,,,,,,,,,,,,,,,,,,,,,,,,,,,,,,,,,,,,,,,,,,,,,,,,,,,,,,,,,,,,,PCP472
Nepean Blue Mountains,2 Col Drewe Drive,Lithgow,New South Wales,2790,02 6350 2300,-33.498751,150.127701,FALSE,,,,,,,,,,,,,,,,,,,,,,,,,,,,,,,,,,,,,,,,,,,,,,,,,,,,,,,,,,,,,,,,,,,,,,,,,,,,,,,,PCP473
,105-119 Longstaff Avenue,Chipping Norton,New South Wales,2170,02 9601 4488,-33.926324,150.953704,FALSE,,,,,,,,,,,,,,,,,,,,,,,,,,,,,,,,,,,,,,,,,,,,,,,,,,,,,,,,,,,,,,,,,,,,,,,,,,,,,,,,PCP474
,1-11 Moore Street,Liverpool,New South Wales,2170,02 9734 7000,-33.922953,150.926861,FALSE,,,,,,,,,,,,,,,,,,,,,,,,,,,,,,,,,,,,,,,,,,,,,,,,,,,,,,,,,,,,,,,,,,,,,,,,,,,,,,,,PCP475
South Western Sydney,Lot 2 Elizabeth Street,Liverpool,New South Wales,2170,02 9828 3000,-33.919966,150.930776,FALSE,,,,,,,,,,,,,,,,,,,,,,,,,,,,,,,,,,,,,,,,,,,,,,,,,,,,,,,,,,,,,,,,,,,,,,,,,,,,,,,,PCP476
Murrumbidgee,53-55 Hebden Street,Lockhart,New South Wales,2656,02 6930 7100,-35.222378,146.719064,FALSE,,,,,,,,,,,,,,,,,,,,,,,,,,,,,,,,,,,,,,,,,,,,,,,,,,,,,,,,,,,,,,,,,,,,,,,,,,,,,,,,PCP477
,2-3/3276 Mt Lindesay Hwy,Browns Plains,Queensland,4118,07 3809 2893,-27.659112,153.038795,FALSE,,,,,,,,,,,,,,,,,,,,,,,,,,,,,,,,,,,,,,,,,,,,,,,,,,,,,,,,,,,,,,,,,,,,,,,,,,,,,,,,PCP478
Brisbane South,Corner of Armstrong and Loganlea Roads,Meadowbrook,Queensland,4131,07 3299 8899,-27.670169,153.141732,FALSE,,,,,,,,,,,,,,,,,,,,,,,,,,,,,,,,,,,,,,,,,,,,,,,,,,,,,,,,,,,,,,,,,,,,,,,,,,,,,,,,PCP479
Hunter New England and Central Coast,Wyong Road,Killarney Vale,New South Wales,2261,02 4336 7700,-33.369012,151.468538,FALSE,,,,,,,,,,,,,,,,,,,,,,,,,,,,,,,,,,,,,,,,,,,,,,,,,,,,,,,,,,,,,,,,,,,,,,,,,,,,,,,,PCP480
Western Queensland,Jabiru Street,Longreach,Queensland,4730,07 4658 4700,-23.439033,144.260873,FALSE,,,,,,,,,,,,,,,,,,,,,,,,,,,,,,,,,,,,,,,,,,,,,,,,,,,,,,,,,,,,,,,,,,,,,,,,,,,,,,,,PCP481
Western Victoria,1 Albert Street,Lorne,Victoria,3232,03 5289 4300,-38.545513,143.980743,FALSE,,,,,,,,,,,,,,,,,,,,,,,,,,,,,,,,,,,,,,,,,,,,,,,,,,,,,,,,,,,,,,,,,,,,,,,,,,,,,,,,PCP482
Western NSW,80-110 Cobbora Road,Dubbo,New South Wales,2830,02 6841 8500,-32.238511,148.627361,FALSE,,,,,,,,,,,,,,,,,,,,,,,,,,,,,,,,,,,,,,,,,,,,,,,,,,,,,,,,,,,,,,,,,,,,,,,,,,,,,,,,PCP483
Country SA,Drabsch Street,Loxton,South Australia,5333,08 8584 8555,-34.454695,140.564296,FALSE,,,,,,,,,,,,,,,,,,,,,,,,,,,,,,,,,,,,,,,,,,,,,,,,,,,,,,,,,,,,,,,,,,,,,,,,,,,,,,,,PCP484
Adelaide,Haydown Road,Elizabeth Vale,South Australia,5112,08 8182 9000,-34.747607,138.664798,FALSE,,,,,,,,,,,,,,,,,,,,,,,,,,,,,,,,,,,,,,,,,,,,,,,,,,,,,,,,,,,,,,,,,,,,,,,,,,,,,,,,PCP485
Northern Queensland,475 Bridge Road,Mackay,Queensland,4740,07 4885 6000,-21.145792,149.155325,FALSE,,,,,,,,,,,,,,,,,,,,,,,,,,,,,,,,,,,,,,,,,,,,,,,,,,,,,,,,,,,,,,,,,,,,,,,,,,,,,,,,PCP486
,57 Norris Road,North Mackay,Queensland,4740,07 4942 3848,-21.113723,149.166763,FALSE,,,,,,,,,,,,,,,,,,,,,,,,,,,,,,,,,,,,,,,,,,,,,,,,,,,,,,,,,,,,,,,,,,,,,,,,,,,,,,,,PCP487
,85 Willetts Road,North Mackay,Queensland,4740,07 4942 0777,-21.129471,149.16544,FALSE,,,,,,,,,,,,,,,,,,,,,,,,,,,,,,,,,,,,,,,,,,,,,,,,,,,,,,,,,,,,,,,,,,,,,,,,,,,,,,,,PCP488
North Coast,14-22 Boundary Street,Macksville,New South Wales,2447,02 6568 0666,-30.713725,152.919838,FALSE,,,,,,,,,,,,,,,,,,,,,,,,,,,,,,,,,,,,,,,,,,,,,,,,,,,,,,,,,,,,,,,,,,,,,,,,,,,,,,,,PCP489
North Coast,21 Union Street,Maclean,New South Wales,2463,02 6640 0111,-29.454219,153.201094,FALSE,,,,,,,,,,,,,,,,,,,,,,,,,,,,,,,,,,,,,,,,,,,,,,,,,,,,,,,,,,,,,,,,,,,,,,,,,,,,,,,,PCP490
Northern Sydney,1 Wicks Road,North Ryde,New South Wales,2113,02 9888 1222,-33.802312,151.124818,FALSE,,,,,,,,,,,,,,,,,,,,,,,,,,,,,,,,,,,,,,,,,,,,,,,,,,,,,,,,,,,,,,,,,,,,,,,,,,,,,,,,PCP491
,3 Technology Place,Macquarie University,New South Wales,2109,02 9812 3000,-33.773484,151.117877,FALSE,,,,,,,,,,,,,,,,,,,,,,,,,,,,,,,,,,,,,,,,,,,,,,,,,,,,,,,,,,,,,,,,,,,,,,,,,,,,,,,,PCP492
Northern Sydney,3/25-29 Hunter St,Hornsby,New South Wales,2077,02 8445 0633,-33.703145,151.100395,FALSE,,,,,,,,,,,,,,,,,,,,,,,,,,,,,,,,,,,,,,,,,,,,,,,,,,,,,,,,,,,,,,,,,,,,,,,,,,,,,,,,PCP493
Hunter New England and Central Coast,550-560 High Street,Maitland,New South Wales,2320,02 4939 2000,-32.726723,151.545887,FALSE,,,,,,,,,,,,,,,,,,,,,,,,,,,,,,,,,,,,,,,,,,,,,,,,,,,,,,,,,,,,,,,,,,,,,,,,,,,,,,,,PCP494
Murray,Chapel Street,Maldon,Victoria,3463,03 5475 2000,-36.992672,144.063677,FALSE,,,,,,,,,,,,,,,,,,,,,,,,,,,,,,,,,,,,,,,,,,,,,,,,,,,,,,,,,,,,,,,,,,,,,,,,,,,,,,,,PCP495
"Central Queensland, Wide Bay and Sunshine Coast",17 Bean Street,Maleny,Queensland,4552,07 5420 5000,-26.754893,152.844972,FALSE,,,,,,,,,,,,,,,,,,,,,,,,,,,,,,,,,,,,,,,,,,,,,,,,,,,,,,,,,,,,,,,,,,,,,,,,,,,,,,,,PCP496
Murray,28 Britt Street,Ouyen,Victoria,3490,03 5092 1111,-35.074349,142.312345,FALSE,,,,,,,,,,,,,,,,,,,,,,,,,,,,,,,,,,,,,,,,,,,,,,,,,,,,,,,,,,,,,,,,,,,,,,,,,,,,,,,,PCP497
Murray,33-43 McClelland Avenue,Sea Lake,Victoria,3533,03 5070 2155,-35.500395,142.858003,FALSE,,,,,,,,,,,,,,,,,,,,,,,,,,,,,,,,,,,,,,,,,,,,,,,,,,,,,,,,,,,,,,,,,,,,,,,,,,,,,,,,PCP498
,5 Winton Vale Crescent,Malvern East,Victoria,3145,03 9885 9621,-37.866954,145.060765,FALSE,,,,,,,,,,,,,,,,,,,,,,,,,,,,,,,,,,,,,,,,,,,,,,,,,,,,,,,,,,,,,,,,,,,,,,,,,,,,,,,,PCP499
Murray,37 Pioneer Street,Manangatang,Victoria,3546,03 5035 1500,-35.050955,142.880512,FALSE,,,,,,,,,,,,,,,,,,,,,,,,,,,,,,,,,,,,,,,,,,,,,,,,,,,,,,,,,,,,,,,,,,,,,,,,,,,,,,,,PCP500
Hunter New England and Central Coast,143 Court Street,Manilla,New South Wales,2346,02 6785 4000,-30.745717,150.732249,FALSE,,,,,,,,,,,,,,,,,,,,,,,,,,,,,,,,,,,,,,,,,,,,,,,,,,,,,,,,,,,,,,,,,,,,,,,,,,,,,,,,PCP501
Hunter New England and Central Coast,26 York Street,Taree,New South Wales,2430,02 6592 9111,-31.910418,152.454485,FALSE,,,,,,,,,,,,,,,,,,,,,,,,,,,,,,,,,,,,,,,,,,,,,,,,,,,,,,,,,,,,,,,,,,,,,,,,,,,,,,,,PCP502
,"Suite 304, Level 3 Manningham Medical Centre 200 High Street",Templestowe Lower,Victoria,3107,03 8850 0590,-37.773471,145.115662,FALSE,,,,,,,,,,,,,,,,,,,,,,,,,,,,,,,,,,,,,,,,,,,,,,,,,,,,,,,,,,,,,,,,,,,,,,,,,,,,,,,,PCP503
Country SA,Parker Street,Mannum,South Australia,5238,08 8569 0200,-34.916481,139.308614,FALSE,,,,,,,,,,,,,,,,,,,,,,,,,,,,,,,,,,,,,,,,,,,,,,,,,,,,,,,,,,,,,,,,,,,,,,,,,,,,,,,,PCP504
Murray,53 Highett Street,Mansfield,Victoria,3722,03 5775 8800,-37.057574,146.086149,FALSE,,,,,,,,,,,,,,,,,,,,,,,,,,,,,,,,,,,,,,,,,,,,,,,,,,,,,,,,,,,,,,,,,,,,,,,,,,,,,,,,PCP505
Northern Queensland,21 Lloyd Street,Mareeba,Queensland,4880,07 4092 9333,-16.987117,145.424468,FALSE,,,,,,,,,,,,,,,,,,,,,,,,,,,,,,,,,,,,,,,,,,,,,,,,,,,,,,,,,,,,,,,,,,,,,,,,,,,,,,,,PCP506
Country WA,Farrelly Street,Margaret River,Western Australia,6285,08 9757 0400,-33.952162,115.071229,FALSE,,,,,,,,,,,,,,,,,,,,,,,,,,,,,,,,,,,,,,,,,,,,,,,,,,,,,,,,,,,,,,,,,,,,,,,,,,,,,,,,PCP507
Eastern Melbourne,Davey Drive,Ringwood East,Victoria,3135,1300 342 255,-37.806884,145.254535,FALSE,,,,,,,,,,,,,,,,,,,,,,,,,,,,,,,,,,,,,,,,,,,,,,,,,,,,,,,,,,,,,,,,,,,,,,,,,,,,,,,,PCP508
Western Victoria,20 Havelock Street,Dunolly,Victoria,3472,03 5468 1000,-36.855269,143.735139,FALSE,,,,,,,,,,,,,,,,,,,,,,,,,,,,,,,,,,,,,,,,,,,,,,,,,,,,,,,,,,,,,,,,,,,,,,,,,,,,,,,,PCP509
Western Victoria,75-87 Clarendon Street,Maryborough,Victoria,3465,03 5461 0333,-37.044781,143.737692,FALSE,,,,,,,,,,,,,,,,,,,,,,,,,,,,,,,,,,,,,,,,,,,,,,,,,,,,,,,,,,,,,,,,,,,,,,,,,,,,,,,,PCP510
"Central Queensland, Wide Bay and Sunshine Coast",185 Walker Street,Maryborough,Queensland,4650,07 4122 8222,-25.522131,152.689855,FALSE,,,,,,,,,,,,,,,,,,,,,,,,,,,,,,,,,,,,,,,,,,,,,,,,,,,,,,,,,,,,,,,,,,,,,,,,,,,,,,,,PCP511
,286 Maryvale Road,Morwell,Victoria,3840,03 5132 1200,-38.215028,146.418561,FALSE,,,,,,,,,,,,,,,,,,,,,,,,,,,,,,,,,,,,,,,,,,,,,,,,,,,,,,,,,,,,,,,,,,,,,,,,,,,,,,,,PCP512
,26 Balaclava Road,St Kilda,Victoria,3183,03 9038 1300,-37.869799,145.003096,FALSE,,,,,,,,,,,,,,,,,,,,,,,,,,,,,,,,,,,,,,,,,,,,,,,,,,,,,,,,,,,,,,,,,,,,,,,,,,,,,,,,PCP513
Brisbane South,Raymond Terrace,South Brisbane,Queensland,4101,07 3163 8111,-27.485488,153.028103,FALSE,,,,,,,,,,,,,,,,,,,,,,,,,,,,,,,,,,,,,,,,,,,,,,,,,,,,,,,,,,,,,,,,,,,,,,,,,,,,,,,,PCP514
,Raymond Terrace,South Brisbane,Queensland,4101,07 3163 8111,-27.48485,153.027436,FALSE,,,,,,,,,,,,,,,,,,,,,,,,,,,,,,,,,,,,,,,,,,,,,,,,,,,,,,,,,,,,,,,,,,,,,,,,,,,,,,,,PCP515
,21 - 37 Fulham Road,Pimlico,Queensland,4812,07 4727 4444,-19.288482,146.786528,FALSE,,,,,,,,,,,,,,,,,,,,,,,,,,,,,,,,,,,,,,,,,,,,,,,,,,,,,,,,,,,,,,,,,,,,,,,,,,,,,,,,PCP516
,25 Rocklands Road,North Sydney,New South Wales,2060,02 9900 7300,-33.831152,151.201247,FALSE,,,,,,,,,,,,,,,,,,,,,,,,,,,,,,,,,,,,,,,,,,,,,,,,,,,,,,,,,,,,,,,,,,,,,,,,,,,,,,,,PCP517
,1 Wellington Street,Mackay,Queensland,4740,07 4953 5990,-21.139073,149.181984,FALSE,,,,,,,,,,,,,,,,,,,,,,,,,,,,,,,,,,,,,,,,,,,,,,,,,,,,,,,,,,,,,,,,,,,,,,,,,,,,,,,,PCP518
,313 Bourbong Street,Bundaberg,Queensland,4670,07 4153 9539,-24.870766,152.330412,FALSE,,,,,,,,,,,,,,,,,,,,,,,,,,,,,,,,,,,,,,,,,,,,,,,,,,,,,,,,,,,,,,,,,,,,,,,,,,,,,,,,PCP519
,50 Rossella Street,Gladstone,Queensland,4680,07 4971 3713,-23.850526,151.247469,FALSE,,,,,,,,,,,,,,,,,,,,,,,,,,,,,,,,,,,,,,,,,,,,,,,,,,,,,,,,,,,,,,,,,,,,,,,,,,,,,,,,PCP520
,76 Willetts Road,Mackay,Queensland,4740,07 4965 5666,-21.129416,149.166033,FALSE,,,,,,,,,,,,,,,,,,,,,,,,,,,,,,,,,,,,,,,,,,,,,,,,,,,,,,,,,,,,,,,,,,,,,,,,,,,,,,,,PCP521
,Ward Street,Rockhampton,Queensland,4700,07 4931 3313,-23.398033,150.497444,FALSE,,,,,,,,,,,,,,,,,,,,,,,,,,,,,,,,,,,,,,,,,,,,,,,,,,,,,,,,,,,,,,,,,,,,,,,,,,,,,,,,PCP522
Brisbane South,Raymond Terrace,South Brisbane,Queensland,4101,07 3163 1918,-27.485436,153.027001,FALSE,,,,,,,,,,,,,,,,,,,,,,,,,,,,,,,,,,,,,,,,,,,,,,,,,,,,,,,,,,,,,,,,,,,,,,,,,,,,,,,,PCP523
,Raymond Terrace,South Brisbane,Queensland,4101,07 3163 8111,-27.485992,153.027747,FALSE,,,,,,,,,,,,,,,,,,,,,,,,,,,,,,,,,,,,,,,,,,,,,,,,,,,,,,,,,,,,,,,,,,,,,,,,,,,,,,,,PCP524
,301 Vulture Street,South Brisbane,Queensland,4101,07 3163 8111,-27.483975,153.028777,FALSE,,,,,,,,,,,,,,,,,,,,,,,,,,,,,,,,,,,,,,,,,,,,,,,,,,,,,,,,,,,,,,,,,,,,,,,,,,,,,,,,PCP525
,Weippin Street,Cleveland,Queensland,4163,07 3163 7444,-27.540811,153.25043,FALSE,,,,,,,,,,,,,,,,,,,,,,,,,,,,,,,,,,,,,,,,,,,,,,,,,,,,,,,,,,,,,,,,,,,,,,,,,,,,,,,,PCP526
,12 Oxford Street,Hyde Park,Queensland,4812,07 4727 4444,-19.276512,146.798978,FALSE,,,,,,,,,,,,,,,,,,,,,,,,,,,,,,,,,,,,,,,,,,,,,,,,,,,,,,,,,,,,,,,,,,,,,,,,,,,,,,,,PCP527
Tasmania,37 Wellington Street,Swansea,Tasmania,7190,03 6257 9100,-42.127383,148.076788,FALSE,,,,,,,,,,,,,,,,,,,,,,,,,,,,,,,,,,,,,,,,,,,,,,,,,,,,,,,,,,,,,,,,,,,,,,,,,,,,,,,,PCP528
Adelaide,3 Aldersey Street,McLaren Vale,South Australia,5171,08 8323 6600,-35.221405,138.544962,FALSE,,,,,,,,,,,,,,,,,,,,,,,,,,,,,,,,,,,,,,,,,,,,,,,,,,,,,,,,,,,,,,,,,,,,,,,,,,,,,,,,PCP529
Country WA,Savage Street,Meekatharra,Western Australia,6642,08 9981 0600,-26.591366,118.491861,FALSE,,,,,,,,,,,,,,,,,,,,,,,,,,,,,,,,,,,,,,,,,,,,,,,,,,,,,,,,,,,,,,,,,,,,,,,,,,,,,,,,PCP530
,631 Inkerman Road,Caulfield North,Victoria,3161,03 9504 8400,-37.869064,145.018774,FALSE,,,,,,,,,,,,,,,,,,,,,,,,,,,,,,,,,,,,,,,,,,,,,,,,,,,,,,,,,,,,,,,,,,,,,,,,,,,,,,,,PCP531
,"Level 12, 63 Exhibition Street",Melbourne,Victoria,3000,03 9654 4844,-37.814488,144.971391,FALSE,,,,,,,,,,,,,,,,,,,,,,,,,,,,,,,,,,,,,,,,,,,,,,,,,,,,,,,,,,,,,,,,,,,,,,,,,,,,,,,,PCP532
,Royal Parade,Parkville,Victoria,3052,03 8341 3400,-37.798272,144.957025,FALSE,,,,,,,,,,,,,,,,,,,,,,,,,,,,,,,,,,,,,,,,,,,,,,,,,,,,,,,,,,,,,,,,,,,,,,,,,,,,,,,,PCP533
North Western Melbourne,195-209 Barries Road,Melton West,Victoria,3337,03 9747 7600,-37.686449,144.558284,FALSE,,,,,,,,,,,,,,,,,,,,,,,,,,,,,,,,,,,,,,,,,,,,,,,,,,,,,,,,,,,,,,,,,,,,,,,,,,,,,,,,PCP534
Western NSW,Perry Street,Menindee,New South Wales,2879,08 8091 4209,-32.390335,142.414869,FALSE,,,,,,,,,,,,,,,,,,,,,,,,,,,,,,,,,,,,,,,,,,,,,,,,,,,,,,,,,,,,,,,,,,,,,,,,,,,,,,,,PCP535
Country SA,2 South Terrace,Meningie,South Australia,5264,08 8575 2777,-35.693212,139.335565,FALSE,,,,,,,,,,,,,,,,,,,,,,,,,,,,,,,,,,,,,,,,,,,,,,,,,,,,,,,,,,,,,,,,,,,,,,,,,,,,,,,,PCP536
Murray,550 Poole Street,Albury,New South Wales,2640,02 6042 1400,-36.069221,146.916764,FALSE,,,,,,,,,,,,,,,,,,,,,,,,,,,,,,,,,,,,,,,,,,,,,,,,,,,,,,,,,,,,,,,,,,,,,,,,,,,,,,,,PCP537
Murrumbidgee,69 Demondrille Street,Young,New South Wales,2594,02 6382 8444,-34.321003,148.288693,FALSE,,,,,,,,,,,,,,,,,,,,,,,,,,,,,,,,,,,,,,,,,,,,,,,,,,,,,,,,,,,,,,,,,,,,,,,,,,,,,,,,PCP538
Eastern Melbourne,6 Mont Albert Road,Canterbury,Victoria,3126,03 8416 7600,-37.816688,145.061729,FALSE,,,,,,,,,,,,,,,,,,,,,,,,,,,,,,,,,,,,,,,,,,,,,,,,,,,,,,,,,,,,,,,,,,,,,,,,,,,,,,,,PCP539
Eastern Melbourne,163 Studley Road,Heidelberg,Victoria,3084,03 8458 4444,-37.756075,145.061008,FALSE,,,,,,,,,,,,,,,,,,,,,,,,,,,,,,,,,,,,,,,,,,,,,,,,,,,,,,,,,,,,,,,,,,,,,,,,,,,,,,,,PCP540
Country WA,Kitchener Road,Merredin,Western Australia,6415,08 9081 3222,-31.485204,118.276491,FALSE,,,,,,,,,,,,,,,,,,,,,,,,,,,,,,,,,,,,,,,,,,,,,,,,,,,,,,,,,,,,,,,,,,,,,,,,,,,,,,,,PCP541
Hunter New England and Central Coast,MacKenzie Street,Merriwa,New South Wales,2329,02 6532 5000,-32.142714,150.361316,FALSE,,,,,,,,,,,,,,,,,,,,,,,,,,,,,,,,,,,,,,,,,,,,,,,,,,,,,,,,,,,,,,,,,,,,,,,,,,,,,,,,PCP542
Tasmania,Bass Highway,Latrobe,Tasmania,7307,03 6478 5500,-41.229052,146.422445,FALSE,,,,,,,,,,,,,,,,,,,,,,,,,,,,,,,,,,,,,,,,,,,,,,,,,,,,,,,,,,,,,,,,,,,,,,,,,,,,,,,,PCP543
,275 Addison Road,Petersham,New South Wales,2049,02 8585 4900,-33.899441,151.155602,FALSE,,,,,,,,,,,,,,,,,,,,,,,,,,,,,,,,,,,,,,,,,,,,,,,,,,,,,,,,,,,,,,,,,,,,,,,,,,,,,,,,PCP544
,17 Hereward Highway,Blacktown,New South Wales,2148,02 9622 7667,-33.774236,150.912421,FALSE,,,,,,,,,,,,,,,,,,,,,,,,,,,,,,,,,,,,,,,,,,,,,,,,,,,,,,,,,,,,,,,,,,,,,,,,,,,,,,,,PCP545
Tasmania,13 Church Street,Oatlands,Tasmania,7120,03 6254 5030,-42.299353,147.369522,FALSE,,,,,,,,,,,,,,,,,,,,,,,,,,,,,,,,,,,,,,,,,,,,,,,,,,,,,,,,,,,,,,,,,,,,,,,,,,,,,,,,PCP546
Murray,Ontario Avenue,Mildura,Victoria,3502,03 5022 3333,-34.185634,142.143348,FALSE,,,,,,,,,,,,,,,,,,,,,,,,,,,,,,,,,,,,,,,,,,,,,,,,,,,,,,,,,,,,,,,,,,,,,,,,,,,,,,,,PCP547
,220-228 Thirteenth Street,Mildura,Victoria,3500,03 5022 2611,-34.18479,142.145705,FALSE,,,,,,,,,,,,,,,,,,,,,,,,,,,,,,,,,,,,,,,,,,,,,,,,,,,,,,,,,,,,,,,,,,,,,,,,,,,,,,,,PCP548
Darling Downs and West Moreton,26 Colamba Street,Miles,Queensland,4415,07 4628 5600,-26.658236,150.191023,FALSE,,,,,,,,,,,,,,,,,,,,,,,,,,,,,,,,,,,,,,,,,,,,,,,,,,,,,,,,,,,,,,,,,,,,,,,,,,,,,,,,PCP549
Country SA,Mount Gambier Road,Millicent,South Australia,5280,08 8733 4755,-37.598354,140.358924,FALSE,,,,,,,,,,,,,,,,,,,,,,,,,,,,,,,,,,,,,,,,,,,,,,,,,,,,,,,,,,,,,,,,,,,,,,,,,,,,,,,,PCP550
Darling Downs and West Moreton,50 Commens Street,Millmerran,Queensland,4357,07 4695 3111,-27.878928,151.26267,FALSE,,,,,,,,,,,,,,,,,,,,,,,,,,,,,,,,,,,,,,,,,,,,,,,,,,,,,,,,,,,,,,,,,,,,,,,,,,,,,,,,PCP551
South Eastern NSW,104-106 Princes Highway,Milton,New South Wales,2538,02 4455 1333,-35.317313,150.438918,FALSE,,,,,,,,,,,,,,,,,,,,,,,,,,,,,,,,,,,,,,,,,,,,,,,,,,,,,,,,,,,,,,,,,,,,,,,,,,,,,,,,PCP552
,Suite 4/16-22 Willock Avenue,Miranda,New South Wales,2228,02 9540 4586,-34.03244,151.101631,FALSE,,,,,,,,,,,,,,,,,,,,,,,,,,,,,,,,,,,,,,,,,,,,,,,,,,,,,,,,,,,,,,,,,,,,,,,,,,,,,,,,PCP553
,27 Doncaster East Road,Mitcham,Victoria,3132,03 9210 3222,-37.810436,145.194808,FALSE,,,,,,,,,,,,,,,,,,,,,,,,,,,,,,,,,,,,,,,,,,,,,,,,,,,,,,,,,,,,,,,,,,,,,,,,,,,,,,,,PCP554
Western Queensland,95 Ann Street,Mitchell,Queensland,4465,07 4623 1277,-26.489913,147.972493,FALSE,,,,,,,,,,,,,,,,,,,,,,,,,,,,,,,,,,,,,,,,,,,,,,,,,,,,,,,,,,,,,,,,,,,,,,,,,,,,,,,,PCP555
Adelaide,41-69 Smart Road,Modbury,South Australia,5092,08 8161 2000,-34.834166,138.690505,FALSE,,,,,,,,,,,,,,,,,,,,,,,,,,,,,,,,,,,,,,,,,,,,,,,,,,,,,,,,,,,,,,,,,,,,,,,,,,,,,,,,PCP556
,2-4 Charles Street,Mogo,New South Wales,2536,02 4474 3774,-35.782893,150.14387,FALSE,,,,,,,,,,,,,,,,,,,,,,,,,,,,,,,,,,,,,,,,,,,,,,,,,,,,,,,,,,,,,,,,,,,,,,,,,,,,,,,,PCP557
Western NSW,King Street,Molong,New South Wales,2866,02 6392 3300,-33.087622,148.859724,FALSE,,,,,,,,,,,,,,,,,,,,,,,,,,,,,,,,,,,,,,,,,,,,,,,,,,,,,,,,,,,,,,,,,,,,,,,,,,,,,,,,PCP558
Northern Sydney,Coronation Street,Mona Vale,New South Wales,2103,02 9998 0333,-33.685353,151.306618,FALSE,,,,,,,,,,,,,,,,,,,,,,,,,,,,,,,,,,,,,,,,,,,,,,,,,,,,,,,,,,,,,,,,,,,,,,,,,,,,,,,,PCP559
Eastern Melbourne,246 Clayton Road,Clayton,Victoria,3168,03 9594 6666,-37.921176,145.123128,FALSE,,,,,,,,,,,,,,,,,,,,,,,,,,,,,,,,,,,,,,,,,,,,,,,,,,,,,,,,,,,,,,,,,,,,,,,,,,,,,,,,PCP560
South Eastern Melbourne,823-865 Centre Road,East Bentleigh,Victoria,3165,03 9928 8111,-37.920697,145.063197,FALSE,,,,,,,,,,,,,,,,,,,,,,,,,,,,,,,,,,,,,,,,,,,,,,,,,,,,,,,,,,,,,,,,,,,,,,,,,,,,,,,,PCP561
"Central Queensland, Wide Bay and Sunshine Coast",35 Flinders Street,Monto,Queensland,4630,07 4166 9300,-24.866424,151.112501,FALSE,,,,,,,,,,,,,,,,,,,,,,,,,,,,,,,,,,,,,,,,,,,,,,,,,,,,,,,,,,,,,,,,,,,,,,,,,,,,,,,,PCP562
,383-391 Samford Road,Gaythorne,Queensland,4051,07 3550 3550,-27.417069,152.982237,FALSE,,,,,,,,,,,,,,,,,,,,,,,,,,,,,,,,,,,,,,,,,,,,,,,,,,,,,,,,,,,,,,,,,,,,,,,,,,,,,,,,PCP563
Country WA,Dandaragan Road,Moora,Western Australia,6510,08 9651 0222,-30.639557,116.001119,FALSE,,,,,,,,,,,,,,,,,,,,,,,,,,,,,,,,,,,,,,,,,,,,,,,,,,,,,,,,,,,,,,,,,,,,,,,,,,,,,,,,PCP564
Northern Queensland,Elliott Street,Moranbah,Queensland,4744,07 4941 4600,-22.002125,148.055287,FALSE,,,,,,,,,,,,,,,,,,,,,,,,,,,,,,,,,,,,,,,,,,,,,,,,,,,,,,,,,,,,,,,,,,,,,,,,,,,,,,,,PCP565
Country WA,Caulfield Road,Morawa,Western Australia,6623,08 9971 0200,-29.212897,116.002986,FALSE,,,,,,,,,,,,,,,,,,,,,,,,,,,,,,,,,,,,,,,,,,,,,,,,,,,,,,,,,,,,,,,,,,,,,,,,,,,,,,,,PCP566
Hunter New England and Central Coast,Alice Street,Moree,New South Wales,2400,02 6757 0000,-29.470678,149.839648,FALSE,,,,,,,,,,,,,,,,,,,,,,,,,,,,,,,,,,,,,,,,,,,,,,,,,,,,,,,,,,,,,,,,,,,,,,,,,,,,,,,,PCP567
Hunter New England and Central Coast,Dora Street,Morisset,New South Wales,2264,02 4973 0222,-33.128549,151.512816,FALSE,,,,,,,,,,,,,,,,,,,,,,,,,,,,,,,,,,,,,,,,,,,,,,,,,,,,,,,,,,,,,,,,,,,,,,,,,,,,,,,,PCP568
Western Queensland,Lardyl Street,Mornington Island,Queensland,4871,07 4745 7209,-16.665534,139.178559,FALSE,,,,,,,,,,,,,,,,,,,,,,,,,,,,,,,,,,,,,,,,,,,,,,,,,,,,,,,,,,,,,,,,,,,,,,,,,,,,,,,,PCP569
South Eastern NSW,2-10 River Street,Moruya,New South Wales,2537,02 4474 2666,-35.904137,150.070774,FALSE,,,,,,,,,,,,,,,,,,,,,,,,,,,,,,,,,,,,,,,,,,,,,,,,,,,,,,,,,,,,,,,,,,,,,,,,,,,,,,,,PCP570
Northern Queensland,9 Hospital Street,Mossman,Queensland,4873,07 4084 1200,-16.464031,145.368025,FALSE,,,,,,,,,,,,,,,,,,,,,,,,,,,,,,,,,,,,,,,,,,,,,,,,,,,,,,,,,,,,,,,,,,,,,,,,,,,,,,,,PCP571
Country SA,Wellington Road,Mount Barker,South Australia,5251,08 8393 1777,-35.081813,138.870277,FALSE,,,,,,,,,,,,,,,,,,,,,,,,,,,,,,,,,,,,,,,,,,,,,,,,,,,,,,,,,,,,,,,,,,,,,,,,,,,,,,,,PCP572
Western Sydney,75 Railway Street,Mount Druitt,New South Wales,2770,02 9881 1555,-33.765929,150.829646,FALSE,,,,,,,,,,,,,,,,,,,,,,,,,,,,,,,,,,,,,,,,,,,,,,,,,,,,,,,,,,,,,,,,,,,,,,,,,,,,,,,,PCP573
Country SA,276-300 Wehl Street North,Mount Gambier,South Australia,5290,08 8721 1200,-37.805003,140.786662,FALSE,,,,,,,,,,,,,,,,,,,,,,,,,,,,,,,,,,,,,,,,,,,,,,,,,,,,,,,,,,,,,,,,,,,,,,,,,,,,,,,,PCP574
,276-300 Wehl Street North,Mount Gambier,South Australia,5290,08 8721 1412,-37.805952,140.786887,FALSE,,,,,,,,,,,,,,,,,,,,,,,,,,,,,,,,,,,,,,,,,,,,,,,,,,,,,,,,,,,,,,,,,,,,,,,,,,,,,,,,PCP575
,150 Mounts Bay Road,West Perth,Western Australia,6005,08 9481 1822,-31.958534,115.845401,FALSE,,,,,,,,,,,,,,,,,,,,,,,,,,,,,,,,,,,,,,,,,,,,,,,,,,,,,,,,,,,,,,,,,,,,,,,,,,,,,,,,PCP576
Western Queensland,30 Camooweal Street,Mount Isa,Queensland,4825,07 4744 4444,-20.730919,139.493815,FALSE,,,,,,,,,,,,,,,,,,,,,,,,,,,,,,,,,,,,,,,,,,,,,,,,,,,,,,,,,,,,,,,,,,,,,,,,,,,,,,,,PCP577
"Central Queensland, Wide Bay and Sunshine Coast",Black Street,Mount Morgan,Queensland,4714,07 4912 5100,-23.645094,150.392639,FALSE,,,,,,,,,,,,,,,,,,,,,,,,,,,,,,,,,,,,,,,,,,,,,,,,,,,,,,,,,,,,,,,,,,,,,,,,,,,,,,,,PCP578
Country SA,28 Hospital Road,Mount Pleasant,South Australia,5235,08 8568 0000,-34.773855,139.054212,FALSE,,,,,,,,,,,,,,,,,,,,,,,,,,,,,,,,,,,,,,,,,,,,,,,,,,,,,,,,,,,,,,,,,,,,,,,,,,,,,,,,PCP579
,66 Rosamond Street,Hornsby,New South Wales,2077,02 9847 5000,-33.692829,151.092939,FALSE,,,,,,,,,,,,,,,,,,,,,,,,,,,,,,,,,,,,,,,,,,,,,,,,,,,,,,,,,,,,,,,,,,,,,,,,,,,,,,,,PCP580
"Central Queensland, Wide Bay and Sunshine Coast",14 Nott Street,Moura,Queensland,4718,07 4997 2900,-24.575948,149.975999,FALSE,,,,,,,,,,,,,,,,,,,,,,,,,,,,,,,,,,,,,,,,,,,,,,,,,,,,,,,,,,,,,,,,,,,,,,,,,,,,,,,,PCP581
Western Victoria,30-36 Villiers Street,Port Fairy,Victoria,3284,03 5568 0100,-38.381599,142.227523,FALSE,,,,,,,,,,,,,,,,,,,,,,,,,,,,,,,,,,,,,,,,,,,,,,,,,,,,,,,,,,,,,,,,,,,,,,,,,,,,,,,,PCP582
Western NSW,Meares Street,Mudgee,New South Wales,2850,02 6378 6222,-32.603229,149.588179,FALSE,,,,,,,,,,,,,,,,,,,,,,,,,,,,,,,,,,,,,,,,,,,,,,,,,,,,,,,,,,,,,,,,,,,,,,,,,,,,,,,,PCP583
Country WA,Elder Street,Mullewa,Western Australia,6630,08 9961 6200,-28.535991,115.510017,FALSE,,,,,,,,,,,,,,,,,,,,,,,,,,,,,,,,,,,,,,,,,,,,,,,,,,,,,,,,,,,,,,,,,,,,,,,,,,,,,,,,PCP584
"Central Queensland, Wide Bay and Sunshine Coast",96 Leichhardt Street,Mundubbera,Queensland,4626,07 4165 5200,-25.587619,151.293282,FALSE,,,,,,,,,,,,,,,,,,,,,,,,,,,,,,,,,,,,,,,,,,,,,,,,,,,,,,,,,,,,,,,,,,,,,,,,,,,,,,,,PCP585
Western Queensland,Barwon Street,Mungindi,Queensland,2406,02 6705 6100,-28.972817,148.989061,FALSE,,,,,,,,,,,,,,,,,,,,,,,,,,,,,,,,,,,,,,,,,,,,,,,,,,,,,,,,,,,,,,,,,,,,,,,,,,,,,,,,PCP586
Darling Downs and West Moreton,Coronation Drive,Murgon,Queensland,4605,07 4169 9600,-26.239075,151.950702,FALSE,,,,,,,,,,,,,,,,,,,,,,,,,,,,,,,,,,,,,,,,,,,,,,,,,,,,,,,,,,,,,,,,,,,,,,,,,,,,,,,,PCP587
Country SA,96 Swanport Road,Murray Bridge,South Australia,5253,08 8535 6777,-35.128911,139.280462,FALSE,,,,,,,,,,,,,,,,,,,,,,,,,,,,,,,,,,,,,,,,,,,,,,,,,,,,,,,,,,,,,,,,,,,,,,,,,,,,,,,,PCP588
Perth South,McKay Street,Pinjarra,Western Australia,6208,08 9531 7222,-32.639709,115.871589,FALSE,,,,,,,,,,,,,,,,,,,,,,,,,,,,,,,,,,,,,,,,,,,,,,,,,,,,,,,,,,,,,,,,,,,,,,,,,,,,,,,,PCP589
,Nordsvan Drive,Wodonga,Victoria,3690,02 6055 3100,-36.138419,146.876478,FALSE,,,,,,,,,,,,,,,,,,,,,,,,,,,,,,,,,,,,,,,,,,,,,,,,,,,,,,,,,,,,,,,,,,,,,,,,,,,,,,,,PCP590
Murrumbidgee,54 Swift Street,Harden,New South Wales,2587,02 6386 2200,-34.555254,148.360186,FALSE,,,,,,,,,,,,,,,,,,,,,,,,,,,,,,,,,,,,,,,,,,,,,,,,,,,,,,,,,,,,,,,,,,,,,,,,,,,,,,,,PCP591
North Coast,8 Ewing Street,Murwillumbah,New South Wales,2484,02 6672 1822,-28.323417,153.400811,FALSE,,,,,,,,,,,,,,,,,,,,,,,,,,,,,,,,,,,,,,,,,,,,,,,,,,,,,,,,,,,,,,,,,,,,,,,,,,,,,,,,PCP592
Hunter New England and Central Coast,36 Brentwood Street,Muswellbrook,New South Wales,2333,02 6542 2000,-32.264545,150.900263,FALSE,,,,,,,,,,,,,,,,,,,,,,,,,,,,,,,,,,,,,,,,,,,,,,,,,,,,,,,,,,,,,,,,,,,,,,,,,,,,,,,,PCP593
,115 Howard Street,Nambour,Queensland,4560,07 5476 3700,-26.626321,152.96409,FALSE,,,,,,,,,,,,,,,,,,,,,,,,,,,,,,,,,,,,,,,,,,,,,,,,,,,,,,,,,,,,,,,,,,,,,,,,,,,,,,,,PCP594
"Central Queensland, Wide Bay and Sunshine Coast",Hospital Road,Nambour,Queensland,4560,07 5470 6600,-26.621659,152.952249,FALSE,,,,,,,,,,,,,,,,,,,,,,,,,,,,,,,,,,,,,,,,,,,,,,,,,,,,,,,,,,,,,,,,,,,,,,,,,,,,,,,,PCP595
,62 Netherton Street,Nambour,Queensland,4560,07 5459 7444,-26.618265,152.955949,FALSE,,,,,,,,,,,,,,,,,,,,,,,,,,,,,,,,,,,,,,,,,,,,,,,,,,,,,,,,,,,,,,,,,,,,,,,,,,,,,,,,PCP596
Darling Downs and West Moreton,135 Brisbane Street,Nanango,Queensland,4615,07 4171 6700,-26.666405,152.007833,FALSE,,,,,,,,,,,,,,,,,,,,,,,,,,,,,,,,,,,,,,,,,,,,,,,,,,,,,,,,,,,,,,,,,,,,,,,,,,,,,,,,PCP597
Country WA,Carey Street,Nannup,Western Australia,6275,08 9756 3800,-33.982797,115.76723,FALSE,,,,,,,,,,,,,,,,,,,,,,,,,,,,,,,,,,,,,,,,,,,,,,,,,,,,,,,,,,,,,,,,,,,,,,,,,,,,,,,,PCP598
Country SA,101 Jenkins Terrace,Naracoorte,South Australia,5271,08 8762 8100,-36.966849,140.743693,FALSE,,,,,,,,,,,,,,,,,,,,,,,,,,,,,,,,,,,,,,,,,,,,,,,,,,,,,,,,,,,,,,,,,,,,,,,,,,,,,,,,PCP599
Country WA,Ada Street,Narembeen,Western Australia,6369,08 9064 6222,-32.061618,118.391289,FALSE,,,,,,,,,,,,,,,,,,,,,,,,,,,,,,,,,,,,,,,,,,,,,,,,,,,,,,,,,,,,,,,,,,,,,,,,,,,,,,,,PCP600
Hunter New England and Central Coast,11 Cameron Street,Narrabri,New South Wales,2390,02 6799 2800,-30.325869,149.777108,FALSE,,,,,,,,,,,,,,,,,,,,,,,,,,,,,,,,,,,,,,,,,,,,,,,,,,,,,,,,,,,,,,,,,,,,,,,,,,,,,,,,PCP601
Murrumbidgee,54 Adams Street,Narrandera,New South Wales,2700,02 6951 0200,-34.743181,146.547661,FALSE,,,,,,,,,,,,,,,,,,,,,,,,,,,,,,,,,,,,,,,,,,,,,,,,,,,,,,,,,,,,,,,,,,,,,,,,,,,,,,,,PCP602
Country WA,Williams Road,Narrogin,Western Australia,6312,08 9881 0333,-32.937341,117.168459,FALSE,,,,,,,,,,,,,,,,,,,,,,,,,,,,,,,,,,,,,,,,,,,,,,,,,,,,,,,,,,,,,,,,,,,,,,,,,,,,,,,,PCP603
Western NSW,128 Cathundral Street,Narromine,New South Wales,2821,02 6889 9600,-32.24261,148.239201,FALSE,,,,,,,,,,,,,,,,,,,,,,,,,,,,,,,,,,,,,,,,,,,,,,,,,,,,,,,,,,,,,,,,,,,,,,,,,,,,,,,,PCP604
Murray,36-44 McDonnell Street,Nathalia,Victoria,3638,03 5866 9444,-36.054754,145.204324,FALSE,,,,,,,,,,,,,,,,,,,,,,,,,,,,,,,,,,,,,,,,,,,,,,,,,,,,,,,,,,,,,,,,,,,,,,,,,,,,,,,,PCP605
,Corner of Gilmore Crescent and Hospital Road,Garran,Australian Capital Territory,2605,02 6222 6666,-35.344872,149.101944,FALSE,,,,,,,,,,,,,,,,,,,,,,,,,,,,,,,,,,,,,,,,,,,,,,,,,,,,,,,,,,,,,,,,,,,,,,,,,,,,,,,,PCP606
Nepean Blue Mountains,Derby Street,Kingswood,New South Wales,2747,02 4734 2000,-33.759865,150.712627,FALSE,,,,,,,,,,,,,,,,,,,,,,,,,,,,,,,,,,,,,,,,,,,,,,,,,,,,,,,,,,,,,,,,,,,,,,,,,,,,,,,,PCP607
,1-9 Barber Avenue,Kingswood,New South Wales,2747,02 4732 7333,-33.759775,150.715206,FALSE,,,,,,,,,,,,,,,,,,,,,,,,,,,,,,,,,,,,,,,,,,,,,,,,,,,,,,,,,,,,,,,,,,,,,,,,,,,,,,,,PCP608
Northern Sydney,4-12 Neringah Avenue,Wahroonga,New South Wales,2076,02 9488 2200,-33.717856,151.114556,FALSE,,,,,,,,,,,,,,,,,,,,,,,,,,,,,,,,,,,,,,,,,,,,,,,,,,,,,,,,,,,,,,,,,,,,,,,,,,,,,,,,PCP609
,22 Sargent Street,New Farm,Queensland,4005,07 3254 9100,-27.473623,153.045879,FALSE,,,,,,,,,,,,,,,,,,,,,,,,,,,,,,,,,,,,,,,,,,,,,,,,,,,,,,,,,,,,,,,,,,,,,,,,,,,,,,,,PCP610
Tasmania,3 Richmond Street,New Norfolk,Tasmania,7140,03 6166 1300,-42.781315,147.059179,FALSE,,,,,,,,,,,,,,,,,,,,,,,,,,,,,,,,,,,,,,,,,,,,,,,,,,,,,,,,,,,,,,,,,,,,,,,,,,,,,,,,PCP611
,14 Lookout Road,New Lambton Heights,New South Wales,2305,02 4941 8400,-32.922537,151.698371,FALSE,,,,,,,,,,,,,,,,,,,,,,,,,,,,,,,,,,,,,,,,,,,,,,,,,,,,,,,,,,,,,,,,,,,,,,,,,,,,,,,,PCP612
Country WA,54 Mindarra Drive,Newman,Western Australia,6753,08 9175 8333,-23.354824,119.736503,FALSE,,,,,,,,,,,,,,,,,,,,,,,,,,,,,,,,,,,,,,,,,,,,,,,,,,,,,,,,,,,,,,,,,,,,,,,,,,,,,,,,PCP613
Perth North,32 Moore Street,East Perth,Western Australia,6004,08 9219 1919,-31.953405,115.869171,FALSE,,,,,,,,,,,,,,,,,,,,,,,,,,,,,,,,,,,,,,,,,,,,,,,,,,,,,,,,,,,,,,,,,,,,,,,,,,,,,,,,PCP614
North Coast,35 Cullen Street,Nimbin,New South Wales,2480,02 6689 1400,-28.597371,153.223185,FALSE,,,,,,,,,,,,,,,,,,,,,,,,,,,,,,,,,,,,,,,,,,,,,,,,,,,,,,,,,,,,,,,,,,,,,,,,,,,,,,,,PCP615
Adelaide,Alexander Kelly Drive,Noarlunga Centre,South Australia,5168,08 8384 9222,-35.139879,138.500218,FALSE,,,,,,,,,,,,,,,,,,,,,,,,,,,,,,,,,,,,,,,,,,,,,,,,,,,,,,,,,,,,,,,,,,,,,,,,,,,,,,,,PCP616
,111 Goodchap Street,Noosaville,Queensland,4566,07 5455 9200,-26.403209,153.046309,FALSE,,,,,,,,,,,,,,,,,,,,,,,,,,,,,,,,,,,,,,,,,,,,,,,,,,,,,,,,,,,,,,,,,,,,,,,,,,,,,,,,PCP617
Western Queensland,Brown Street,Normanton,Queensland,4890,07 4745 2100,-17.678739,141.086425,FALSE,,,,,,,,,,,,,,,,,,,,,,,,,,,,,,,,,,,,,,,,,,,,,,,,,,,,,,,,,,,,,,,,,,,,,,,,,,,,,,,,PCP618
Country WA,Talbot Street,Norseman,Western Australia,6443,08 9039 9200,-32.198566,121.767663,FALSE,,,,,,,,,,,,,,,,,,,,,,,,,,,,,,,,,,,,,,,,,,,,,,,,,,,,,,,,,,,,,,,,,,,,,,,,,,,,,,,,PCP619
Tasmania,28 Fosters Road,Scottsdale,Tasmania,7260,03 6778 8522,-41.154294,147.521324,FALSE,,,,,,,,,,,,,,,,,,,,,,,,,,,,,,,,,,,,,,,,,,,,,,,,,,,,,,,,,,,,,,,,,,,,,,,,,,,,,,,,PCP620
,134-144 Ford Street,Ivanhoe,Victoria,3079,03 9474 8900,-37.763424,145.031344,FALSE,,,,,,,,,,,,,,,,,,,,,,,,,,,,,,,,,,,,,,,,,,,,,,,,,,,,,,,,,,,,,,,,,,,,,,,,,,,,,,,,PCP621
,7 Endeavour Boulevard,North Lakes,Queensland,4509,07 3833 6755,-27.238984,153.021947,FALSE,,,,,,,,,,,,,,,,,,,,,,,,,,,,,,,,,,,,,,,,,,,,,,,,,,,,,,,,,,,,,,,,,,,,,,,,,,,,,,,,PCP622
Country WA,Thomas Street,Three Springs,Western Australia,6519,08 9954 3200,-29.534221,115.759184,FALSE,,,,,,,,,,,,,,,,,,,,,,,,,,,,,,,,,,,,,,,,,,,,,,,,,,,,,,,,,,,,,,,,,,,,,,,,,,,,,,,,PCP623
,119 Kings Road,Pimlico,Queensland,4812,07 4725 2677,-19.279643,146.791468,FALSE,,,,,,,,,,,,,,,,,,,,,,,,,,,,,,,,,,,,,,,,,,,,,,,,,,,,,,,,,,,,,,,,,,,,,,,,,,,,,,,,PCP624
,3 Westbourne Street,St Leonards,New South Wales,2065,02 8425 3000,-33.820622,151.189159,FALSE,,,,,,,,,,,,,,,,,,,,,,,,,,,,,,,,,,,,,,,,,,,,,,,,,,,,,,,,,,,,,,,,,,,,,,,,,,,,,,,,PCP625
,137 Flockton Street,Everton Park,Queensland,4053,07 3246 3133,-27.393992,152.992705,FALSE,,,,,,,,,,,,,,,,,,,,,,,,,,,,,,,,,,,,,,,,,,,,,,,,,,,,,,,,,,,,,,,,,,,,,,,,,,,,,,,,PCP626
Tasmania,23 Brickport Road,Burnie,Tasmania,7320,03 6430 6666,-41.048385,145.880842,FALSE,,,,,,,,,,,,,,,,,,,,,,,,,,,,,,,,,,,,,,,,,,,,,,,,,,,,,,,,,,,,,,,,,,,,,,,,,,,,,,,,PCP627
Country WA,Robinson Street,Northam,Western Australia,6401,08 9690 1300,-31.649582,116.657681,FALSE,,,,,,,,,,,,,,,,,,,,,,,,,,,,,,,,,,,,,,,,,,,,,,,,,,,,,,,,,,,,,,,,,,,,,,,,,,,,,,,,PCP628
Country WA,Stephen Street,Northampton,Western Australia,6535,08 9934 0200,-28.351194,114.635119,FALSE,,,,,,,,,,,,,,,,,,,,,,,,,,,,,,,,,,,,,,,,,,,,,,,,,,,,,,,,,,,,,,,,,,,,,,,,,,,,,,,,PCP629
Murray,35-47 Green Street,Wangaratta,Victoria,3677,03 5722 5111,-36.354035,146.313889,FALSE,,,,,,,,,,,,,,,,,,,,,,,,,,,,,,,,,,,,,,,,,,,,,,,,,,,,,,,,,,,,,,,,,,,,,,,,,,,,,,,,PCP630
Northern Sydney,105 Frenchs Forest Road (West),Frenchs Forest,New South Wales,2086,02 9105 5000,-33.750646,151.23377,FALSE,,,,,,,,,,,,,,,,,,,,,,,,,,,,,,,,,,,,,,,,,,,,,,,,,,,,,,,,,,,,,,,,,,,,,,,,,,,,,,,,PCP631
Country SA,1 Ernest Terrace,Wallaroo,South Australia,5556,08 8823 0200,-33.927738,137.636783,FALSE,,,,,,,,,,,,,,,,,,,,,,,,,,,,,,,,,,,,,,,,,,,,,,,,,,,,,,,,,,,,,,,,,,,,,,,,,,,,,,,,PCP632
,Corner of Plenty and Greenhills Roads,Bundoora,Victoria,3083,03 9468 0100,-37.691208,145.061631,FALSE,,,,,,,,,,,,,,,,,,,,,,,,,,,,,,,,,,,,,,,,,,,,,,,,,,,,,,,,,,,,,,,,,,,,,,,,,,,,,,,,PCP633
,2 Greenwich Road,Greenwich,New South Wales,2065,02 9433 3555,-33.825156,151.188367,FALSE,,,,,,,,,,,,,,,,,,,,,,,,,,,,,,,,,,,,,,,,,,,,,,,,,,,,,,,,,,,,,,,,,,,,,,,,,,,,,,,,PCP634
,3 Harrison Street,Cremorne,New South Wales,2090,02 9909 8577,-33.833425,151.222886,FALSE,,,,,,,,,,,,,,,,,,,,,,,,,,,,,,,,,,,,,,,,,,,,,,,,,,,,,,,,,,,,,,,,,,,,,,,,,,,,,,,,PCP635
,92-96 Dumaresq Street,Campbelltown,New South Wales,2560,02 4640 5555,-34.071999,150.816958,FALSE,,,,,,,,,,,,,,,,,,,,,,,,,,,,,,,,,,,,,,,,,,,,,,,,,,,,,,,,,,,,,,,,,,,,,,,,,,,,,,,,PCP636
,23-27 Lytton Street,Wentworthville,New South Wales,2145,02 8833 2222,-33.811188,150.974575,FALSE,,,,,,,,,,,,,,,,,,,,,,,,,,,,,,,,,,,,,,,,,,,,,,,,,,,,,,,,,,,,,,,,,,,,,,,,,,,,,,,,PCP637
,11 Norbrik Drive,Bella Vista,New South Wales,2153,02 8882 8882,-33.744941,150.953608,FALSE,,,,,,,,,,,,,,,,,,,,,,,,,,,,,,,,,,,,,,,,,,,,,,,,,,,,,,,,,,,,,,,,,,,,,,,,,,,,,,,,PCP638
,Weeroona Place,Nowra,New South Wales,2541,02 4424 4700,-34.893534,150.606551,FALSE,,,,,,,,,,,,,,,,,,,,,,,,,,,,,,,,,,,,,,,,,,,,,,,,,,,,,,,,,,,,,,,,,,,,,,,,,,,,,,,,PCP639
Murray,2 Katamatite Road,Numurkah,Victoria,3636,03 5862 0555,-36.100001,145.443695,FALSE,,,,,,,,,,,,,,,,,,,,,,,,,,,,,,,,,,,,,,,,,,,,,,,,,,,,,,,,,,,,,,,,,,,,,,,,,,,,,,,,PCP640
Western NSW,Hospital Road,Nyngan,New South Wales,2825,02 6835 1700,-31.560024,147.208772,FALSE,,,,,,,,,,,,,,,,,,,,,,,,,,,,,,,,,,,,,,,,,,,,,,,,,,,,,,,,,,,,,,,,,,,,,,,,,,,,,,,,PCP641
Darling Downs and West Moreton,Corner Beale and Fitzpatrick Streets,Oakey,Queensland,4401,07 4691 4888,-27.424079,151.719088,FALSE,,,,,,,,,,,,,,,,,,,,,,,,,,,,,,,,,,,,,,,,,,,,,,,,,,,,,,,,,,,,,,,,,,,,,,,,,,,,,,,,PCP642
Western NSW,67-73 North Street,Oberon,New South Wales,2787,02 6336 7200,-33.705249,149.853596,FALSE,,,,,,,,,,,,,,,,,,,,,,,,,,,,,,,,,,,,,,,,,,,,,,,,,,,,,,,,,,,,,,,,,,,,,,,,,,,,,,,,PCP643
Gippsland,12 Easton Street,Omeo,Victoria,3898,03 5159 0100,-37.098142,147.597321,FALSE,,,,,,,,,,,,,,,,,,,,,,,,,,,,,,,,,,,,,,,,,,,,,,,,,,,,,,,,,,,,,,,,,,,,,,,,,,,,,,,,PCP644
Country WA,Second Avenue,Onslow,Western Australia,6710,08 9184 3200,-21.643238,115.115389,FALSE,,,,,,,,,,,,,,,,,,,,,,,,,,,,,,,,,,,,,,,,,,,,,,,,,,,,,,,,,,,,,,,,,,,,,,,,,,,,,,,,PCP645
,60-62 McNamara Street,Orange,New South Wales,2800,02 6360 3699,-33.283027,149.102737,FALSE,,,,,,,,,,,,,,,,,,,,,,,,,,,,,,,,,,,,,,,,,,,,,,,,,,,,,,,,,,,,,,,,,,,,,,,,,,,,,,,,PCP646
Western NSW,1530 Forest Road,Orange,New South Wales,2800,02 6369 3000,-33.317316,149.093953,FALSE,,,,,,,,,,,,,,,,,,,,,,,,,,,,,,,,,,,,,,,,,,,,,,,,,,,,,,,,,,,,,,,,,,,,,,,,,,,,,,,,PCP647
Gippsland,104 Boundary Road,Orbost,Victoria,3888,03 5154 6666,-37.701844,148.464957,FALSE,,,,,,,,,,,,,,,,,,,,,,,,,,,,,,,,,,,,,,,,,,,,,,,,,,,,,,,,,,,,,,,,,,,,,,,,,,,,,,,,PCP648
Adelaide,"Level 3, 1 Hutt Street",Adelaide,South Australia,5000,08 8232 3525,-34.925331,138.611441,FALSE,,,,,,,,,,,,,,,,,,,,,,,,,,,,,,,,,,,,,,,,,,,,,,,,,,,,,,,,,,,,,,,,,,,,,,,,,,,,,,,,PCP649
Country SA,Pekina Road,Orroroo,South Australia,5431,08 8658 1023,-32.738519,138.607206,FALSE,,,,,,,,,,,,,,,,,,,,,,,,,,,,,,,,,,,,,,,,,,,,,,,,,,,,,,,,,,,,,,,,,,,,,,,,,,,,,,,,PCP650
North Western Melbourne,35 Mavis Street,Footscray,Victoria,3011,03 8345 7550,-37.791926,144.886617,FALSE,,,,,,,,,,,,,,,,,,,,,,,,,,,,,,,,,,,,,,,,,,,,,,,,,,,,,,,,,,,,,,,,,,,,,,,,,,,,,,,,PCP651
Perth North,Osborne Place,Stirling,Western Australia,6021,08 9346 8000,-31.885976,115.804717,FALSE,,,,,,,,,,,,,,,,,,,,,,,,,,,,,,,,,,,,,,,,,,,,,,,,,,,,,,,,,,,,,,,,,,,,,,,,,,,,,,,,PCP652
Western Victoria,37-43 Mclachlan Street,Apollo Bay,Victoria,3233,03 5237 8500,-38.753853,143.664264,FALSE,,,,,,,,,,,,,,,,,,,,,,,,,,,,,,,,,,,,,,,,,,,,,,,,,,,,,,,,,,,,,,,,,,,,,,,,,,,,,,,,PCP653
,"Suite 4, 1st Floor, 416-418 Oxford Street",Mount Hawthorn,Western Australia,6016,08 6140 1000,-31.922727,115.841536,FALSE,,,,,,,,,,,,,,,,,,,,,,,,,,,,,,,,,,,,,,,,,,,,,,,,,,,,,,,,,,,,,,,,,,,,,,,,,,,,,,,,PCP654
,54 Oxford Terrace,Unley,South Australia,5061,08 8373 1755,-34.949659,138.608408,FALSE,,,,,,,,,,,,,,,,,,,,,,,,,,,,,,,,,,,,,,,,,,,,,,,,,,,,,,,,,,,,,,,,,,,,,,,,,,,,,,,,PCP655
,123 Nerang Street,Southport,Queensland,4215,07 5556 6222,-27.970407,153.407829,FALSE,,,,,,,,,,,,,,,,,,,,,,,,,,,,,,,,,,,,,,,,,,,,,,,,,,,,,,,,,,,,,,,,,,,,,,,,,,,,,,,,PCP656
South Eastern NSW,Merimbola Street,Pambula,New South Wales,2549,02 6495 8200,-36.926316,149.879232,FALSE,,,,,,,,,,,,,,,,,,,,,,,,,,,,,,,,,,,,,,,,,,,,,,,,,,,,,,,,,,,,,,,,,,,,,,,,,,,,,,,,PCP657
Country WA,Lot 608 Rocklea Road,Paraburdoo,Western Australia,6754,08 9159 8222,-23.203031,117.670633,FALSE,,,,,,,,,,,,,,,,,,,,,,,,,,,,,,,,,,,,,,,,,,,,,,,,,,,,,,,,,,,,,,,,,,,,,,,,,,,,,,,,PCP658
,7 Unley Road,Parkside,South Australia,5063,08 8357 0300,-34.941936,138.606952,FALSE,,,,,,,,,,,,,,,,,,,,,,,,,,,,,,,,,,,,,,,,,,,,,,,,,,,,,,,,,,,,,,,,,,,,,,,,,,,,,,,,PCP659
,137 East Terrace,Adelaide,South Australia,5000,08 8223 3294,-34.928514,138.614276,FALSE,,,,,,,,,,,,,,,,,,,,,,,,,,,,,,,,,,,,,,,,,,,,,,,,,,,,,,,,,,,,,,,,,,,,,,,,,,,,,,,,PCP660
Western NSW,111 Newell Highway,Peak Hill,New South Wales,2869,02 6861 7100,-32.735907,148.199615,FALSE,,,,,,,,,,,,,,,,,,,,,,,,,,,,,,,,,,,,,,,,,,,,,,,,,,,,,,,,,,,,,,,,,,,,,,,,,,,,,,,,PCP661
Perth South,110 Lakes Road,Mandurah,Western Australia,6210,08 9531 8000,-32.532573,115.763504,FALSE,,,,,,,,,,,,,,,,,,,,,,,,,,,,,,,,,,,,,,,,,,,,,,,,,,,,,,,,,,,,,,,,,,,,,,,,,,,,,,,,PCP662
Country WA,Railway Cresent,Pemberton,Western Australia,6260,08 9776 4000,-34.444875,116.031954,FALSE,,,,,,,,,,,,,,,,,,,,,,,,,,,,,,,,,,,,,,,,,,,,,,,,,,,,,,,,,,,,,,,,,,,,,,,,,,,,,,,,PCP663
,Corner of George and Florence Streets,Kippa-Ring,Queensland,4021,07 3883 9300,-27.230696,153.093087,FALSE,,,,,,,,,,,,,,,,,,,,,,,,,,,,,,,,,,,,,,,,,,,,,,,,,,,,,,,,,,,,,,,,,,,,,,,,,,,,,,,,PCP664
,525 McClelland Drive,Frankston,Victoria,3199,03 9788 3466,-38.157557,145.169552,FALSE,,,,,,,,,,,,,,,,,,,,,,,,,,,,,,,,,,,,,,,,,,,,,,,,,,,,,,,,,,,,,,,,,,,,,,,,,,,,,,,,PCP665
,361 Pennant Hills Rd,Pennant Hills,New South Wales,2120,02 9481 0048,-33.738295,151.074354,FALSE,,,,,,,,,,,,,,,,,,,,,,,,,,,,,,,,,,,,,,,,,,,,,,,,,,,,,,,,,,,,,,,,,,,,,,,,,,,,,,,,PCP666
Country SA,18 Church Street,Penola,South Australia,5277,08 8737 2311,-37.382873,140.836465,FALSE,,,,,,,,,,,,,,,,,,,,,,,,,,,,,,,,,,,,,,,,,,,,,,,,,,,,,,,,,,,,,,,,,,,,,,,,,,,,,,,,PCP667
,3/25-29 Hunter Street,Hornsby,New South Wales,2077,131340,-33.70323,151.100259,FALSE,,,,,,,,,,,,,,,,,,,,,,,,,,,,,,,,,,,,,,,,,,,,,,,,,,,,,,,,,,,,,,,,,,,,,,,,,,,,,,,,PCP668
Perth North,15 Hospital Avenue,Nedlands,Western Australia,6009,08 6456 2222,-31.969503,115.817165,FALSE,,,,,,,,,,,,,,,,,,,,,,,,,,,,,,,,,,,,,,,,,,,,,,,,,,,,,,,,,,,,,,,,,,,,,,,,,,,,,,,,PCP669
,27-29 Havelock Street,West Perth,Western Australia,6005,08 9481 4888,-31.950874,115.843266,FALSE,,,,,,,,,,,,,,,,,,,,,,,,,,,,,,,,,,,,,,,,,,,,,,,,,,,,,,,,,,,,,,,,,,,,,,,,,,,,,,,,PCP670
North Western Melbourne,305 Grattan Street,Melbourne,Victoria,3000,03 9656 1111,-37.80001,144.956607,FALSE,,,,,,,,,,,,,,,,,,,,,,,,,,,,,,,,,,,,,,,,,,,,,,,,,,,,,,,,,,,,,,,,,,,,,,,,,,,,,,,,PCP671
Country SA,23 Hurlstone Street,Peterborough,South Australia,5422,08 8651 0400,-32.980786,138.830344,FALSE,,,,,,,,,,,,,,,,,,,,,,,,,,,,,,,,,,,,,,,,,,,,,,,,,,,,,,,,,,,,,,,,,,,,,,,,,,,,,,,,PCP672
,13 Carrara Street,Benowa,Queensland,4217,07 5588 9588,-28.008508,153.39373,FALSE,,,,,,,,,,,,,,,,,,,,,,,,,,,,,,,,,,,,,,,,,,,,,,,,,,,,,,,,,,,,,,,,,,,,,,,,,,,,,,,,PCP673
,Allchurch Avenue,Benowa,Queensland,4217,07 5588 9888,-28.007076,153.393569,FALSE,,,,,,,,,,,,,,,,,,,,,,,,,,,,,,,,,,,,,,,,,,,,,,,,,,,,,,,,,,,,,,,,,,,,,,,,,,,,,,,,PCP674
,34 Dixon Street,Strathpine,Queensland,4500,07 3881 7222,-27.308361,152.994832,FALSE,,,,,,,,,,,,,,,,,,,,,,,,,,,,,,,,,,,,,,,,,,,,,,,,,,,,,,,,,,,,,,,,,,,,,,,,,,,,,,,,PCP675
Country WA,Corner of Somerset St and Brown St,Pingelly,Western Australia,6308,08 9887 2222,-32.533042,117.089789,FALSE,,,,,,,,,,,,,,,,,,,,,,,,,,,,,,,,,,,,,,,,,,,,,,,,,,,,,,,,,,,,,,,,,,,,,,,,,,,,,,,,PCP676
Country SA,Bundey Terrace,Pinnaroo,South Australia,5304,08 8577 9222,-35.257499,140.902447,FALSE,,,,,,,,,,,,,,,,,,,,,,,,,,,,,,,,,,,,,,,,,,,,,,,,,,,,,,,,,,,,,,,,,,,,,,,,,,,,,,,,PCP677
Country WA,Langton Road,Mount Barker,Western Australia,6324,08 9892 1222,-34.626092,117.654561,FALSE,,,,,,,,,,,,,,,,,,,,,,,,,,,,,,,,,,,,,,,,,,,,,,,,,,,,,,,,,,,,,,,,,,,,,,,,,,,,,,,,PCP678
Country SA,71 Hospital Road,Port Augusta,South Australia,5700,08 8668 7500,-32.509417,137.776279,FALSE,,,,,,,,,,,,,,,,,,,,,,,,,,,,,,,,,,,,,,,,,,,,,,,,,,,,,,,,,,,,,,,,,,,,,,,,,,,,,,,,PCP679
Country SA,Bay Street,Port Broughton,South Australia,5522,08 8635 2200,-33.601287,137.934379,FALSE,,,,,,,,,,,,,,,,,,,,,,,,,,,,,,,,,,,,,,,,,,,,,,,,,,,,,,,,,,,,,,,,,,,,,,,,,,,,,,,,PCP680
South Eastern NSW,89-91 Cowper Street,Warrawong,New South Wales,2502,02 4223 8000,-34.485923,150.881778,FALSE,,,,,,,,,,,,,,,,,,,,,,,,,,,,,,,,,,,,,,,,,,,,,,,,,,,,,,,,,,,,,,,,,,,,,,,,,,,,,,,,PCP681
Country SA,39 Oxford Terrace,Port Lincoln,South Australia,5606,08 8683 2200,-34.72408,135.850201,FALSE,,,,,,,,,,,,,,,,,,,,,,,,,,,,,,,,,,,,,,,,,,,,,,,,,,,,,,,,,,,,,,,,,,,,,,,,,,,,,,,,PCP682
North Coast,1-31 Wrights Road,Port Macquarie,New South Wales,2444,02 6581 2000,-31.452336,152.878304,FALSE,,,,,,,,,,,,,,,,,,,,,,,,,,,,,,,,,,,,,,,,,,,,,,,,,,,,,,,,,,,,,,,,,,,,,,,,,,,,,,,,PCP683
,Lake Road,Port Macquarie,New South Wales,2444,02 6583 5655,-31.442073,152.909375,FALSE,,,,,,,,,,,,,,,,,,,,,,,,,,,,,,,,,,,,,,,,,,,,,,,,,,,,,,,,,,,,,,,,,,,,,,,,,,,,,,,,PCP684
Country SA,Alexander Street,Port Pirie,South Australia,5540,08 8638 4500,-33.177339,138.005533,FALSE,,,,,,,,,,,,,,,,,,,,,,,,,,,,,,,,,,,,,,,,,,,,,,,,,,,,,,,,,,,,,,,,,,,,,,,,,,,,,,,,PCP685
Western Victoria,Bentinck Street,Portland,Victoria,3305,03 5521 0333,-38.340713,141.606087,FALSE,,,,,,,,,,,,,,,,,,,,,,,,,,,,,,,,,,,,,,,,,,,,,,,,,,,,,,,,,,,,,,,,,,,,,,,,,,,,,,,,PCP686
Nepean Blue Mountains,20 Green Street,Portland,New South Wales,2847,02 6359 2666,-33.358415,149.978565,FALSE,,,,,,,,,,,,,,,,,,,,,,,,,,,,,,,,,,,,,,,,,,,,,,,,,,,,,,,,,,,,,,,,,,,,,,,,,,,,,,,,PCP687
Adelaide,21 Belmore Terrace,Woodville Park,South Australia,5011,08 8243 3999,-34.87999,138.542962,FALSE,,,,,,,,,,,,,,,,,,,,,,,,,,,,,,,,,,,,,,,,,,,,,,,,,,,,,,,,,,,,,,,,,,,,,,,,,,,,,,,,PCP688
Central and Eastern Sydney,320-346 Barker Street,Randwick,New South Wales,2031,02 9382 2222,-33.918492,151.23938,FALSE,,,,,,,,,,,,,,,,,,,,,,,,,,,,,,,,,,,,,,,,,,,,,,,,,,,,,,,,,,,,,,,,,,,,,,,,,,,,,,,,PCP689
,Barker Street,Randwick,New South Wales,2031,02 9650 4000,-33.918492,151.238659,FALSE,,,,,,,,,,,,,,,,,,,,,,,,,,,,,,,,,,,,,,,,,,,,,,,,,,,,,,,,,,,,,,,,,,,,,,,,,,,,,,,,PCP690
Brisbane South,199 Ipswich Road,Woolloongabba,Queensland,4102,07 3176 2111,-27.499402,153.033542,FALSE,,,,,,,,,,,,,,,,,,,,,,,,,,,,,,,,,,,,,,,,,,,,,,,,,,,,,,,,,,,,,,,,,,,,,,,,,,,,,,,,PCP691
Northern Queensland,26-34 Taylor Street,Proserpine,Queensland,4800,07 4813 9400,-20.400017,148.584976,FALSE,,,,,,,,,,,,,,,,,,,,,,,,,,,,,,,,,,,,,,,,,,,,,,,,,,,,,,,,,,,,,,,,,,,,,,,,,,,,,,,,PCP692
Australian Capital Territory,129 Carruthers Street,Curtin,Australian Capital Territory,2605,02 6205 2333,-35.323284,149.079172,FALSE,,,,,,,,,,,,,,,,,,,,,,,,,,,,,,,,,,,,,,,,,,,,,,,,,,,,,,,,,,,,,,,,,,,,,,,,,,,,,,,,PCP693
Country WA,Harris Street,Quairading,Western Australia,6383,08 9645 1100,-32.014481,117.402627,FALSE,,,,,,,,,,,,,,,,,,,,,,,,,,,,,,,,,,,,,,,,,,,,,,,,,,,,,,,,,,,,,,,,,,,,,,,,,,,,,,,,PCP694
South Eastern NSW,16 Erin Street,Queanbeyan,New South Wales,2620,02 6150 7000,-35.347685,149.232294,FALSE,,,,,,,,,,,,,,,,,,,,,,,,,,,,,,,,,,,,,,,,,,,,,,,,,,,,,,,,,,,,,,,,,,,,,,,,,,,,,,,,PCP695
South Eastern Melbourne,53 Thomas Street,Noble Park,Victoria,3174,03 9549 2777,-37.972053,145.178285,FALSE,,,,,,,,,,,,,,,,,,,,,,,,,,,,,,,,,,,,,,,,,,,,,,,,,,,,,,,,,,,,,,,,,,,,,,,,,,,,,,,,PCP696
Brisbane South,Corner of Kessels and Troughton Roads,Coopers Plains,Queensland,4108,07 3275 6111,-27.559673,153.048852,FALSE,,,,,,,,,,,,,,,,,,,,,,,,,,,,,,,,,,,,,,,,,,,,,,,,,,,,,,,,,,,,,,,,,,,,,,,,,,,,,,,,PCP697
Brisbane South,501 Stanley Street,South Brisbane,Queensland,4101,07 3068 1111,-27.484305,153.026717,FALSE,,,,,,,,,,,,,,,,,,,,,,,,,,,,,,,,,,,,,,,,,,,,,,,,,,,,,,,,,,,,,,,,,,,,,,,,,,,,,,,,PCP698
,55 Little Edward Street,Spring Hill,Queensland,4000,07 3236 9844,-27.4613,153.024547,FALSE,,,,,,,,,,,,,,,,,,,,,,,,,,,,,,,,,,,,,,,,,,,,,,,,,,,,,,,,,,,,,,,,,,,,,,,,,,,,,,,,PCP699
Western Queensland,30 Gyrica Street,Quilpie,Queensland,4480,07 4656 0100,-26.616519,144.274617,FALSE,,,,,,,,,,,,,,,,,,,,,,,,,,,,,,,,,,,,,,,,,,,,,,,,,,,,,,,,,,,,,,,,,,,,,,,,,,,,,,,,PCP700
Hunter New England and Central Coast,Nowland Street,Quirindi,New South Wales,2343,02 6746 0200,-31.500345,150.676621,FALSE,,,,,,,,,,,,,,,,,,,,,,,,,,,,,,,,,,,,,,,,,,,,,,,,,,,,,,,,,,,,,,,,,,,,,,,,,,,,,,,,PCP701
Country SA,Hospital Road,Quorn,South Australia,5433,08 8648 7888,-32.350917,138.038138,FALSE,,,,,,,,,,,,,,,,,,,,,,,,,,,,,,,,,,,,,,,,,,,,,,,,,,,,,,,,,,,,,,,,,,,,,,,,,,,,,,,,PCP702
,41 William Street,Gosford,New South Wales,2250,02 4349 8000,-33.427046,151.345848,FALSE,,,,,,,,,,,,,,,,,,,,,,,,,,,,,,,,,,,,,,,,,,,,,,,,,,,,,,,,,,,,,,,,,,,,,,,,,,,,,,,,PCP703
,185 Fox Valley Road,Wahroonga,New South Wales,2076,02 9487 9300,-33.733389,151.098606,FALSE,,,,,,,,,,,,,,,,,,,,,,,,,,,,,,,,,,,,,,,,,,,,,,,,,,,,,,,,,,,,,,,,,,,,,,,,,,,,,,,,PCP704
Country WA,Martin Street,Ravensthorpe,Western Australia,6346,08 9838 2211,-33.584918,120.045461,FALSE,,,,,,,,,,,,,,,,,,,,,,,,,,,,,,,,,,,,,,,,,,,,,,,,,,,,,,,,,,,,,,,,,,,,,,,,,,,,,,,,PCP705
Brisbane North,Anzac Avenue,Redcliffe,Queensland,4020,07 3883 7777,-27.228269,153.105245,FALSE,,,,,,,,,,,,,,,,,,,,,,,,,,,,,,,,,,,,,,,,,,,,,,,,,,,,,,,,,,,,,,,,,,,,,,,,,,,,,,,,PCP706
Brisbane South,Weippin Street,Cleveland,Queensland,4163,07 3488 3111,-27.539992,153.251379,FALSE,,,,,,,,,,,,,,,,,,,,,,,,,,,,,,,,,,,,,,,,,,,,,,,,,,,,,,,,,,,,,,,,,,,,,,,,,,,,,,,,PCP707
Country SA,Ral Ral Avenue,Renmark,South Australia,5341,08 8580 4100,-34.164836,140.745205,FALSE,,,,,,,,,,,,,,,,,,,,,,,,,,,,,,,,,,,,,,,,,,,,,,,,,,,,,,,,,,,,,,,,,,,,,,,,,,,,,,,,PCP708
Northern Queensland,Gallagher Drive,Richmond,Queensland,4822,07 4741 6100,-20.738726,143.150471,FALSE,,,,,,,,,,,,,,,,,,,,,,,,,,,,,,,,,,,,,,,,,,,,,,,,,,,,,,,,,,,,,,,,,,,,,,,,,,,,,,,,PCP709
,36 Mt Dandenong Road,Ringwood,Victoria,3135,03 8804 4000,-37.811523,145.243629,FALSE,,,,,,,,,,,,,,,,,,,,,,,,,,,,,,,,,,,,,,,,,,,,,,,,,,,,,,,,,,,,,,,,,,,,,,,,,,,,,,,,PCP710
,401 Milton Road,Auchenflower,Queensland,4066,,-27.473491,152.995132,FALSE,,,,,,,,,,,,,,,,,,,,,,,,,,,,,,,,,,,,,,,,,,,,,,,,,,,,,,,,,,,,,,,,,,,,,,,,,,,,,,,,PCP711
,2-8 Meurant Avenue,Wagga Wagga,New South Wales,2650,02 6925 6256,-35.120903,147.353809,FALSE,,,,,,,,,,,,,,,,,,,,,,,,,,,,,,,,,,,,,,,,,,,,,,,,,,,,,,,,,,,,,,,,,,,,,,,,,,,,,,,,PCP712
Country SA,Maddern Street,Berri,South Australia,5343,08 8580 2400,-34.276054,140.600984,FALSE,,,,,,,,,,,,,,,,,,,,,,,,,,,,,,,,,,,,,,,,,,,,,,,,,,,,,,,,,,,,,,,,,,,,,,,,,,,,,,,,PCP713
North Coast,Hunter Street,Lismore,New South Wales,2480,02 6620 7600,-28.80834,153.29112,FALSE,,,,,,,,,,,,,,,,,,,,,,,,,,,,,,,,,,,,,,,,,,,,,,,,,,,,,,,,,,,,,,,,,,,,,,,,,,,,,,,,PCP714
Country SA,23 Moorhouse Terrace,Riverton,South Australia,5412,08 8847 2300,-34.160353,138.742657,FALSE,,,,,,,,,,,,,,,,,,,,,,,,,,,,,,,,,,,,,,,,,,,,,,,,,,,,,,,,,,,,,,,,,,,,,,,,,,,,,,,,PCP715
Gold Coast,2 Bayberry Lane,Robina,Queensland,4226,07 5668 6000,-28.072198,153.377284,FALSE,,,,,,,,,,,,,,,,,,,,,,,,,,,,,,,,,,,,,,,,,,,,,,,,,,,,,,,,,,,,,,,,,,,,,,,,,,,,,,,,PCP716
,"4110, Level 3, Robina Town Centre",Robina,Queensland,4230,07 5592 7999,-28.077603,153.3843,FALSE,,,,,,,,,,,,,,,,,,,,,,,,,,,,,,,,,,,,,,,,,,,,,,,,,,,,,,,,,,,,,,,,,,,,,,,,,,,,,,,,PCP717
Murray,128-132 Latje Road,Robinvale,Victoria,3549,03 5051 8111,-34.584146,142.781367,FALSE,,,,,,,,,,,,,,,,,,,,,,,,,,,,,,,,,,,,,,,,,,,,,,,,,,,,,,,,,,,,,,,,,,,,,,,,,,,,,,,,PCP718
Murray,1 Pascoe Street,Rochester,Victoria,3561,03 5484 4400,-36.366579,144.697751,FALSE,,,,,,,,,,,,,,,,,,,,,,,,,,,,,,,,,,,,,,,,,,,,,,,,,,,,,,,,,,,,,,,,,,,,,,,,,,,,,,,,PCP719
"Central Queensland, Wide Bay and Sunshine Coast",Canning Street,Rockhampton,Queensland,4700,07 4920 6211,-23.379525,150.494542,FALSE,,,,,,,,,,,,,,,,,,,,,,,,,,,,,,,,,,,,,,,,,,,,,,,,,,,,,,,,,,,,,,,,,,,,,,,,,,,,,,,,PCP720
Perth South,Elanora Drive,Cooloongup,Western Australia,6168,08 9599 4000,-32.291359,115.770899,FALSE,,,,,,,,,,,,,,,,,,,,,,,,,,,,,,,,,,,,,,,,,,,,,,,,,,,,,,,,,,,,,,,,,,,,,,,,,,,,,,,,PCP721
Country WA,42-44 Hampton Street,Roebourne,Western Australia,6718,08 9182 0200,-20.776317,117.143955,FALSE,,,,,,,,,,,,,,,,,,,,,,,,,,,,,,,,,,,,,,,,,,,,,,,,,,,,,,,,,,,,,,,,,,,,,,,,,,,,,,,,PCP722
Western Queensland,197-234 Mcdowall Street,Roma,Queensland,4455,07 4624 2700,-26.568828,148.775846,FALSE,,,,,,,,,,,,,,,,,,,,,,,,,,,,,,,,,,,,,,,,,,,,,,,,,,,,,,,,,,,,,,,,,,,,,,,,,,,,,,,,PCP723
South Eastern Melbourne,1527 Point Nepean Road,Rosebud,Victoria,3939,03 5986 0666,-38.362168,144.884899,FALSE,,,,,,,,,,,,,,,,,,,,,,,,,,,,,,,,,,,,,,,,,,,,,,,,,,,,,,,,,,,,,,,,,,,,,,,,,,,,,,,,PCP724
,1537 Point Nepean Road,Rosebud West,Victoria,3940,03 5986 0500,-38.361748,144.883554,FALSE,,,,,,,,,,,,,,,,,,,,,,,,,,,,,,,,,,,,,,,,,,,,,,,,,,,,,,,,,,,,,,,,,,,,,,,,,,,,,,,,PCP725
Country SA,16-28 Burgoyne Street,Roxby Downs,South Australia,5725,08 8671 9020,-30.562778,136.894261,FALSE,,,,,,,,,,,,,,,,,,,,,,,,,,,,,,,,,,,,,,,,,,,,,,,,,,,,,,,,,,,,,,,,,,,,,,,,,,,,,,,,PCP726
Adelaide,Port Road,Adelaide,South Australia,5000,08 7074 0000,-34.920973,138.587393,FALSE,,,,,,,,,,,,,,,,,,,,,,,,,,,,,,,,,,,,,,,,,,,,,,,,,,,,,,,,,,,,,,,,,,,,,,,,,,,,,,,,PCP727
Brisbane North,Butterfield Street,Herston,Queensland,4006,07 3646 8111,-27.446972,153.027888,FALSE,,,,,,,,,,,,,,,,,,,,,,,,,,,,,,,,,,,,,,,,,,,,,,,,,,,,,,,,,,,,,,,,,,,,,,,,,,,,,,,,PCP728
North Western Melbourne,50 Flemington Road,Parkville,Victoria,3052,03 9345 5522,-37.794997,144.950859,FALSE,,,,,,,,,,,,,,,,,,,,,,,,,,,,,,,,,,,,,,,,,,,,,,,,,,,,,,,,,,,,,,,,,,,,,,,,,,,,,,,,PCP729
Northern Territory,Rocklands Drive,Tiwi,Northern Territory,810,08 8922 8888,-12.355806,130.881789,FALSE,,,,,,,,,,,,,,,,,,,,,,,,,,,,,,,,,,,,,,,,,,,,,,,,,,,,,,,,,,,,,,,,,,,,,,,,,,,,,,,,PCP730
Tasmania,48 Liverpool Street,Hobart,Tasmania,7000,03 6222 8308,-42.880028,147.330136,FALSE,,,,,,,,,,,,,,,,,,,,,,,,,,,,,,,,,,,,,,,,,,,,,,,,,,,,,,,,,,,,,,,,,,,,,,,,,,,,,,,,PCP731
Central and Eastern Sydney,Barker Street,Randwick,New South Wales,2031,02 9382 6111,-33.919035,151.237938,FALSE,,,,,,,,,,,,,,,,,,,,,,,,,,,,,,,,,,,,,,,,,,,,,,,,,,,,,,,,,,,,,,,,,,,,,,,,,,,,,,,,PCP732
North Western Melbourne,300 Grattan Street,Parkville,Victoria,3050,03 9342 7000,-37.799259,144.956864,FALSE,,,,,,,,,,,,,,,,,,,,,,,,,,,,,,,,,,,,,,,,,,,,,,,,,,,,,,,,,,,,,,,,,,,,,,,,,,,,,,,,PCP733
North Western Melbourne,34-54 Poplar Road,Parkville,Victoria,3052,03 8387 2000,-37.778813,144.948049,FALSE,,,,,,,,,,,,,,,,,,,,,,,,,,,,,,,,,,,,,,,,,,,,,,,,,,,,,,,,,,,,,,,,,,,,,,,,,,,,,,,,PCP734
Northern Sydney,1 Reserve Road,St Leonards,New South Wales,2065,02 9926 7111,-33.821312,151.189735,FALSE,,,,,,,,,,,,,,,,,,,,,,,,,,,,,,,,,,,,,,,,,,,,,,,,,,,,,,,,,,,,,,,,,,,,,,,,,,,,,,,,PCP735
Perth North,Wellington Street,Perth,Western Australia,6000,08 9224 2244,-31.954242,115.8663,FALSE,,,,,,,,,,,,,,,,,,,,,,,,,,,,,,,,,,,,,,,,,,,,,,,,,,,,,,,,,,,,,,,,,,,,,,,,,,,,,,,,PCP736
Central and Eastern Sydney,50 Missenden Road,Camperdown,New South Wales,2050,02 9515 6111,-33.889251,151.182926,FALSE,,,,,,,,,,,,,,,,,,,,,,,,,,,,,,,,,,,,,,,,,,,,,,,,,,,,,,,,,,,,,,,,,,,,,,,,,,,,,,,,PCP737
Central and Eastern Sydney,57 - 59 Missenden Road,Camperdown,New South Wales,2050,,-33.88828,151.180707,FALSE,,,,,,,,,,,,,,,,,,,,,,,,,,,,,,,,,,,,,,,,,,,,,,,,,,,,,,,,,,,,,,,,,,,,,,,,,,,,,,,,PCP738
Northern Sydney,227-259 Morrison Road,Ryde,New South Wales,2112,02 9807 1144,-33.821772,151.107845,FALSE,,,,,,,,,,,,,,,,,,,,,,,,,,,,,,,,,,,,,,,,,,,,,,,,,,,,,,,,,,,,,,,,,,,,,,,,,,,,,,,,PCP739
Eastern Melbourne,1 Yarra Boulevard,Kew,Victoria,3101,03 9490 7500,-37.789522,145.023715,FALSE,,,,,,,,,,,,,,,,,,,,,,,,,,,,,,,,,,,,,,,,,,,,,,,,,,,,,,,,,,,,,,,,,,,,,,,,,,,,,,,,PCP740
North Western Melbourne,20 Flemington Road,Parkville,Victoria,3052,03 8345 2000,-37.798772,144.954825,FALSE,,,,,,,,,,,,,,,,,,,,,,,,,,,,,,,,,,,,,,,,,,,,,,,,,,,,,,,,,,,,,,,,,,,,,,,,,,,,,,,,PCP741
Western Victoria,12 Mitchell Place,Hopetoun,Victoria,3396,03 5083 2000,-35.732201,142.366411,FALSE,,,,,,,,,,,,,,,,,,,,,,,,,,,,,,,,,,,,,,,,,,,,,,,,,,,,,,,,,,,,,,,,,,,,,,,,,,,,,,,,PCP742
Western Victoria,18 Dimboola Road,Warracknabeal,Victoria,3393,03 5396 1200,-36.252614,142.381609,FALSE,,,,,,,,,,,,,,,,,,,,,,,,,,,,,,,,,,,,,,,,,,,,,,,,,,,,,,,,,,,,,,,,,,,,,,,,,,,,,,,,PCP743
Northern Sydney,Denistone Road,Eastwood,New South Wales,2122,02 9858 7888,-33.795482,151.089756,FALSE,,,,,,,,,,,,,,,,,,,,,,,,,,,,,,,,,,,,,,,,,,,,,,,,,,,,,,,,,,,,,,,,,,,,,,,,,,,,,,,,PCP744
Western NSW,24 Fitzgerald Street,Rylstone,New South Wales,2849,02 6357 8100,-32.804085,149.975652,FALSE,,,,,,,,,,,,,,,,,,,,,,,,,,,,,,,,,,,,,,,,,,,,,,,,,,,,,,,,,,,,,,,,,,,,,,,,,,,,,,,,PCP745
Central and Eastern Sydney,170 Darlinghurst Road,Darlinghurst,New South Wales,2010,02 8382 9444,-33.880525,151.219237,FALSE,,,,,,,,,,,,,,,,,,,,,,,,,,,,,,,,,,,,,,,,,,,,,,,,,,,,,,,,,,,,,,,,,,,,,,,,,,,,,,,,PCP746
,1A Northcote Road,Hornsby,New South Wales,2077,02 9477 8888,-33.701961,151.110612,FALSE,,,,,,,,,,,,,,,,,,,,,,,,,,,,,,,,,,,,,,,,,,,,,,,,,,,,,,,,,,,,,,,,,,,,,,,,,,,,,,,,PCP747
South Eastern Melbourne,193 Bluff Road,Sandringham,Victoria,3191,03 9076 1000,-37.961049,145.018157,FALSE,,,,,,,,,,,,,,,,,,,,,,,,,,,,,,,,,,,,,,,,,,,,,,,,,,,,,,,,,,,,,,,,,,,,,,,,,,,,,,,,PCP748
Northern Queensland,1 Hospital Street,Sarina,Queensland,4737,07 4943 8777,-21.421151,149.210268,FALSE,,,,,,,,,,,,,,,,,,,,,,,,,,,,,,,,,,,,,,,,,,,,,,,,,,,,,,,,,,,,,,,,,,,,,,,,,,,,,,,,PCP749
Hunter New England and Central Coast,Stafford Street,Scone,New South Wales,2337,02 6540 2100,-32.051525,150.876864,FALSE,,,,,,,,,,,,,,,,,,,,,,,,,,,,,,,,,,,,,,,,,,,,,,,,,,,,,,,,,,,,,,,,,,,,,,,,,,,,,,,,PCP750
Perth North,6 Lemnos Street,Shenton Park,Western Australia,6008,,-31.958204,115.80199,FALSE,,,,,,,,,,,,,,,,,,,,,,,,,,,,,,,,,,,,,,,,,,,,,,,,,,,,,,,,,,,,,,,,,,,,,,,,,,,,,,,,PCP751
Murray,1 Brettoneaux Street,Seymour,Victoria,3660,03 5793 6100,-37.018384,145.138771,FALSE,,,,,,,,,,,,,,,,,,,,,,,,,,,,,,,,,,,,,,,,,,,,,,,,,,,,,,,,,,,,,,,,,,,,,,,,,,,,,,,,PCP752
South Eastern NSW,15-17 Madigan Boulevarde,Mount Warrigal,New South Wales,2528,02 4295 2500,-34.558987,150.840947,FALSE,,,,,,,,,,,,,,,,,,,,,,,,,,,,,,,,,,,,,,,,,,,,,,,,,,,,,,,,,,,,,,,,,,,,,,,,,,,,,,,,PCP753
,20 Fitzgerald Street,Shepparton,Victoria,3630,03 5832 1200,-36.359183,145.410825,FALSE,,,,,,,,,,,,,,,,,,,,,,,,,,,,,,,,,,,,,,,,,,,,,,,,,,,,,,,,,,,,,,,,,,,,,,,,,,,,,,,,PCP754
South Eastern NSW,2 Shoalhaven Street,Nowra,New South Wales,2541,02 4421 3111,-34.868767,150.595736,FALSE,,,,,,,,,,,,,,,,,,,,,,,,,,,,,,,,,,,,,,,,,,,,,,,,,,,,,,,,,,,,,,,,,,,,,,,,,,,,,,,,PCP755
,1/2 Short Street,Southport,Queensland,4215,07 5528 4011,-27.970813,153.416975,FALSE,,,,,,,,,,,,,,,,,,,,,,,,,,,,,,,,,,,,,,,,,,,,,,,,,,,,,,,,,,,,,,,,,,,,,,,,,,,,,,,,PCP756
Hunter New England and Central Coast,Lot 20 Dangar Road,Singleton,New South Wales,2330,02 6571 9222,-32.567087,151.185736,FALSE,,,,,,,,,,,,,,,,,,,,,,,,,,,,,,,,,,,,,,,,,,,,,,,,,,,,,,,,,,,,,,,,,,,,,,,,,,,,,,,,PCP757
Perth North,Hospital Avenue,Nedlands,Western Australia,6009,08 6457 3333,-31.968291,115.815467,FALSE,,,,,,,,,,,,,,,,,,,,,,,,,,,,,,,,,,,,,,,,,,,,,,,,,,,,,,,,,,,,,,,,,,,,,,,,,,,,,,,,PCP758
Tasmania,74 Brittons Road,Smithton,Tasmania,7330,03 6478 9520,-40.850159,145.129609,FALSE,,,,,,,,,,,,,,,,,,,,,,,,,,,,,,,,,,,,,,,,,,,,,,,,,,,,,,,,,,,,,,,,,,,,,,,,,,,,,,,,PCP759
Country SA,South Terrace,Snowtown,South Australia,5520,08 8865 0100,-33.786936,138.212768,FALSE,,,,,,,,,,,,,,,,,,,,,,,,,,,,,,,,,,,,,,,,,,,,,,,,,,,,,,,,,,,,,,,,,,,,,,,,,,,,,,,,PCP760
,31 Markwell Street,Kingaroy,Queensland,4610,07 4162 1444,-26.543051,151.836891,FALSE,,,,,,,,,,,,,,,,,,,,,,,,,,,,,,,,,,,,,,,,,,,,,,,,,,,,,,,,,,,,,,,,,,,,,,,,,,,,,,,,PCP761
Country SA,Bay Road,Victor Harbor,South Australia,5211,08 8552 0500,-35.561171,138.606447,FALSE,,,,,,,,,,,,,,,,,,,,,,,,,,,,,,,,,,,,,,,,,,,,,,,,,,,,,,,,,,,,,,,,,,,,,,,,,,,,,,,,PCP762
South Eastern NSW,4 Virginia Drive,Bega,New South Wales,2550,02 6491 9999,-36.68905,149.858549,FALSE,,,,,,,,,,,,,,,,,,,,,,,,,,,,,,,,,,,,,,,,,,,,,,,,,,,,,,,,,,,,,,,,,,,,,,,,,,,,,,,,PCP763
,Corner of Princes Highway and Heatherton Road,Noble Park,Victoria,3174,03 9549 6655,-37.966243,145.191922,FALSE,,,,,,,,,,,,,,,,,,,,,,,,,,,,,,,,,,,,,,,,,,,,,,,,,,,,,,,,,,,,,,,,,,,,,,,,,,,,,,,,PCP764
Gippsland,87 Station Road,Foster,Victoria,3960,03 5683 9777,-38.658319,146.207031,FALSE,,,,,,,,,,,,,,,,,,,,,,,,,,,,,,,,,,,,,,,,,,,,,,,,,,,,,,,,,,,,,,,,,,,,,,,,,,,,,,,,PCP765
,24 Beach Street,Curl Curl,New South Wales,2096,02 9905 3667,-33.775143,151.291425,FALSE,,,,,,,,,,,,,,,,,,,,,,,,,,,,,,,,,,,,,,,,,,,,,,,,,,,,,,,,,,,,,,,,,,,,,,,,,,,,,,,,PCP766
,76 South Terrace,South Perth,Western Australia,6952,08 9367 0222,-31.988465,115.862816,FALSE,,,,,,,,,,,,,,,,,,,,,,,,,,,,,,,,,,,,,,,,,,,,,,,,,,,,,,,,,,,,,,,,,,,,,,,,,,,,,,,,PCP767
Western Victoria,9 Robinson Street,Camperdown,Victoria,3260,03 5593 7300,-38.237101,143.137714,FALSE,,,,,,,,,,,,,,,,,,,,,,,,,,,,,,,,,,,,,,,,,,,,,,,,,,,,,,,,,,,,,,,,,,,,,,,,,,,,,,,,PCP768
Western Victoria,Ryot Street,Warrnambool,Victoria,3280,03 5563 1666,-38.380085,142.472977,FALSE,,,,,,,,,,,,,,,,,,,,,,,,,,,,,,,,,,,,,,,,,,,,,,,,,,,,,,,,,,,,,,,,,,,,,,,,,,,,,,,,PCP769
Country WA,Coolgardie Road (Great Eastern Highway),Southern Cross,Western Australia,6426,08 9081 2222,-31.230709,119.337829,FALSE,,,,,,,,,,,,,,,,,,,,,,,,,,,,,,,,,,,,,,,,,,,,,,,,,,,,,,,,,,,,,,,,,,,,,,,,,,,,,,,,PCP770
,93-95 Bowral Street,Bowral,New South Wales,2576,02 4862 9400,-34.484223,150.422882,FALSE,,,,,,,,,,,,,,,,,,,,,,,,,,,,,,,,,,,,,,,,,,,,,,,,,,,,,,,,,,,,,,,,,,,,,,,,,,,,,,,,PCP771
Country SA,19 Waterloo Bay Road,Yorketown,South Australia,5576,08 8852 1200,-35.020989,137.604939,FALSE,,,,,,,,,,,,,,,,,,,,,,,,,,,,,,,,,,,,,,,,,,,,,,,,,,,,,,,,,,,,,,,,,,,,,,,,,,,,,,,,PCP772
,"Level 1, 98 Marine Parade",Southport,Queensland,4215,07 5555 7800,-27.96245,153.413046,FALSE,,,,,,,,,,,,,,,,,,,,,,,,,,,,,,,,,,,,,,,,,,,,,,,,,,,,,,,,,,,,,,,,,,,,,,,,,,,,,,,,PCP773
,66 Bryants Road,Loganholme,Queensland,4129,07 3801 2220,-27.662981,153.17828,FALSE,,,,,,,,,,,,,,,,,,,,,,,,,,,,,,,,,,,,,,,,,,,,,,,,,,,,,,,,,,,,,,,,,,,,,,,,,,,,,,,,PCP774
,24 Spendelove Avenue,Southport,Queensland,4215,07 5503 0911,-27.973494,153.4084,FALSE,,,,,,,,,,,,,,,,,,,,,,,,,,,,,,,,,,,,,,,,,,,,,,,,,,,,,,,,,,,,,,,,,,,,,,,,,,,,,,,,PCP775
,32 Payneham Road,Stepney,South Australia,5069,08 8130 1100,-34.913521,138.624987,FALSE,,,,,,,,,,,,,,,,,,,,,,,,,,,,,,,,,,,,,,,,,,,,,,,,,,,,,,,,,,,,,,,,,,,,,,,,,,,,,,,,PCP776
"Central Queensland, Wide Bay and Sunshine Coast",Woodbine Street,Springsure,Queensland,4722,07 4984 1200,-24.120122,148.084762,FALSE,,,,,,,,,,,,,,,,,,,,,,,,,,,,,,,,,,,,,,,,,,,,,,,,,,,,,,,,,,,,,,,,,,,,,,,,,,,,,,,,PCP777
Nepean Blue Mountains,7-9 Huntley Grange Road,Springwood,New South Wales,2777,02 4751 0300,-33.690486,150.571129,FALSE,,,,,,,,,,,,,,,,,,,,,,,,,,,,,,,,,,,,,,,,,,,,,,,,,,,,,,,,,,,,,,,,,,,,,,,,,,,,,,,,PCP778
,350 South Terrace,Adelaide,South Australia,5000,08 8408 2111,-34.934224,138.614963,FALSE,,,,,,,,,,,,,,,,,,,,,,,,,,,,,,,,,,,,,,,,,,,,,,,,,,,,,,,,,,,,,,,,,,,,,,,,,,,,,,,,PCP779
,Corner of Roderick and Pring Streets,Ipswich,Queensland,4305,07 3816 9999,-27.618799,152.763079,FALSE,,,,,,,,,,,,,,,,,,,,,,,,,,,,,,,,,,,,,,,,,,,,,,,,,,,,,,,,,,,,,,,,,,,,,,,,,,,,,,,,PCP780
,280 North Street,Toowoomba,Queensland,4350,07 4646 3000,-27.539156,151.933665,FALSE,,,,,,,,,,,,,,,,,,,,,,,,,,,,,,,,,,,,,,,,,,,,,,,,,,,,,,,,,,,,,,,,,,,,,,,,,,,,,,,,PCP781
,457 Wickham Terrace,Spring Hill,Queensland,4000,07 3834 4444,-27.461224,153.021011,FALSE,,,,,,,,,,,,,,,,,,,,,,,,,,,,,,,,,,,,,,,,,,,,,,,,,,,,,,,,,,,,,,,,,,,,,,,,,,,,,,,,PCP782
Central and Eastern Sydney,30 Gray Street,Kogarah,New South Wales,2217,02 9113 1111,-33.966969,151.133776,FALSE,,,,,,,,,,,,,,,,,,,,,,,,,,,,,,,,,,,,,,,,,,,,,,,,,,,,,,,,,,,,,,,,,,,,,,,,,,,,,,,,PCP783
Western Queensland,1 Victoria Street,St George,Queensland,4487,07 4620 2222,-28.0272,148.592683,FALSE,,,,,,,,,,,,,,,,,,,,,,,,,,,,,,,,,,,,,,,,,,,,,,,,,,,,,,,,,,,,,,,,,,,,,,,,,,,,,,,,PCP784
,1 South Street,Kogarah,New South Wales,2217,02 9598 5555,-33.966952,151.136055,FALSE,,,,,,,,,,,,,,,,,,,,,,,,,,,,,,,,,,,,,,,,,,,,,,,,,,,,,,,,,,,,,,,,,,,,,,,,,,,,,,,,PCP785
Eastern Melbourne,283 Cotham Road,Kew,Victoria,3101,03 9816 0444,-37.809085,145.052585,FALSE,,,,,,,,,,,,,,,,,,,,,,,,,,,,,,,,,,,,,,,,,,,,,,,,,,,,,,,,,,,,,,,,,,,,,,,,,,,,,,,,PCP786
Tasmania,Circassion Street,St Helens,Tasmania,7216,03 6387 5570,-41.323159,148.248814,FALSE,,,,,,,,,,,,,,,,,,,,,,,,,,,,,,,,,,,,,,,,,,,,,,,,,,,,,,,,,,,,,,,,,,,,,,,,,,,,,,,,PCP787
,186 Macquarie Street,Hobart,Tasmania,7000,03 6221 6444,-42.886839,147.325791,FALSE,,,,,,,,,,,,,,,,,,,,,,,,,,,,,,,,,,,,,,,,,,,,,,,,,,,,,,,,,,,,,,,,,,,,,,,,,,,,,,,,PCP788
,101 Drummond Street North,Ballarat,Victoria,3350,03 5320 2111,-37.558544,143.847406,FALSE,,,,,,,,,,,,,,,,,,,,,,,,,,,,,,,,,,,,,,,,,,,,,,,,,,,,,,,,,,,,,,,,,,,,,,,,,,,,,,,,PCP789
,133-145 Lily Street,Bendigo,Victoria,3550,03 5434 3434,-36.762043,144.263298,FALSE,,,,,,,,,,,,,,,,,,,,,,,,,,,,,,,,,,,,,,,,,,,,,,,,,,,,,,,,,,,,,,,,,,,,,,,,,,,,,,,,PCP790
,75 Kangan Drive,Berwick,Victoria,3806,03 8784 5000,-38.034499,145.344974,FALSE,,,,,,,,,,,,,,,,,,,,,,,,,,,,,,,,,,,,,,,,,,,,,,,,,,,,,,,,,,,,,,,,,,,,,,,,,,,,,,,,PCP791
,Corner of Roberston Drive and Bussell Highway,Bunbury,Western Australia,6230,08 9722 1600,-33.365947,115.648869,FALSE,,,,,,,,,,,,,,,,,,,,,,,,,,,,,,,,,,,,,,,,,,,,,,,,,,,,,,,,,,,,,,,,,,,,,,,,,,,,,,,,PCP792
,13 Grantham Street,Burwood,New South Wales,2134,02 9715 9200,-33.869832,151.100538,FALSE,,,,,,,,,,,,,,,,,,,,,,,,,,,,,,,,,,,,,,,,,,,,,,,,,,,,,,,,,,,,,,,,,,,,,,,,,,,,,,,,PCP793
,255-265 Cranbourne Road,Frankston,Victoria,3199,03 9788 3333,-38.153035,145.155926,FALSE,,,,,,,,,,,,,,,,,,,,,,,,,,,,,,,,,,,,,,,,,,,,,,,,,,,,,,,,,,,,,,,,,,,,,,,,,,,,,,,,PCP794
,80 Myers Street,Geelong,Victoria,3220,03 5226 8888,-38.151567,144.357679,FALSE,,,,,,,,,,,,,,,,,,,,,,,,,,,,,,,,,,,,,,,,,,,,,,,,,,,,,,,,,,,,,,,,,,,,,,,,,,,,,,,,PCP795
,12 Hermitage Street,Geraldton,Western Australia,6530,08 9965 8888,-28.784383,114.616439,FALSE,,,,,,,,,,,,,,,,,,,,,,,,,,,,,,,,,,,,,,,,,,,,,,,,,,,,,,,,,,,,,,,,,,,,,,,,,,,,,,,,PCP796
,1 Clayton Street,Midland,Western Australia,6056,08 9462 4500,-31.894611,116.00748,FALSE,,,,,,,,,,,,,,,,,,,,,,,,,,,,,,,,,,,,,,,,,,,,,,,,,,,,,,,,,,,,,,,,,,,,,,,,,,,,,,,,PCP797
Perth North,1 Clayton Street,Midland,Western Australia,6056,08 9462 4000,-31.894832,116.008852,FALSE,,,,,,,,,,,,,,,,,,,,,,,,,,,,,,,,,,,,,,,,,,,,,,,,,,,,,,,,,,,,,,,,,,,,,,,,,,,,,,,,PCP798
,Thirlmere Road,Mount Lawley,Western Australia,6050,08 9370 9222,-31.936721,115.884926,FALSE,,,,,,,,,,,,,,,,,,,,,,,,,,,,,,,,,,,,,,,,,,,,,,,,,,,,,,,,,,,,,,,,,,,,,,,,,,,,,,,,PCP799
,100 Murdoch Drive,Murdoch,Western Australia,6150,08 9366 1111,-32.067919,115.844659,FALSE,,,,,,,,,,,,,,,,,,,,,,,,,,,,,,,,,,,,,,,,,,,,,,,,,,,,,,,,,,,,,,,,,,,,,,,,,,,,,,,,PCP800
,1480 Heatherton Road,Dandenong,Victoria,3175,03 8793 9444,-37.970226,145.213143,FALSE,,,,,,,,,,,,,,,,,,,,,,,,,,,,,,,,,,,,,,,,,,,,,,,,,,,,,,,,,,,,,,,,,,,,,,,,,,,,,,,,PCP801
,177 Grose Vale Road,North Richmond,New South Wales,2754,02 4570 6100,-33.591946,150.702473,FALSE,,,,,,,,,,,,,,,,,,,,,,,,,,,,,,,,,,,,,,,,,,,,,,,,,,,,,,,,,,,,,,,,,,,,,,,,,,,,,,,,PCP802
,12 Salvado Road,Subiaco,Western Australia,6008,08 9382 6111,-31.941246,115.826282,FALSE,,,,,,,,,,,,,,,,,,,,,,,,,,,,,,,,,,,,,,,,,,,,,,,,,,,,,,,,,,,,,,,,,,,,,,,,,,,,,,,,PCP803
,136 Botanic Road,Warrnambool,Victoria,3280,03 5564 0600,-38.371405,142.478749,FALSE,,,,,,,,,,,,,,,,,,,,,,,,,,,,,,,,,,,,,,,,,,,,,,,,,,,,,,,,,,,,,,,,,,,,,,,,,,,,,,,,PCP804
Western Sydney,Normanby Road,Auburn,New South Wales,2144,02 9649 8941,-33.848659,151.028339,FALSE,,,,,,,,,,,,,,,,,,,,,,,,,,,,,,,,,,,,,,,,,,,,,,,,,,,,,,,,,,,,,,,,,,,,,,,,,,,,,,,,PCP805
,18 Roslyn Street,Potts Point,New South Wales,2011,02 9356 0200,-33.874188,151.225836,FALSE,,,,,,,,,,,,,,,,,,,,,,,,,,,,,,,,,,,,,,,,,,,,,,,,,,,,,,,,,,,,,,,,,,,,,,,,,,,,,,,,PCP806
Adelaide,65 Military Road,Semaphore,South Australia,5019,08 8242 9111,-34.846418,138.480466,FALSE,,,,,,,,,,,,,,,,,,,,,,,,,,,,,,,,,,,,,,,,,,,,,,,,,,,,,,,,,,,,,,,,,,,,,,,,,,,,,,,,PCP807
Tasmania,Gardiners Creek Road,St Marys,Tasmania,7215,03 6387 5555,-41.576062,148.181244,FALSE,,,,,,,,,,,,,,,,,,,,,,,,,,,,,,,,,,,,,,,,,,,,,,,,,,,,,,,,,,,,,,,,,,,,,,,,,,,,,,,,PCP808
,1 Medical Place,Urraween,Queensland,4655,07 4120 1200,-25.299851,152.823273,FALSE,,,,,,,,,,,,,,,,,,,,,,,,,,,,,,,,,,,,,,,,,,,,,,,,,,,,,,,,,,,,,,,,,,,,,,,,,,,,,,,,PCP809
Central and Eastern Sydney,390 Victoria Street,Darlinghurst,New South Wales,2010,02 8382 1111,-33.879692,151.221125,FALSE,,,,,,,,,,,,,,,,,,,,,,,,,,,,,,,,,,,,,,,,,,,,,,,,,,,,,,,,,,,,,,,,,,,,,,,,,,,,,,,,PCP810
North Western Melbourne,41 Victoria Parade,Fitzroy,Victoria,3065,03 9288 2211,-37.806545,144.975231,FALSE,,,,,,,,,,,,,,,,,,,,,,,,,,,,,,,,,,,,,,,,,,,,,,,,,,,,,,,,,,,,,,,,,,,,,,,,,,,,,,,,PCP811
,20 Dalley Street,Lismore,New South Wales,2480,02 6627 9600,-28.819949,153.287381,FALSE,,,,,,,,,,,,,,,,,,,,,,,,,,,,,,,,,,,,,,,,,,,,,,,,,,,,,,,,,,,,,,,,,,,,,,,,,,,,,,,,PCP812
,411 Main Street,Kangaroo Point,Queensland,4169,07 3240 1111,-27.473334,153.03542,FALSE,,,,,,,,,,,,,,,,,,,,,,,,,,,,,,,,,,,,,,,,,,,,,,,,,,,,,,,,,,,,,,,,,,,,,,,,,,,,,,,,PCP813
,159 Grey Street,East Melbourne,Victoria,3002,03 9928 6555,-37.811733,144.984164,FALSE,,,,,,,,,,,,,,,,,,,,,,,,,,,,,,,,,,,,,,,,,,,,,,,,,,,,,,,,,,,,,,,,,,,,,,,,,,,,,,,,PCP814
,59-61 Victoria Parade,Fitzroy,Victoria,3065,03 9411 7111,-37.807993,144.976029,FALSE,,,,,,,,,,,,,,,,,,,,,,,,,,,,,,,,,,,,,,,,,,,,,,,,,,,,,,,,,,,,,,,,,,,,,,,,,,,,,,,,PCP815
,5 Studley Avenue,Kew,Victoria,3101,03 9851 8888,-37.806567,145.023694,FALSE,,,,,,,,,,,,,,,,,,,,,,,,,,,,,,,,,,,,,,,,,,,,,,,,,,,,,,,,,,,,,,,,,,,,,,,,,,,,,,,,PCP816
,22-36 Scott Street,Toowoomba,Queensland,4350,07 4690 4000,-27.565675,151.971551,FALSE,,,,,,,,,,,,,,,,,,,,,,,,,,,,,,,,,,,,,,,,,,,,,,,,,,,,,,,,,,,,,,,,,,,,,,,,,,,,,,,,PCP817
,406 Victoria Street,Darlinghurst,New South Wales,2010,02 8382 7111,-33.880698,151.219462,FALSE,,,,,,,,,,,,,,,,,,,,,,,,,,,,,,,,,,,,,,,,,,,,,,,,,,,,,,,,,,,,,,,,,,,,,,,,,,,,,,,,PCP818
Darling Downs and West Moreton,8 McGregor Terrace,Stanthorpe,Queensland,4380,07 4683 3400,-28.660927,151.928397,FALSE,,,,,,,,,,,,,,,,,,,,,,,,,,,,,,,,,,,,,,,,,,,,,,,,,,,,,,,,,,,,,,,,,,,,,,,,,,,,,,,,PCP819
Perth North,Brockway Road,Mount Claremont,Western Australia,6010,08 9347 6960,-31.960937,115.788431,FALSE,,,,,,,,,,,,,,,,,,,,,,,,,,,,,,,,,,,,,,,,,,,,,,,,,,,,,,,,,,,,,,,,,,,,,,,,,,,,,,,,PCP820
Western Victoria,27-29 Sloane Street,Stawell,Victoria,3380,03 5358 8500,-37.059577,142.781603,FALSE,,,,,,,,,,,,,,,,,,,,,,,,,,,,,,,,,,,,,,,,,,,,,,,,,,,,,,,,,,,,,,,,,,,,,,,,,,,,,,,,PCP821
,20 Milan Terrace,Stirling,South Australia,5152,08 8339 0200,-35.007274,138.714859,FALSE,,,,,,,,,,,,,,,,,,,,,,,,,,,,,,,,,,,,,,,,,,,,,,,,,,,,,,,,,,,,,,,,,,,,,,,,,,,,,,,,PCP822
Country SA,14 Alfred Place,Strathalbyn,South Australia,5255,08 8536 5333,-35.257674,138.893558,FALSE,,,,,,,,,,,,,,,,,,,,,,,,,,,,,,,,,,,,,,,,,,,,,,,,,,,,,,,,,,,,,,,,,,,,,,,,,,,,,,,,PCP823
,3 Everton Road,Strathfield,New South Wales,2135,02 9745 7444,-33.872059,151.097544,FALSE,,,,,,,,,,,,,,,,,,,,,,,,,,,,,,,,,,,,,,,,,,,,,,,,,,,,,,,,,,,,,,,,,,,,,,,,,,,,,,,,PCP824
Country SA,1 Flinders Drive,Streaky Bay,South Australia,5680,08 8626 1009,-32.792776,134.217524,FALSE,,,,,,,,,,,,,,,,,,,,,,,,,,,,,,,,,,,,,,,,,,,,,,,,,,,,,,,,,,,,,,,,,,,,,,,,,,,,,,,,PCP825
,"Suite 9, 1 Salvado Road",Subiaco,Western Australia,6008,08 6555 6599,-31.9434,115.826,FALSE,,,,,,,,,,,,,,,,,,,,,,,,,,,,,,,,,,,,,,,,,,,,,,,,,,,,,,,,,,,,,,,,,,,,,,,,,,,,,,,,PCP826
North Western Melbourne,7 Macedon Street,Sunbury,Victoria,3429,03 9732 8600,-37.576998,144.732674,FALSE,,,,,,,,,,,,,,,,,,,,,,,,,,,,,,,,,,,,,,,,,,,,,,,,,,,,,,,,,,,,,,,,,,,,,,,,,,,,,,,,PCP827
,245 McCullough Street,Sunnybank,Queensland,4109,07 3344 9444,-27.572541,153.061051,FALSE,,,,,,,,,,,,,,,,,,,,,,,,,,,,,,,,,,,,,,,,,,,,,,,,,,,,,,,,,,,,,,,,,,,,,,,,,,,,,,,,PCP828
,Second Ave & Memorial Avenue,Maroochydore,Queensland,4558,07 5444 9033,-26.655373,153.096157,FALSE,,,,,,,,,,,,,,,,,,,,,,,,,,,,,,,,,,,,,,,,,,,,,,,,,,,,,,,,,,,,,,,,,,,,,,,,,,,,,,,,PCP829
,10 King Street,Buderim,Queensland,4556,07 5479 0000,-26.657299,153.094955,FALSE,,,,,,,,,,,,,,,,,,,,,,,,,,,,,,,,,,,,,,,,,,,,,,,,,,,,,,,,,,,,,,,,,,,,,,,,,,,,,,,,PCP830
"Central Queensland, Wide Bay and Sunshine Coast",6 Doherty Street,Birtinya,Queensland,4575,07 5202 0000,-26.74681,153.113812,FALSE,,,,,,,,,,,,,,,,,,,,,,,,,,,,,,,,,,,,,,,,,,,,,,,,,,,,,,,,,,,,,,,,,,,,,,,,,,,,,,,,PCP831
,3 Doherty Street,Birtinya,Queensland,4575,07 5390 6000,-26.74422,153.114563,FALSE,,,,,,,,,,,,,,,,,,,,,,,,,,,,,,,,,,,,,,,,,,,,,,,,,,,,,,,,,,,,,,,,,,,,,,,,,,,,,,,,PCP832
North Western Melbourne,176 Furlong Road,St Albans,Victoria,3021,03 8345 1333,-37.759179,144.816477,FALSE,,,,,,,,,,,,,,,,,,,,,,,,,,,,,,,,,,,,,,,,,,,,,,,,,,,,,,,,,,,,,,,,,,,,,,,,,,,,,,,,PCP833
Western Queensland,Ivan Street,Surat,Queensland,4417,07 4626 5166,-27.156595,149.063787,FALSE,,,,,,,,,,,,,,,,,,,,,,,,,,,,,,,,,,,,,,,,,,,,,,,,,,,,,,,,,,,,,,,,,,,,,,,,,,,,,,,,PCP834
,"Level 2, The Sutherland Hospital, The Kingsway",Caringbah,New South Wales,2229,02 9540 8555,-34.037931,151.114153,FALSE,,,,,,,,,,,,,,,,,,,,,,,,,,,,,,,,,,,,,,,,,,,,,,,,,,,,,,,,,,,,,,,,,,,,,,,,,,,,,,,,PCP835
Central and Eastern Sydney,430 Kingsway,Caringbah,New South Wales,2229,02 9540 7111,-34.037288,151.115151,FALSE,,,,,,,,,,,,,,,,,,,,,,,,,,,,,,,,,,,,,,,,,,,,,,,,,,,,,,,,,,,,,,,,,,,,,,,,,,,,,,,,PCP836
Murray,Monash Avenue,Nyah West,Victoria,3595,03 5030 2572,-35.186052,143.355428,FALSE,,,,,,,,,,,,,,,,,,,,,,,,,,,,,,,,,,,,,,,,,,,,,,,,,,,,,,,,,,,,,,,,,,,,,,,,,,,,,,,,PCP837
Murray,48 Splatt Street,Swan Hill,Victoria,3585,03 5033 9300,-35.340588,143.556514,FALSE,,,,,,,,,,,,,,,,,,,,,,,,,,,,,,,,,,,,,,,,,,,,,,,,,,,,,,,,,,,,,,,,,,,,,,,,,,,,,,,,PCP838
,185 Fox Valley Road,Wahroonga,New South Wales,2076,02 9487 9111,-33.733379,151.099874,FALSE,,,,,,,,,,,,,,,,,,,,,,,,,,,,,,,,,,,,,,,,,,,,,,,,,,,,,,,,,,,,,,,,,,,,,,,,,,,,,,,,PCP839
Central and Eastern Sydney,High Street,Randwick,New South Wales,2031,02 9382 1111,-33.917179,151.238334,FALSE,,,,,,,,,,,,,,,,,,,,,,,,,,,,,,,,,,,,,,,,,,,,,,,,,,,,,,,,,,,,,,,,,,,,,,,,,,,,,,,,PCP840
,"RPAH Medical Centre - Suite 106, 100 Carillon Avenue",Newtown,New South Wales,2042,02 9550 5600,-33.8912,151.1835,FALSE,,,,,,,,,,,,,,,,,,,,,,,,,,,,,,,,,,,,,,,,,,,,,,,,,,,,,,,,,,,,,,,,,,,,,,,,,,,,,,,,PCP841
Central and Eastern Sydney,2 Chalmers Street,Surry Hills,New South Wales,2010,02 9293 3200,-33.884469,151.207811,FALSE,,,,,,,,,,,,,,,,,,,,,,,,,,,,,,,,,,,,,,,,,,,,,,,,,,,,,,,,,,,,,,,,,,,,,,,,,,,,,,,,PCP842
Central and Eastern Sydney,8 Macquarie Street,Sydney,New South Wales,2000,02 9382 7111,-33.867929,151.212575,FALSE,,,,,,,,,,,,,,,,,,,,,,,,,,,,,,,,,,,,,,,,,,,,,,,,,,,,,,,,,,,,,,,,,,,,,,,,,,,,,,,,PCP843
,40 Bigge Street,Liverpool,New South Wales,2170,02 9821 0333,-33.917876,150.927499,FALSE,,,,,,,,,,,,,,,,,,,,,,,,,,,,,,,,,,,,,,,,,,,,,,,,,,,,,,,,,,,,,,,,,,,,,,,,,,,,,,,,PCP844
Country SA,74 Princes Highway,Tailem Bend,South Australia,5260,08 8572 5800,-35.254803,139.452692,FALSE,,,,,,,,,,,,,,,,,,,,,,,,,,,,,,,,,,,,,,,,,,,,,,,,,,,,,,,,,,,,,,,,,,,,,,,,,,,,,,,,PCP845
Murray,25 Barree Street,Tallangatta,Victoria,3700,02 6071 5200,-36.213705,147.183709,FALSE,,,,,,,,,,,,,,,,,,,,,,,,,,,,,,,,,,,,,,,,,,,,,,,,,,,,,,,,,,,,,,,,,,,,,,,,,,,,,,,,PCP846
,2-6 Dean Street,Tamworth,New South Wales,2340,02 6766 1955,-31.077535,150.921764,FALSE,,,,,,,,,,,,,,,,,,,,,,,,,,,,,,,,,,,,,,,,,,,,,,,,,,,,,,,,,,,,,,,,,,,,,,,,,,,,,,,,PCP847
Hunter New England and Central Coast,31 Dean Street,Tamworth,New South Wales,2340,02 6767 7700,-31.074079,150.924199,FALSE,,,,,,,,,,,,,,,,,,,,,,,,,,,,,,,,,,,,,,,,,,,,,,,,,,,,,,,,,,,,,,,,,,,,,,,,,,,,,,,,PCP848
Country SA,15 Mill Street,Tanunda,South Australia,5352,08 8563 2398,-34.528082,138.960859,FALSE,,,,,,,,,,,,,,,,,,,,,,,,,,,,,,,,,,,,,,,,,,,,,,,,,,,,,,,,,,,,,,,,,,,,,,,,,,,,,,,,PCP849
Darling Downs and West Moreton,15 Bilton Street,Tara,Queensland,4421,07 4678 7900,-27.273674,150.456368,FALSE,,,,,,,,,,,,,,,,,,,,,,,,,,,,,,,,,,,,,,,,,,,,,,,,,,,,,,,,,,,,,,,,,,,,,,,,,,,,,,,,PCP850
Darling Downs and West Moreton,Miller Street,Taroom,Queensland,4420,07 4628 9900,-25.638818,149.798669,FALSE,,,,,,,,,,,,,,,,,,,,,,,,,,,,,,,,,,,,,,,,,,,,,,,,,,,,,,,,,,,,,,,,,,,,,,,,,,,,,,,,PCP851
Tasmania,1614 Nubeena Road,Nubeena,Tasmania,7184,03 6250 9000,-43.096752,147.742831,FALSE,,,,,,,,,,,,,,,,,,,,,,,,,,,,,,,,,,,,,,,,,,,,,,,,,,,,,,,,,,,,,,,,,,,,,,,,,,,,,,,,PCP852
Murrumbidgee,169 Loftus Street,Temora,New South Wales,2666,02 6980 0200,-34.443942,147.542616,FALSE,,,,,,,,,,,,,,,,,,,,,,,,,,,,,,,,,,,,,,,,,,,,,,,,,,,,,,,,,,,,,,,,,,,,,,,,,,,,,,,,PCP853
Northern Territory,41 Schmidt Street,Tennant Creek,Northern Territory,860,08 8962 4399,-19.647791,134.186893,FALSE,,,,,,,,,,,,,,,,,,,,,,,,,,,,,,,,,,,,,,,,,,,,,,,,,,,,,,,,,,,,,,,,,,,,,,,,,,,,,,,,PCP854
Hunter New England and Central Coast,1-5 Naas Street,Tenterfield,New South Wales,2372,02 6739 5200,-29.045083,152.013552,FALSE,,,,,,,,,,,,,,,,,,,,,,,,,,,,,,,,,,,,,,,,,,,,,,,,,,,,,,,,,,,,,,,,,,,,,,,,,,,,,,,,PCP855
Western Victoria,13 Austin Avenue,Terang,Victoria,3264,03 5592 0222,-38.239388,142.902119,FALSE,,,,,,,,,,,,,,,,,,,,,,,,,,,,,,,,,,,,,,,,,,,,,,,,,,,,,,,,,,,,,,,,,,,,,,,,,,,,,,,,PCP856
Darling Downs and West Moreton,Mingoola Road,Texas,Queensland,4385,07 4653 3200,-28.855978,151.179481,FALSE,,,,,,,,,,,,,,,,,,,,,,,,,,,,,,,,,,,,,,,,,,,,,,,,,,,,,,,,,,,,,,,,,,,,,,,,,,,,,,,,PCP857
North Western Melbourne,55 Commercial Road,Prahran,Victoria,3181,03 9076 2000,-37.846087,144.981937,FALSE,,,,,,,,,,,,,,,,,,,,,,,,,,,,,,,,,,,,,,,,,,,,,,,,,,,,,,,,,,,,,,,,,,,,,,,,,,,,,,,,PCP858
,40 The Avenue,Windsor,Victoria,3181,03 9529 7377,-37.854809,144.998513,FALSE,,,,,,,,,,,,,,,,,,,,,,,,,,,,,,,,,,,,,,,,,,,,,,,,,,,,,,,,,,,,,,,,,,,,,,,,,,,,,,,,PCP859
,Vale Street,Mornington,Victoria,3931,03 5975 2009,-38.223524,145.040939,FALSE,,,,,,,,,,,,,,,,,,,,,,,,,,,,,,,,,,,,,,,,,,,,,,,,,,,,,,,,,,,,,,,,,,,,,,,,,,,,,,,,PCP860
Murray,62 Lucan Street,Bendigo,Victoria,3550,03 5454 6000,-36.748727,144.283372,FALSE,,,,,,,,,,,,,,,,,,,,,,,,,,,,,,,,,,,,,,,,,,,,,,,,,,,,,,,,,,,,,,,,,,,,,,,,,,,,,,,,PCP861
,201-239 Borella Road,Albury,New South Wales,2640,02 6064 1400,-36.078399,146.938123,FALSE,,,,,,,,,,,,,,,,,,,,,,,,,,,,,,,,,,,,,,,,,,,,,,,,,,,,,,,,,,,,,,,,,,,,,,,,,,,,,,,,PCP862
,253 Sheridan Street,Cairns,Queensland,4870,07 4050 7000,-16.910828,145.76209,FALSE,,,,,,,,,,,,,,,,,,,,,,,,,,,,,,,,,,,,,,,,,,,,,,,,,,,,,,,,,,,,,,,,,,,,,,,,,,,,,,,,PCP863
Australian Capital Territory,Yamba Drive,Garran,Australian Capital Territory,2605,02 5124 0000,-35.345777,149.100898,FALSE,,,,,,,,,,,,,,,,,,,,,,,,,,,,,,,,,,,,,,,,,,,,,,,,,,,,,,,,,,,,,,,,,,,,,,,,,,,,,,,,PCP864
Western Sydney,178 Hawkesbury Road,Westmead,New South Wales,2145,02 9845 0000,-33.801554,150.991759,FALSE,,,,,,,,,,,,,,,,,,,,,,,,,,,,,,,,,,,,,,,,,,,,,,,,,,,,,,,,,,,,,,,,,,,,,,,,,,,,,,,,PCP865
,262 Charles Street,Launceston,Tasmania,7250,03 6334 4960,-41.444592,147.141609,FALSE,,,,,,,,,,,,,,,,,,,,,,,,,,,,,,,,,,,,,,,,,,,,,,,,,,,,,,,,,,,,,,,,,,,,,,,,,,,,,,,,PCP866
,98 Townsend Road,St Albans Park,Victoria,3219,03 5248 1155,-38.182406,144.393267,FALSE,,,,,,,,,,,,,,,,,,,,,,,,,,,,,,,,,,,,,,,,,,,,,,,,,,,,,,,,,,,,,,,,,,,,,,,,,,,,,,,,PCP867
,15-17 Memorial Avenue,Kellyville,New South Wales,2155,1300 122 144,-33.716759,150.952057,FALSE,,,,,,,,,,,,,,,,,,,,,,,,,,,,,,,,,,,,,,,,,,,,,,,,,,,,,,,,,,,,,,,,,,,,,,,,,,,,,,,,PCP868
,499 Windsor Road,Baulkham Hills,New South Wales,2153,02 9639 3333,-33.743476,150.9825,FALSE,,,,,,,,,,,,,,,,,,,,,,,,,,,,,,,,,,,,,,,,,,,,,,,,,,,,,,,,,,,,,,,,,,,,,,,,,,,,,,,,PCP869
,31 Chipmans Road,Rokeby,Tasmania,7019,03 6247 9960,-42.905613,147.435278,FALSE,,,,,,,,,,,,,,,,,,,,,,,,,,,,,,,,,,,,,,,,,,,,,,,,,,,,,,,,,,,,,,,,,,,,,,,,,,,,,,,,PCP870
Murray,Rutledge Street,Kilmore,Victoria,3764,03 5734 2000,-37.301794,144.957915,FALSE,,,,,,,,,,,,,,,,,,,,,,,,,,,,,,,,,,,,,,,,,,,,,,,,,,,,,,,,,,,,,,,,,,,,,,,,,,,,,,,,PCP871
Western Victoria,45-95 Ballarat Road,North Geelong,Victoria,3215,03 5279 2222,-38.118795,144.335728,FALSE,,,,,,,,,,,,,,,,,,,,,,,,,,,,,,,,,,,,,,,,,,,,,,,,,,,,,,,,,,,,,,,,,,,,,,,,,,,,,,,,PCP872
,130 Church Street,Richmond,Victoria,3121,03 9429 4688,-37.814361,144.998739,FALSE,,,,,,,,,,,,,,,,,,,,,,,,,,,,,,,,,,,,,,,,,,,,,,,,,,,,,,,,,,,,,,,,,,,,,,,,,,,,,,,,PCP873
,Sir Edwin Smith Avenue,North Adelaide,South Australia,5006,08 8366 3800,-34.912733,138.599385,FALSE,,,,,,,,,,,,,,,,,,,,,,,,,,,,,,,,,,,,,,,,,,,,,,,,,,,,,,,,,,,,,,,,,,,,,,,,,,,,,,,,PCP874
South Eastern Melbourne,Corner of Tyalla Grove and Separation Street,Mornington,Victoria,3931,03 5976 2733,-38.230174,145.041697,FALSE,,,,,,,,,,,,,,,,,,,,,,,,,,,,,,,,,,,,,,,,,,,,,,,,,,,,,,,,,,,,,,,,,,,,,,,,,,,,,,,,PCP875
Eastern Melbourne,185 Cooper Street,Epping,Victoria,3076,03 8405 8000,-37.653417,145.014381,FALSE,,,,,,,,,,,,,,,,,,,,,,,,,,,,,,,,,,,,,,,,,,,,,,,,,,,,,,,,,,,,,,,,,,,,,,,,,,,,,,,,PCP876
Brisbane South,Corner of Ellerton Drive and Wolston Park Road,Wacol,Queensland,4076,07 3271 8222,-27.600413,152.910246,FALSE,,,,,,,,,,,,,,,,,,,,,,,,,,,,,,,,,,,,,,,,,,,,,,,,,,,,,,,,,,,,,,,,,,,,,,,,,,,,,,,,PCP877
Eastern Melbourne,321-345 Burwood Highway,Forest Hill,Victoria,3131,03 9881 1888,-37.852712,145.164542,FALSE,,,,,,,,,,,,,,,,,,,,,,,,,,,,,,,,,,,,,,,,,,,,,,,,,,,,,,,,,,,,,,,,,,,,,,,,,,,,,,,,PCP878
Brisbane North,Rode Road,Chermside,Queensland,4032,07 3139 4000,-27.390497,153.021955,FALSE,,,,,,,,,,,,,,,,,,,,,,,,,,,,,,,,,,,,,,,,,,,,,,,,,,,,,,,,,,,,,,,,,,,,,,,,,,,,,,,,PCP879
Adelaide,28 Woodville Road,Woodville,South Australia,5011,08 8222 6000,-34.884179,138.534039,FALSE,,,,,,,,,,,,,,,,,,,,,,,,,,,,,,,,,,,,,,,,,,,,,,,,,,,,,,,,,,,,,,,,,,,,,,,,,,,,,,,,PCP880
North Western Melbourne,32 Gisborne Street,East Melbourne,Victoria,3002,03 9929 8666,-37.808978,144.976245,FALSE,,,,,,,,,,,,,,,,,,,,,,,,,,,,,,,,,,,,,,,,,,,,,,,,,,,,,,,,,,,,,,,,,,,,,,,,,,,,,,,,PCP881
,7 Ashley Lane,Westmead,New South Wales,2145,02 8833 3000,-33.8072,150.98879,FALSE,,,,,,,,,,,,,,,,,,,,,,,,,,,,,,,,,,,,,,,,,,,,,,,,,,,,,,,,,,,,,,,,,,,,,,,,,,,,,,,,PCP882
Gold Coast,21 Spendelove Avenue,Southport,Queensland,4215,07 5671 8000,-27.973078,153.407852,FALSE,,,,,,,,,,,,,,,,,,,,,,,,,,,,,,,,,,,,,,,,,,,,,,,,,,,,,,,,,,,,,,,,,,,,,,,,,,,,,,,,PCP883
,22-24 Murray Street,Bronte,New South Wales,2024,02 9389 8888,-33.901383,151.260988,FALSE,,,,,,,,,,,,,,,,,,,,,,,,,,,,,,,,,,,,,,,,,,,,,,,,,,,,,,,,,,,,,,,,,,,,,,,,,,,,,,,,PCP884
,63 Victoria Street,Ashfield,New South Wales,2131,02 9797 0555,-33.894,151.1299,FALSE,,,,,,,,,,,,,,,,,,,,,,,,,,,,,,,,,,,,,,,,,,,,,,,,,,,,,,,,,,,,,,,,,,,,,,,,,,,,,,,,PCP885
Northern Queensland,100 Angus Smith Drive,Douglas,Queensland,4814,07 4433 1111,-19.320683,146.762092,FALSE,,,,,,,,,,,,,,,,,,,,,,,,,,,,,,,,,,,,,,,,,,,,,,,,,,,,,,,,,,,,,,,,,,,,,,,,,,,,,,,,PCP886
North Coast,14 Powell Street,Tweed Heads,New South Wales,2485,07 5536 1133,-28.177216,153.545458,FALSE,,,,,,,,,,,,,,,,,,,,,,,,,,,,,,,,,,,,,,,,,,,,,,,,,,,,,,,,,,,,,,,,,,,,,,,,,,,,,,,,PCP887
,Corner of Police and Gladstone Roads,Mulgrave,Victoria,3170,03 9790 9333,-37.938409,145.213122,FALSE,,,,,,,,,,,,,,,,,,,,,,,,,,,,,,,,,,,,,,,,,,,,,,,,,,,,,,,,,,,,,,,,,,,,,,,,,,,,,,,,PCP888
,324 Malvern Road,Prahran,Victoria,3181,03 9526 0200,-37.847714,144.997225,FALSE,,,,,,,,,,,,,,,,,,,,,,,,,,,,,,,,,,,,,,,,,,,,,,,,,,,,,,,,,,,,,,,,,,,,,,,,,,,,,,,,PCP889
,499 Springvale Road,Glen Waverley,Victoria,3150,03 9566 2777,-37.898227,145.161425,FALSE,,,,,,,,,,,,,,,,,,,,,,,,,,,,,,,,,,,,,,,,,,,,,,,,,,,,,,,,,,,,,,,,,,,,,,,,,,,,,,,,PCP890
,451 Coronation Drive,Auchenflower,Queensland,4066,07 3232 7000,-27.478335,152.997971,FALSE,,,,,,,,,,,,,,,,,,,,,,,,,,,,,,,,,,,,,,,,,,,,,,,,,,,,,,,,,,,,,,,,,,,,,,,,,,,,,,,,PCP891
"Central Queensland, Wide Bay and Sunshine Coast",The Boulevard,Theodore,Queensland,4719,07 4990 3000,-24.943109,150.075277,FALSE,,,,,,,,,,,,,,,,,,,,,,,,,,,,,,,,,,,,,,,,,,,,,,,,,,,,,,,,,,,,,,,,,,,,,,,,,,,,,,,,PCP892
Central and Eastern Sydney,Hospital Road,Concord West,New South Wales,2138,02 9736 2288,-33.832336,151.097897,FALSE,,,,,,,,,,,,,,,,,,,,,,,,,,,,,,,,,,,,,,,,,,,,,,,,,,,,,,,,,,,,,,,,,,,,,,,,,,,,,,,,PCP893
Northern Queensland,163 Douglas Street,Thursday Island,Queensland,4875,07 4069 0200,-10.588,142.21156,FALSE,,,,,,,,,,,,,,,,,,,,,,,,,,,,,,,,,,,,,,,,,,,,,,,,,,,,,,,,,,,,,,,,,,,,,,,,,,,,,,,,PCP894
Western NSW,Sturt Street,Tibooburra,New South Wales,2880,08 8091 3302,-29.433211,142.012817,FALSE,,,,,,,,,,,,,,,,,,,,,,,,,,,,,,,,,,,,,,,,,,,,,,,,,,,,,,,,,,,,,,,,,,,,,,,,,,,,,,,,PCP895
Western Victoria,21 Hospital Road,Timboon,Victoria,3268,03 5558 6000,-38.486231,142.976717,FALSE,,,,,,,,,,,,,,,,,,,,,,,,,,,,,,,,,,,,,,,,,,,,,,,,,,,,,,,,,,,,,,,,,,,,,,,,,,,,,,,,PCP896
Hunter New England and Central Coast,Inverell Road,Tingha,New South Wales,2369,02 6723 3901,-29.950779,151.206732,FALSE,,,,,,,,,,,,,,,,,,,,,,,,,,,,,,,,,,,,,,,,,,,,,,,,,,,,,,,,,,,,,,,,,,,,,,,,,,,,,,,,PCP897
Murrumbidgee,Adams Street,Tocumwal,New South Wales,2714,03 5874 2166,-35.815407,145.568996,FALSE,,,,,,,,,,,,,,,,,,,,,,,,,,,,,,,,,,,,,,,,,,,,,,,,,,,,,,,,,,,,,,,,,,,,,,,,,,,,,,,,PCP898
Country WA,862 Mine Road,Tom Price,Western Australia,6751,08 9159 5222,-22.695367,117.790271,FALSE,,,,,,,,,,,,,,,,,,,,,,,,,,,,,,,,,,,,,,,,,,,,,,,,,,,,,,,,,,,,,,,,,,,,,,,,,,,,,,,,PCP899
Hunter New England and Central Coast,2 Trevally Street,Nelson Bay,New South Wales,2315,02 4984 0700,-32.720053,152.158858,FALSE,,,,,,,,,,,,,,,,,,,,,,,,,,,,,,,,,,,,,,,,,,,,,,,,,,,,,,,,,,,,,,,,,,,,,,,,,,,,,,,,PCP900
Tasmania,10 Archer Street,Longford,Tasmania,7301,03 6391 1202,-41.593091,147.119486,FALSE,,,,,,,,,,,,,,,,,,,,,,,,,,,,,,,,,,,,,,,,,,,,,,,,,,,,,,,,,,,,,,,,,,,,,,,,,,,,,,,,PCP901
,496 Milton Road,Toowong,Queensland,4066,07 3721 8000,-27.47736,152.99125,FALSE,,,,,,,,,,,,,,,,,,,,,,,,,,,,,,,,,,,,,,,,,,,,,,,,,,,,,,,,,,,,,,,,,,,,,,,,,,,,,,,,PCP902
Darling Downs and West Moreton,Pechey Street,Toowoomba,Queensland,4350,07 4616 6000,-27.569872,151.944433,FALSE,,,,,,,,,,,,,,,,,,,,,,,,,,,,,,,,,,,,,,,,,,,,,,,,,,,,,,,,,,,,,,,,,,,,,,,,,,,,,,,,PCP903
,18 Scott Street,Toowoomba,Queensland,4350,07 4659 3100,-27.566341,151.973785,FALSE,,,,,,,,,,,,,,,,,,,,,,,,,,,,,,,,,,,,,,,,,,,,,,,,,,,,,,,,,,,,,,,,,,,,,,,,,,,,,,,,PCP904
Western NSW,Lot 10 Moondana Street,Tottenham,New South Wales,2873,02 6891 6200,-32.242711,147.358031,FALSE,,,,,,,,,,,,,,,,,,,,,,,,,,,,,,,,,,,,,,,,,,,,,,,,,,,,,,,,,,,,,,,,,,,,,,,,,,,,,,,,PCP905
,1 Martinez Avenue,West End,Queensland,4810,07 4725 4500,-19.268889,146.782836,FALSE,,,,,,,,,,,,,,,,,,,,,,,,,,,,,,,,,,,,,,,,,,,,,,,,,,,,,,,,,,,,,,,,,,,,,,,,,,,,,,,,PCP906
Western NSW,28 Harris Street,Trangie,New South Wales,2823,02 6880 8200,-32.030813,147.976355,FALSE,,,,,,,,,,,,,,,,,,,,,,,,,,,,,,,,,,,,,,,,,,,,,,,,,,,,,,,,,,,,,,,,,,,,,,,,,,,,,,,,PCP907
Central and Eastern Sydney,McKenzie Street,Belmore,New South Wales,2192,02 9787 0800,-33.918732,151.097526,FALSE,,,,,,,,,,,,,,,,,,,,,,,,,,,,,,,,,,,,,,,,,,,,,,,,,,,,,,,,,,,,,,,,,,,,,,,,,,,,,,,,PCP908
Nepean Blue Mountains,1b Barber Avenue,Kingswood,New South Wales,2747,02 4734 2124,-33.758161,150.714392,FALSE,,,,,,,,,,,,,,,,,,,,,,,,,,,,,,,,,,,,,,,,,,,,,,,,,,,,,,,,,,,,,,,,,,,,,,,,,,,,,,,,PCP909
Western NSW,44 Brookview Street,Trundle,New South Wales,2875,02 6892 1900,-32.921078,147.704315,FALSE,,,,,,,,,,,,,,,,,,,,,,,,,,,,,,,,,,,,,,,,,,,,,,,,,,,,,,,,,,,,,,,,,,,,,,,,,,,,,,,,PCP910
Western NSW,1 Hinkler Street,Tullamore,New South Wales,2874,02 6891 3100,-32.635114,147.568997,FALSE,,,,,,,,,,,,,,,,,,,,,,,,,,,,,,,,,,,,,,,,,,,,,,,,,,,,,,,,,,,,,,,,,,,,,,,,,,,,,,,,PCP911
Northern Queensland,Bryant Street,Tully,Queensland,4854,07 4068 4144,-17.927624,145.924146,FALSE,,,,,,,,,,,,,,,,,,,,,,,,,,,,,,,,,,,,,,,,,,,,,,,,,,,,,,,,,,,,,,,,,,,,,,,,,,,,,,,,PCP912
Murrumbidgee,4 Mitchell Street,Tumbarumba,New South Wales,2653,02 6948 9600,-35.778706,148.006203,FALSE,,,,,,,,,,,,,,,,,,,,,,,,,,,,,,,,,,,,,,,,,,,,,,,,,,,,,,,,,,,,,,,,,,,,,,,,,,,,,,,,PCP913
Country SA,8-11 Esplanade,Tumby Bay,South Australia,5605,08 8688 2007,-34.372292,136.103932,FALSE,,,,,,,,,,,,,,,,,,,,,,,,,,,,,,,,,,,,,,,,,,,,,,,,,,,,,,,,,,,,,,,,,,,,,,,,,,,,,,,,PCP914
Murrumbidgee,105 Simpson Street,Tumut,New South Wales,2720,02 6947 0800,-35.307265,148.219552,FALSE,,,,,,,,,,,,,,,,,,,,,,,,,,,,,,,,,,,,,,,,,,,,,,,,,,,,,,,,,,,,,,,,,,,,,,,,,,,,,,,,PCP915
North Western Melbourne,53 Adelaide Street,Footscray,Victoria,3011,03 9689 1577,-37.797407,144.887421,FALSE,,,,,,,,,,,,,,,,,,,,,,,,,,,,,,,,,,,,,,,,,,,,,,,,,,,,,,,,,,,,,,,,,,,,,,,,,,,,,,,,PCP916
,38-44 Boyd Street,Tweed Heads,New South Wales,2485,07 5599 5522,-28.179019,153.539989,FALSE,,,,,,,,,,,,,,,,,,,,,,,,,,,,,,,,,,,,,,,,,,,,,,,,,,,,,,,,,,,,,,,,,,,,,,,,,,,,,,,,PCP917
,111 Princes Highway,Ulladulla,New South Wales,2539,02 4455 5422,-35.358764,150.473481,FALSE,,,,,,,,,,,,,,,,,,,,,,,,,,,,,,,,,,,,,,,,,,,,,,,,,,,,,,,,,,,,,,,,,,,,,,,,,,,,,,,,PCP918
Western Victoria,Bellerine Street,Geelong,Victoria,3220,03 4215 0000,-38.151533,144.364964,FALSE,,,,,,,,,,,,,,,,,,,,,,,,,,,,,,,,,,,,,,,,,,,,,,,,,,,,,,,,,,,,,,,,,,,,,,,,,,,,,,,,PCP919
Murray,20 Kiell Street,Corryong,Victoria,3707,02 6076 3200,-36.198711,147.902798,FALSE,,,,,,,,,,,,,,,,,,,,,,,,,,,,,,,,,,,,,,,,,,,,,,,,,,,,,,,,,,,,,,,,,,,,,,,,,,,,,,,,PCP920
Murrumbidgee,127-129 Princess Street,Urana,New South Wales,2645,02 6920 8106,-35.325419,146.267316,FALSE,,,,,,,,,,,,,,,,,,,,,,,,,,,,,,,,,,,,,,,,,,,,,,,,,,,,,,,,,,,,,,,,,,,,,,,,,,,,,,,,PCP921
North Coast,45 Beaury Street,Urbenville,New South Wales,2475,02 6634 1600,-28.471511,152.543029,FALSE,,,,,,,,,,,,,,,,,,,,,,,,,,,,,,,,,,,,,,,,,,,,,,,,,,,,,,,,,,,,,,,,,,,,,,,,,,,,,,,,PCP922
North Western Melbourne,35 Mavis Street,Footscray,Victoria,3011,03 9319 7000,-37.791148,144.886747,FALSE,,,,,,,,,,,,,,,,,,,,,,,,,,,,,,,,,,,,,,,,,,,,,,,,,,,,,,,,,,,,,,,,,,,,,,,,,,,,,,,,PCP923
Hunter New England and Central Coast,13-33 Glen Innes Road,Emmaville,New South Wales,2371,02 6734 7900,-29.450547,151.599204,FALSE,,,,,,,,,,,,,,,,,,,,,,,,,,,,,,,,,,,,,,,,,,,,,,,,,,,,,,,,,,,,,,,,,,,,,,,,,,,,,,,,PCP924
,"Level 1, 100 Victoria Parade",East Melboune,Victoria,3002,03 9650 4000,-37.808521,144.97476,FALSE,,,,,,,,,,,,,,,,,,,,,,,,,,,,,,,,,,,,,,,,,,,,,,,,,,,,,,,,,,,,,,,,,,,,,,,,,,,,,,,,PCP925
North Western Melbourne,Yarra Bend Road,Fairfield,Victoria,3078,03 8684 0000,-37.78931,145.012975,FALSE,,,,,,,,,,,,,,,,,,,,,,,,,,,,,,,,,,,,,,,,,,,,,,,,,,,,,,,,,,,,,,,,,,,,,,,,,,,,,,,,PCP926
North Western Melbourne,317 Spencer Street,Melbourne,Victoria,3001,03 8684 0000,-37.812763,144.950757,FALSE,,,,,,,,,,,,,,,,,,,,,,,,,,,,,,,,,,,,,,,,,,,,,,,,,,,,,,,,,,,,,,,,,,,,,,,,,,,,,,,,PCP927
,27 Denmark Hill Road,Camberwell,Victoria,3123,03 9882 1347,-37.83252,145.0556,FALSE,,,,,,,,,,,,,,,,,,,,,,,,,,,,,,,,,,,,,,,,,,,,,,,,,,,,,,,,,,,,,,,,,,,,,,,,,,,,,,,,PCP928
,"Level 3, 270 Victoria Avenue",Chatswood,New South Wales,2086,02 9424 9999,-33.795181,151.187314,FALSE,,,,,,,,,,,,,,,,,,,,,,,,,,,,,,,,,,,,,,,,,,,,,,,,,,,,,,,,,,,,,,,,,,,,,,,,,,,,,,,,PCP929
,852 Whitehorse Road,Box Hill,Victoria,3128,03 9880 4333,-37.817591,145.119433,FALSE,,,,,,,,,,,,,,,,,,,,,,,,,,,,,,,,,,,,,,,,,,,,,,,,,,,,,,,,,,,,,,,,,,,,,,,,,,,,,,,,PCP930
,89 Paisley Street,Footscray,Victoria,3011,03 9689 9233,-37.800508,144.895155,FALSE,,,,,,,,,,,,,,,,,,,,,,,,,,,,,,,,,,,,,,,,,,,,,,,,,,,,,,,,,,,,,,,,,,,,,,,,,,,,,,,,PCP931
,8-10 Woniora Road,Hurstville,New South Wales,2220,02 9585 2585,-33.966949,151.100439,FALSE,,,,,,,,,,,,,,,,,,,,,,,,,,,,,,,,,,,,,,,,,,,,,,,,,,,,,,,,,,,,,,,,,,,,,,,,,,,,,,,,PCP932
,401 Milton Road,Auchenflower,Queensland,4066,07 3736 3000,-27.473726,152.995579,FALSE,,,,,,,,,,,,,,,,,,,,,,,,,,,,,,,,,,,,,,,,,,,,,,,,,,,,,,,,,,,,,,,,,,,,,,,,,,,,,,,,PCP933
,600 St Kilda Road,Melbourne,Victoria,3004,03 9521 2175,-37.850605,144.980304,FALSE,,,,,,,,,,,,,,,,,,,,,,,,,,,,,,,,,,,,,,,,,,,,,,,,,,,,,,,,,,,,,,,,,,,,,,,,,,,,,,,,PCP934
,50 Best Street,Wagga Wagga,New South Wales,2650,02 6921 2711,-35.115815,147.365914,FALSE,,,,,,,,,,,,,,,,,,,,,,,,,,,,,,,,,,,,,,,,,,,,,,,,,,,,,,,,,,,,,,,,,,,,,,,,,,,,,,,,PCP935
Murrumbidgee,260-280 Edward Street,Wagga Wagga,New South Wales,2650,02 5943 1000,-35.118083,147.356915,FALSE,,,,,,,,,,,,,,,,,,,,,,,,,,,,,,,,,,,,,,,,,,,,,,,,,,,,,,,,,,,,,,,,,,,,,,,,,,,,,,,,PCP936
Country WA,Warwick Street,Wagin,Western Australia,6315,08 9861 3444,-33.304662,117.347319,FALSE,,,,,,,,,,,,,,,,,,,,,,,,,,,,,,,,,,,,,,,,,,,,,,,,,,,,,,,,,,,,,,,,,,,,,,,,,,,,,,,,PCP937
Country SA,1 Lawrie Terrace,Waikerie,South Australia,5330,08 8541 0555,-34.182447,139.984917,FALSE,,,,,,,,,,,,,,,,,,,,,,,,,,,,,,,,,,,,,,,,,,,,,,,,,,,,,,,,,,,,,,,,,,,,,,,,,,,,,,,,PCP938
,221 Willmott Drive,Waikiki,Western Australia,6169,08 9550 0222,-32.310552,115.763147,FALSE,,,,,,,,,,,,,,,,,,,,,,,,,,,,,,,,,,,,,,,,,,,,,,,,,,,,,,,,,,,,,,,,,,,,,,,,,,,,,,,,PCP939
Hunter New England and Central Coast,Middle Street,Walcha,New South Wales,2354,02 6774 2366,-30.987818,151.591415,FALSE,,,,,,,,,,,,,,,,,,,,,,,,,,,,,,,,,,,,,,,,,,,,,,,,,,,,,,,,,,,,,,,,,,,,,,,,,,,,,,,,PCP940
,41 Walcott Street,Mount Lawley,Western Australia,6050,08 9227 9004,-31.936554,115.874141,FALSE,,,,,,,,,,,,,,,,,,,,,,,,,,,,,,,,,,,,,,,,,,,,,,,,,,,,,,,,,,,,,,,,,,,,,,,,,,,,,,,,PCP941
Western NSW,141 Fox Street,Walgett,New South Wales,2832,02 6828 6000,-30.030646,148.115959,FALSE,,,,,,,,,,,,,,,,,,,,,,,,,,,,,,,,,,,,,,,,,,,,,,,,,,,,,,,,,,,,,,,,,,,,,,,,,,,,,,,,PCP942
,134-150 Templeton Street,Wangaratta,Victoria,3677,03 5722 2678,-36.349299,146.312423,FALSE,,,,,,,,,,,,,,,,,,,,,,,,,,,,,,,,,,,,,,,,,,,,,,,,,,,,,,,,,,,,,,,,,,,,,,,,,,,,,,,,PCP943
Eastern Melbourne,251 Mountain Highway,Wantirna,Victoria,3152,03 9955 1200,-37.848525,145.225902,FALSE,,,,,,,,,,,,,,,,,,,,,,,,,,,,,,,,,,,,,,,,,,,,,,,,,,,,,,,,,,,,,,,,,,,,,,,,,,,,,,,,PCP944
Central and Eastern Sydney,125 Birrell Street,Waverley,New South Wales,2024,02 9369 0100,-33.897496,151.253816,FALSE,,,,,,,,,,,,,,,,,,,,,,,,,,,,,,,,,,,,,,,,,,,,,,,,,,,,,,,,,,,,,,,,,,,,,,,,,,,,,,,,PCP945
,31 Dora Street,Hurstville,New South Wales,2220,02 9598 0000,-33.963651,151.100464,FALSE,,,,,,,,,,,,,,,,,,,,,,,,,,,,,,,,,,,,,,,,,,,,,,,,,,,,,,,,,,,,,,,,,,,,,,,,,,,,,,,,PCP946
Hunter New England and Central Coast,Long Street,Warialda,New South Wales,2402,02 6728 9000,-29.538835,150.579567,FALSE,,,,,,,,,,,,,,,,,,,,,,,,,,,,,,,,,,,,,,,,,,,,,,,,,,,,,,,,,,,,,,,,,,,,,,,,,,,,,,,,PCP947
,Fairfax Road,Warners bay,New South Wales,2282,02 4958 4288,-32.965262,151.641204,FALSE,,,,,,,,,,,,,,,,,,,,,,,,,,,,,,,,,,,,,,,,,,,,,,,,,,,,,,,,,,,,,,,,,,,,,,,,,,,,,,,,PCP948
Country WA,16 Hospital Avenue,Manjimup,Western Australia,6258,08 9772 5100,-34.240969,116.154112,FALSE,,,,,,,,,,,,,,,,,,,,,,,,,,,,,,,,,,,,,,,,,,,,,,,,,,,,,,,,,,,,,,,,,,,,,,,,,,,,,,,,PCP949
Western NSW,Lot 176 Dr Kater Drive,Warren,New South Wales,2824,02 6847 7200,-31.693958,147.835679,FALSE,,,,,,,,,,,,,,,,,,,,,,,,,,,,,,,,,,,,,,,,,,,,,,,,,,,,,,,,,,,,,,,,,,,,,,,,,,,,,,,,PCP950
,216 Burgundy Street,Heidelberg,Victoria,3084,03 9274 1300,-37.754419,145.060728,FALSE,,,,,,,,,,,,,,,,,,,,,,,,,,,,,,,,,,,,,,,,,,,,,,,,,,,,,,,,,,,,,,,,,,,,,,,,,,,,,,,,PCP951
Darling Downs and West Moreton,56 Locke Street,Warwick,Queensland,4370,07 4660 3900,-28.224275,152.017983,FALSE,,,,,,,,,,,,,,,,,,,,,,,,,,,,,,,,,,,,,,,,,,,,,,,,,,,,,,,,,,,,,,,,,,,,,,,,,,,,,,,,PCP952
North Coast,69 High Street,Wauchope,New South Wales,2446,02 6580 8000,-31.457239,152.728131,FALSE,,,,,,,,,,,,,,,,,,,,,,,,,,,,,,,,,,,,,,,,,,,,,,,,,,,,,,,,,,,,,,,,,,,,,,,,,,,,,,,,PCP953
,343-357 Blackburn Road,Mount Waverley,Victoria,3149,03 9881 7700,-37.884632,145.145798,FALSE,,,,,,,,,,,,,,,,,,,,,,,,,,,,,,,,,,,,,,,,,,,,,,,,,,,,,,,,,,,,,,,,,,,,,,,,,,,,,,,,PCP954
Hunter New England and Central Coast,60 Alma Street,Wee Waa,New South Wales,2388,02 6795 0400,-30.225439,149.448287,FALSE,,,,,,,,,,,,,,,,,,,,,,,,,,,,,,,,,,,,,,,,,,,,,,,,,,,,,,,,,,,,,,,,,,,,,,,,,,,,,,,,PCP955
Northern Queensland,Lot 407 John Evans Drive,Weipa,Queensland,4874,07 4082 3900,-12.623419,141.881179,FALSE,,,,,,,,,,,,,,,,,,,,,,,,,,,,,,,,,,,,,,,,,,,,,,,,,,,,,,,,,,,,,,,,,,,,,,,,,,,,,,,,PCP956
Western NSW,30 Thornton Street,Wellington,New South Wales,2820,02 6840 8200,-32.549741,148.951977,FALSE,,,,,,,,,,,,,,,,,,,,,,,,,,,,,,,,,,,,,,,,,,,,,,,,,,,,,,,,,,,,,,,,,,,,,,,,,,,,,,,,PCP957
Western NSW,Silver City Highway,Wentworth,New South Wales,2648,03 5027 7111,-34.109983,141.922481,FALSE,,,,,,,,,,,,,,,,,,,,,,,,,,,,,,,,,,,,,,,,,,,,,,,,,,,,,,,,,,,,,,,,,,,,,,,,,,,,,,,,PCP958
Nepean Blue Mountains,Derby Street,Penrith,New South Wales,2750,02 4734 2000,-33.760249,150.712613,FALSE,,,,,,,,,,,,,,,,,,,,,,,,,,,,,,,,,,,,,,,,,,,,,,,,,,,,,,,,,,,,,,,,,,,,,,,,,,,,,,,,PCP959
North Western Melbourne,300 Princes Highway,Werribee,Victoria,3030,03 8754 3000,-37.886587,144.698621,FALSE,,,,,,,,,,,,,,,,,,,,,,,,,,,,,,,,,,,,,,,,,,,,,,,,,,,,,,,,,,,,,,,,,,,,,,,,,,,,,,,,PCP960
Hunter New England and Central Coast,22-34 North Street,Werris Creek,New South Wales,2341,02 6768 6600,-31.346691,150.652513,FALSE,,,,,,,,,,,,,,,,,,,,,,,,,,,,,,,,,,,,,,,,,,,,,,,,,,,,,,,,,,,,,,,,,,,,,,,,,,,,,,,,PCP961
,91 Milton Street,Ashfield,New South Wales,2131,1300 924 522,-33.8925,151.116666,FALSE,,,,,,,,,,,,,,,,,,,,,,,,,,,,,,,,,,,,,,,,,,,,,,,,,,,,,,,,,,,,,,,,,,,,,,,,,,,,,,,,PCP962
,7 Blake Street,Kogarah,New South Wales,2217,1300 924 522,-33.968262,151.12896,FALSE,,,,,,,,,,,,,,,,,,,,,,,,,,,,,,,,,,,,,,,,,,,,,,,,,,,,,,,,,,,,,,,,,,,,,,,,,,,,,,,,PCP963
Gippsland,41 Landsborough Street,Warragul,Victoria,3820,03 5623 0611,-38.173009,145.926804,FALSE,,,,,,,,,,,,,,,,,,,,,,,,,,,,,,,,,,,,,,,,,,,,,,,,,,,,,,,,,,,,,,,,,,,,,,,,,,,,,,,,PCP964
Western Victoria,2 Charles Street,Jeparit,Victoria,3423,03 5391 4222,-36.141132,141.984686,FALSE,,,,,,,,,,,,,,,,,,,,,,,,,,,,,,,,,,,,,,,,,,,,,,,,,,,,,,,,,,,,,,,,,,,,,,,,,,,,,,,,PCP965
Western Victoria,9 Farmers Street,Kaniva,Victoria,3419,03 5391 4222,-36.381386,141.246006,FALSE,,,,,,,,,,,,,,,,,,,,,,,,,,,,,,,,,,,,,,,,,,,,,,,,,,,,,,,,,,,,,,,,,,,,,,,,,,,,,,,,PCP966
Western Victoria,45 Nelson Street,Nhill,Victoria,3418,03 5391 4222,-36.334003,141.655579,FALSE,,,,,,,,,,,,,,,,,,,,,,,,,,,,,,,,,,,,,,,,,,,,,,,,,,,,,,,,,,,,,,,,,,,,,,,,,,,,,,,,PCP967
Western Victoria,2 Swinbourne Avenue,Rainbow,Victoria,3424,03 5391 4222,-35.903874,141.995112,FALSE,,,,,,,,,,,,,,,,,,,,,,,,,,,,,,,,,,,,,,,,,,,,,,,,,,,,,,,,,,,,,,,,,,,,,,,,,,,,,,,,PCP968
Western Victoria,89 Cromie Street,Rupanyup,Victoria,3388,03 5363 1200,-36.636571,142.631849,FALSE,,,,,,,,,,,,,,,,,,,,,,,,,,,,,,,,,,,,,,,,,,,,,,,,,,,,,,,,,,,,,,,,,,,,,,,,,,,,,,,,PCP969
Western Victoria,71 McLeod Street,Coleraine,Victoria,3315,03 5553 2000,-37.599913,141.692018,FALSE,,,,,,,,,,,,,,,,,,,,,,,,,,,,,,,,,,,,,,,,,,,,,,,,,,,,,,,,,,,,,,,,,,,,,,,,,,,,,,,,PCP970
Western Victoria,20 Foster Street,Hamilton,Victoria,3300,03 5551 8222,-37.736495,142.030606,FALSE,,,,,,,,,,,,,,,,,,,,,,,,,,,,,,,,,,,,,,,,,,,,,,,,,,,,,,,,,,,,,,,,,,,,,,,,,,,,,,,,PCP971
Western Victoria,146 Cobb Street,Penshurst,Victoria,3289,03 5552 3000,-37.877275,142.282487,FALSE,,,,,,,,,,,,,,,,,,,,,,,,,,,,,,,,,,,,,,,,,,,,,,,,,,,,,,,,,,,,,,,,,,,,,,,,,,,,,,,,PCP972
,1/30 Eleanor Street,Footscray,Victoria,3011,03 9318 3399,-37.792005,144.885343,FALSE,,,,,,,,,,,,,,,,,,,,,,,,,,,,,,,,,,,,,,,,,,,,,,,,,,,,,,,,,,,,,,,,,,,,,,,,,,,,,,,,PCP973
,168 Cudmore Terrace,Henley Beach,South Australia,5022,08 8356 1222,-34.909971,138.49966,FALSE,,,,,,,,,,,,,,,,,,,,,,,,,,,,,,,,,,,,,,,,,,,,,,,,,,,,,,,,,,,,,,,,,,,,,,,,,,,,,,,,PCP974
North Western Melbourne,160 Gordon Street,Footscray,Victoria,3011,03 8345 6666,-37.792298,144.887191,FALSE,,,,,,,,,,,,,,,,,,,,,,,,,,,,,,,,,,,,,,,,,,,,,,,,,,,,,,,,,,,,,,,,,,,,,,,,,,,,,,,,PCP975
,1-9 Marion Sreet,Footscray,Victoria,3011,03 9318 3177,-37.793045,144.885932,FALSE,,,,,,,,,,,,,,,,,,,,,,,,,,,,,,,,,,,,,,,,,,,,,,,,,,,,,,,,,,,,,,,,,,,,,,,,,,,,,,,,PCP976
,"Westmead Specialist Centre Level 2, 16-18 Mons Road",Westmead,New South Wales,2145,02 8837 9800,-33.802024,150.982879,FALSE,,,,,,,,,,,,,,,,,,,,,,,,,,,,,,,,,,,,,,,,,,,,,,,,,,,,,,,,,,,,,,,,,,,,,,,,,,,,,,,,PCP977
Western Sydney,166-174 Darcy Road,Westmead,New South Wales,2145,02 8890 5555,-33.804362,150.987811,FALSE,,,,,,,,,,,,,,,,,,,,,,,,,,,,,,,,,,,,,,,,,,,,,,,,,,,,,,,,,,,,,,,,,,,,,,,,,,,,,,,,PCP978
,Corner of Mons and Darcy Roads,Westmead,New South Wales,2145,02 8837 9000,-33.802865,150.982382,FALSE,,,,,,,,,,,,,,,,,,,,,,,,,,,,,,,,,,,,,,,,,,,,,,,,,,,,,,,,,,,,,,,,,,,,,,,,,,,,,,,,PCP979
,7 Coleman Street,Merrylands,New South Wales,2160,02 8833 3555,-33.819288,150.981059,FALSE,,,,,,,,,,,,,,,,,,,,,,,,,,,,,,,,,,,,,,,,,,,,,,,,,,,,,,,,,,,,,,,,,,,,,,,,,,,,,,,,PCP980
,476 Wanneroo Road,Westminster,Western Australia,6061,08 9349 5555,-31.862769,115.829163,FALSE,,,,,,,,,,,,,,,,,,,,,,,,,,,,,,,,,,,,,,,,,,,,,,,,,,,,,,,,,,,,,,,,,,,,,,,,,,,,,,,,PCP981
Country SA,20 Wood Terrace,Whyalla,South Australia,5600,08 8648 8300,-33.033977,137.577559,FALSE,,,,,,,,,,,,,,,,,,,,,,,,,,,,,,,,,,,,,,,,,,,,,,,,,,,,,,,,,,,,,,,,,,,,,,,,,,,,,,,,PCP982
Western NSW,14 Ross Street,Wilcannia,New South Wales,2836,08 8083 8777,-31.557638,143.385336,FALSE,,,,,,,,,,,,,,,,,,,,,,,,,,,,,,,,,,,,,,,,,,,,,,,,,,,,,,,,,,,,,,,,,,,,,,,,,,,,,,,,PCP983
North Western Melbourne,77B Railway Crescent,Williamstown,Victoria,3016,03 9393 0100,-37.863576,144.892339,FALSE,,,,,,,,,,,,,,,,,,,,,,,,,,,,,,,,,,,,,,,,,,,,,,,,,,,,,,,,,,,,,,,,,,,,,,,,,,,,,,,,PCP984
Hunter New England and Central Coast,59 O'Connell Street,Murrurundi,New South Wales,2338,02 6546 9000,-31.770408,150.834764,FALSE,,,,,,,,,,,,,,,,,,,,,,,,,,,,,,,,,,,,,,,,,,,,,,,,,,,,,,,,,,,,,,,,,,,,,,,,,,,,,,,,PCP985
Western Victoria,83 Baillie Street,Horsham,Victoria,3400,03 5381 9111,-36.712441,142.208522,FALSE,,,,,,,,,,,,,,,,,,,,,,,,,,,,,,,,,,,,,,,,,,,,,,,,,,,,,,,,,,,,,,,,,,,,,,,,,,,,,,,,PCP986
,20 The Avenue,Windsor,Victoria,3181,03 9520 9520,-37.856118,144.998213,FALSE,,,,,,,,,,,,,,,,,,,,,,,,,,,,,,,,,,,,,,,,,,,,,,,,,,,,,,,,,,,,,,,,,,,,,,,,,,,,,,,,PCP987
Hunter New England and Central Coast,32 Bungay Road,Wingham,New South Wales,2429,02 6557 3400,-31.878104,152.365179,FALSE,,,,,,,,,,,,,,,,,,,,,,,,,,,,,,,,,,,,,,,,,,,,,,,,,,,,,,,,,,,,,,,,,,,,,,,,,,,,,,,,PCP988
Western Queensland,Bloomfield Street,Winton,Queensland,4735,07 4657 2700,-22.381189,143.040672,FALSE,,,,,,,,,,,,,,,,,,,,,,,,,,,,,,,,,,,,,,,,,,,,,,,,,,,,,,,,,,,,,,,,,,,,,,,,,,,,,,,,PCP989
,354-358 Crown Street,Wollongong,New South Wales,2500,02 4226 6955,-34.42583,150.881346,FALSE,,,,,,,,,,,,,,,,,,,,,,,,,,,,,,,,,,,,,,,,,,,,,,,,,,,,,,,,,,,,,,,,,,,,,,,,,,,,,,,,PCP990
South Eastern NSW,348 Crown Street,Wollongong,New South Wales,2500,02 4222 5000,-34.424938,150.883451,FALSE,,,,,,,,,,,,,,,,,,,,,,,,,,,,,,,,,,,,,,,,,,,,,,,,,,,,,,,,,,,,,,,,,,,,,,,,,,,,,,,,PCP991
,360-364 Crown Street,Wollongong,New South Wales,2500,02 4286 1000,-34.425814,150.880729,FALSE,,,,,,,,,,,,,,,,,,,,,,,,,,,,,,,,,,,,,,,,,,,,,,,,,,,,,,,,,,,,,,,,,,,,,,,,,,,,,,,,PCP992
,8 Trelawney Street,Woollahra,New South Wales,2025,02 9328 6077,-33.884118,151.240739,FALSE,,,,,,,,,,,,,,,,,,,,,,,,,,,,,,,,,,,,,,,,,,,,,,,,,,,,,,,,,,,,,,,,,,,,,,,,,,,,,,,,PCP993
Adelaide,72 King William Road,North Adelaide,South Australia,5006,08 8161 7000,-34.911444,138.599631,FALSE,,,,,,,,,,,,,,,,,,,,,,,,,,,,,,,,,,,,,,,,,,,,,,,,,,,,,,,,,,,,,,,,,,,,,,,,,,,,,,,,PCP994
South Eastern Melbourne,193 Bluff Road,Sandringham,Victoria,3191,03 9076 1000,-37.961049,145.018157,FALSE,,,,,,,,,,,,,,,,,,,,,,,,,,,,,,,,,,,,,,,,,,,,,,,,,,,,,,,,,,,,,,,,,,,,,,,,,,,,,,,,PCP995
Darling Downs and West Moreton,Bramston Street,Wondai,Queensland,4606,07 4169 2600,-26.323335,151.878658,FALSE,,,,,,,,,,,,,,,,,,,,,,,,,,,,,,,,,,,,,,,,,,,,,,,,,,,,,,,,,,,,,,,,,,,,,,,,,,,,,,,,PCP996
Country WA,Ackland Street,Wongan Hills,Western Australia,6603,08 9691 1222,-30.894159,116.724843,FALSE,,,,,,,,,,,,,,,,,,,,,,,,,,,,,,,,,,,,,,,,,,,,,,,,,,,,,,,,,,,,,,,,,,,,,,,,,,,,,,,,PCP997
"Central Queensland, Wide Bay and Sunshine Coast",1 Munns Drive,Woorabinda,Queensland,4702,07 4913 2800,-24.131492,149.455983,FALSE,,,,,,,,,,,,,,,,,,,,,,,,,,,,,,,,,,,,,,,,,,,,,,,,,,,,,,,,,,,,,,,,,,,,,,,,,,,,,,,,PCP998
Hunter New England and Central Coast,7 Kathleen Street,Woy Woy,New South Wales,2256,02 4344 8444,-33.496716,151.320952,FALSE,,,,,,,,,,,,,,,,,,,,,,,,,,,,,,,,,,,,,,,,,,,,,,,,,,,,,,,,,,,,,,,,,,,,,,,,,,,,,,,,PCP999
Country SA,16-24 Richards Avenue,Wudinna,South Australia,5652,08 8680 2254,-33.050274,135.466983,FALSE,,,,,,,,,,,,,,,,,,,,,,,,,,,,,,,,,,,,,,,,,,,,,,,,,,,,,,,,,,,,,,,,,,,,,,,,,,,,,,,,PCP1000
Country WA,Honour Avenue,Wyalkatchem,Western Australia,6485,08 9692 1222,-31.176246,117.386212,FALSE,,,,,,,,,,,,,,,,,,,,,,,,,,,,,,,,,,,,,,,,,,,,,,,,,,,,,,,,,,,,,,,,,,,,,,,,,,,,,,,,PCP1001
Murrumbidgee,70 Ungarie Road,West Wyalong,New South Wales,2671,02 6979 0000,-33.916373,147.196483,FALSE,,,,,,,,,,,,,,,,,,,,,,,,,,,,,,,,,,,,,,,,,,,,,,,,,,,,,,,,,,,,,,,,,,,,,,,,,,,,,,,,PCP1002
Country WA,Minderoo Street,Wyndham,Western Australia,6740,08 9161 0222,-15.477793,128.127772,FALSE,,,,,,,,,,,,,,,,,,,,,,,,,,,,,,,,,,,,,,,,,,,,,,,,,,,,,,,,,,,,,,,,,,,,,,,,,,,,,,,,PCP1003
Hunter New England and Central Coast,664 Pacific Highway,Hamlyn Terrace,New South Wales,2259,02 4394 8000,-33.261113,151.480761,FALSE,,,,,,,,,,,,,,,,,,,,,,,,,,,,,,,,,,,,,,,,,,,,,,,,,,,,,,,,,,,,,,,,,,,,,,,,,,,,,,,,PCP1004
Eastern Melbourne,25 Market Street,Lilydale,Victoria,3140,1300 342 255,-37.756319,145.351204,FALSE,,,,,,,,,,,,,,,,,,,,,,,,,,,,,,,,,,,,,,,,,,,,,,,,,,,,,,,,,,,,,,,,,,,,,,,,,,,,,,,,PCP1005
Gippsland,85-91 Commercial Road,Yarram,Victoria,3971,03 5182 0222,-38.556975,146.678316,FALSE,,,,,,,,,,,,,,,,,,,,,,,,,,,,,,,,,,,,,,,,,,,,,,,,,,,,,,,,,,,,,,,,,,,,,,,,,,,,,,,,PCP1006
Murray,33 Piper Street,Yarrawonga,Victoria,3730,03 5743 8111,-36.011547,146.006584,FALSE,,,,,,,,,,,,,,,,,,,,,,,,,,,,,,,,,,,,,,,,,,,,,,,,,,,,,,,,,,,,,,,,,,,,,,,,,,,,,,,,PCP1007
South Eastern NSW,145-147 Meehan Street,Yass,New South Wales,2582,02 6220 2000,-34.844072,148.906427,FALSE,,,,,,,,,,,,,,,,,,,,,,,,,,,,,,,,,,,,,,,,,,,,,,,,,,,,,,,,,,,,,,,,,,,,,,,,,,,,,,,,PCP1008
Murray,45 Station Street,Yea,Victoria,3717,03 5736 0400,-37.213634,145.430724,FALSE,,,,,,,,,,,,,,,,,,,,,,,,,,,,,,,,,,,,,,,,,,,,,,,,,,,,,,,,,,,,,,,,,,,,,,,,,,,,,,,,PCP1009
Country WA,Trews Road,York,Western Australia,6302,08 9641 0200,-31.894392,116.757416,FALSE,,,,,,,,,,,,,,,,,,,,,,,,,,,,,,,,,,,,,,,,,,,,,,,,,,,,,,,,,,,,,,,,,,,,,,,,,,,,,,,,PCP1010
Murrumbidgee,68 Allanan Street,Young,New South Wales,2594,02 6382 8888,-34.320383,148.288457,FALSE,,,,,,,,,,,,,,,,,,,,,,,,,,,,,,,,,,,,,,,,,,,,,,,,,,,,,,,,,,,,,,,,,,,,,,,,,,,,,,,,PCP1011